{
"type": "FeatureCollection",
"name": "lines",
"features": [
{ "type": "Feature", "properties": { "osm_id": "-17575", "name": "Сувениры", "z_order": 0 }, "geometry": { "type": "LineString", "coordinates": [ [ 37.5782221, 55.7613398 ], [ 37.5781868, 55.7613062 ], [ 37.5782248, 55.761294 ], [ 37.5782613, 55.7613276 ], [ 37.5782221, 55.7613398 ] ] } },
{ "type": "Feature", "properties": { "osm_id": "-17576", "name": "Экскурционный центр", "z_order": 0 }, "geometry": { "type": "LineString", "coordinates": [ [ 37.5784551, 55.7613174 ], [ 37.5784347, 55.7612958 ], [ 37.5784707, 55.7612852 ], [ 37.5784903, 55.7613078 ], [ 37.5784551, 55.7613174 ] ] } },
{ "type": "Feature", "properties": { "osm_id": "-17578", "name": "Сувениры", "z_order": 0 }, "geometry": { "type": "LineString", "coordinates": [ [ 37.5781713, 55.7629125 ], [ 37.5781361, 55.762879 ], [ 37.578174, 55.7628668 ], [ 37.5782105, 55.7629003 ], [ 37.5781713, 55.7629125 ] ] } },
{ "type": "Feature", "properties": { "osm_id": "-17580", "highway": "footway", "z_order": 0 }, "geometry": { "type": "LineString", "coordinates": [ [ 37.5770854, 55.7636837 ], [ 37.5772729, 55.7637608 ], [ 37.5774484, 55.7638331 ], [ 37.5774159, 55.7638833 ], [ 37.5773906, 55.7638989 ], [ 37.5773275, 55.7639379 ], [ 37.5772479, 55.763987 ], [ 37.5771086, 55.7640628 ], [ 37.5770854, 55.7640754 ], [ 37.5769907, 55.7641435 ], [ 37.5769391, 55.7641805 ], [ 37.5769446, 55.7642079 ] ] } },
{ "type": "Feature", "properties": { "osm_id": "-17581", "highway": "footway", "z_order": 0 }, "geometry": { "type": "LineString", "coordinates": [ [ 37.5751568, 55.7638179 ], [ 37.5752422, 55.7637394 ], [ 37.5752856, 55.7636995 ], [ 37.5752999, 55.7636864 ], [ 37.5754601, 55.7635393 ], [ 37.5755527, 55.7634543 ], [ 37.5752795, 55.7633727 ] ] } },
{ "type": "Feature", "properties": { "osm_id": "-17582", "highway": "footway", "z_order": 0 }, "geometry": { "type": "LineString", "coordinates": [ [ 37.5755527, 55.7634543 ], [ 37.5757531, 55.7635137 ], [ 37.5761025, 55.7633964 ], [ 37.5762927, 55.7633443 ], [ 37.5764032, 55.7633141 ], [ 37.5766969, 55.7633672 ], [ 37.5770011, 55.7634222 ], [ 37.5771359, 55.7634466 ], [ 37.5773936, 55.7634932 ] ] } },
{ "type": "Feature", "properties": { "osm_id": "-17583", "highway": "footway", "z_order": 0 }, "geometry": { "type": "LineString", "coordinates": [ [ 37.5764032, 55.7633141 ], [ 37.5768994, 55.7632376 ] ] } },
{ "type": "Feature", "properties": { "osm_id": "-17584", "highway": "footway", "z_order": 0 }, "geometry": { "type": "LineString", "coordinates": [ [ 37.5760021, 55.7649514 ], [ 37.5764946, 55.7650344 ], [ 37.5767248, 55.7648416 ], [ 37.5767779, 55.7647971 ], [ 37.5770834, 55.7645011 ], [ 37.5772279, 55.7643392 ] ] } },
{ "type": "Feature", "properties": { "osm_id": "-17585", "highway": "footway", "z_order": 0 }, "geometry": { "type": "LineString", "coordinates": [ [ 37.577849, 55.7610688 ], [ 37.5779208, 55.7612378 ], [ 37.5780016, 55.7613145 ], [ 37.5780918, 55.761358 ], [ 37.5782081, 55.761368 ], [ 37.5783192, 55.7613519 ], [ 37.5784181, 55.7613373 ] ] } },
{ "type": "Feature", "properties": { "osm_id": "-17586", "highway": "footway", "z_order": 0 }, "geometry": { "type": "LineString", "coordinates": [ [ 37.5781441, 55.7611333 ], [ 37.5780918, 55.761358 ] ] } },
{ "type": "Feature", "properties": { "osm_id": "-17587", "highway": "footway", "z_order": 0 }, "geometry": { "type": "LineString", "coordinates": [ [ 37.5779208, 55.7612378 ], [ 37.5783794, 55.7613085 ] ] } },
{ "type": "Feature", "properties": { "osm_id": "-17588", "highway": "footway", "z_order": 0 }, "geometry": { "type": "LineString", "coordinates": [ [ 37.5785725, 55.7618581 ], [ 37.5788114, 55.7619456 ], [ 37.5787409, 55.7620011 ], [ 37.5786887, 55.7620458 ], [ 37.578575, 55.7621316 ] ] } },
{ "type": "Feature", "properties": { "osm_id": "-17589", "highway": "footway", "z_order": 0 }, "geometry": { "type": "LineString", "coordinates": [ [ 37.5785838, 55.7622169 ], [ 37.5783038, 55.7624389 ], [ 37.5781059, 55.7625883 ], [ 37.5779749, 55.7626312 ], [ 37.57766, 55.7627341 ], [ 37.5773783, 55.7628365 ], [ 37.5772986, 55.7628277 ], [ 37.5771623, 55.7628128 ], [ 37.576874, 55.7627811 ] ] } },
{ "type": "Feature", "properties": { "osm_id": "-17590", "highway": "footway", "z_order": 0 }, "geometry": { "type": "LineString", "coordinates": [ [ 37.5773783, 55.7628365 ], [ 37.5772742, 55.7629112 ], [ 37.5781396, 55.7628102 ], [ 37.5784844, 55.7627699 ] ] } },
{ "type": "Feature", "properties": { "osm_id": "-17591", "highway": "footway", "z_order": 0 }, "geometry": { "type": "LineString", "coordinates": [ [ 37.5783038, 55.7624389 ], [ 37.5784844, 55.7627699 ] ] } },
{ "type": "Feature", "properties": { "osm_id": "-17592", "highway": "footway", "z_order": 0 }, "geometry": { "type": "LineString", "coordinates": [ [ 37.5774484, 55.7638331 ], [ 37.5778432, 55.7636551 ] ] } },
{ "type": "Feature", "properties": { "osm_id": "-17593", "highway": "footway", "z_order": 0 }, "geometry": { "type": "LineString", "coordinates": [ [ 37.5761257, 55.7642528 ], [ 37.5761485, 55.7642053 ] ] } },
{ "type": "Feature", "properties": { "osm_id": "-17594", "highway": "footway", "z_order": 0 }, "geometry": { "type": "LineString", "coordinates": [ [ 37.5760021, 55.7649514 ], [ 37.5758024, 55.7652101 ], [ 37.5757259, 55.7650304 ], [ 37.575674, 55.7649086 ] ] } },
{ "type": "Feature", "properties": { "osm_id": "-17595", "highway": "footway", "z_order": 0 }, "geometry": { "type": "LineString", "coordinates": [ [ 37.5755263, 55.7648999 ], [ 37.575512, 55.7649005 ], [ 37.5753631, 55.7649072 ], [ 37.5752434, 55.7649125 ], [ 37.5751967, 55.7649145 ], [ 37.5751489, 55.7649167 ], [ 37.5750895, 55.7649013 ], [ 37.5749923, 55.764876 ], [ 37.5749663, 55.7648693 ], [ 37.5748559, 55.7648406 ], [ 37.574743, 55.7648519 ], [ 37.5745855, 55.7648678 ], [ 37.5746024, 55.7647425 ], [ 37.5746035, 55.7647339 ], [ 37.5746112, 55.764677 ], [ 37.5746122, 55.7646695 ], [ 37.5746186, 55.7646221 ], [ 37.5746257, 55.7645694 ], [ 37.5746338, 55.7645092 ], [ 37.5744856, 55.7640971 ], [ 37.5747431, 55.7643506 ], [ 37.5746338, 55.7645092 ] ] } },
{ "type": "Feature", "properties": { "osm_id": "-17596", "highway": "footway", "z_order": 0 }, "geometry": { "type": "LineString", "coordinates": [ [ 37.5751489, 55.7649167 ], [ 37.5750305, 55.7647633 ], [ 37.5748559, 55.7648406 ], [ 37.5748269, 55.7646888 ], [ 37.5746338, 55.7645092 ] ] } },
{ "type": "Feature", "properties": { "osm_id": "-17597", "highway": "footway", "z_order": 0 }, "geometry": { "type": "LineString", "coordinates": [ [ 37.57514, 55.7627752 ], [ 37.5750545, 55.7626772 ], [ 37.574958, 55.7625663 ], [ 37.57493, 55.7625342 ], [ 37.5749068, 55.7625076 ], [ 37.5748784, 55.7624751 ], [ 37.5749106, 55.7623139 ], [ 37.5750502, 55.7622947 ], [ 37.5752682, 55.7622646 ], [ 37.5751371, 55.7624016 ], [ 37.5749894, 55.7624436 ], [ 37.5748784, 55.7624751 ] ] } },
{ "type": "Feature", "properties": { "osm_id": "-17598", "highway": "footway", "z_order": 0 }, "geometry": { "type": "LineString", "coordinates": [ [ 37.5746338, 55.7645092 ], [ 37.5745711, 55.7644844 ], [ 37.5744529, 55.7644378 ], [ 37.5743471, 55.764396 ], [ 37.5742931, 55.7643747 ], [ 37.5744856, 55.7640971 ], [ 37.574777, 55.7638312 ], [ 37.5749698, 55.7636553 ], [ 37.5751869, 55.7634572 ], [ 37.5752795, 55.7633727 ] ] } },
{ "type": "Feature", "properties": { "osm_id": "-17599", "z_order": 0, "other_tags": "\"purpose\"=>\"entry\"" }, "geometry": { "type": "LineString", "coordinates": [ [ 37.5746087, 55.7645618 ], [ 37.5746257, 55.7645694 ] ] } },
{ "type": "Feature", "properties": { "osm_id": "-17601", "highway": "footway", "z_order": 0 }, "geometry": { "type": "LineString", "coordinates": [ [ 37.5838718, 55.7645029 ], [ 37.5842342, 55.7644328 ], [ 37.5845102, 55.7643795 ] ] } },
{ "type": "Feature", "properties": { "osm_id": "-17602", "highway": "footway", "z_order": 0 }, "geometry": { "type": "LineString", "coordinates": [ [ 37.5845531, 55.7629801 ], [ 37.5841084, 55.7627956 ], [ 37.5845276, 55.7630603 ] ] } },
{ "type": "Feature", "properties": { "osm_id": "-17603", "highway": "footway", "z_order": 0 }, "geometry": { "type": "LineString", "coordinates": [ [ 37.5845276, 55.7630603 ], [ 37.5841168, 55.7626915 ], [ 37.584414, 55.7628881 ], [ 37.5845531, 55.7629801 ], [ 37.5845276, 55.7630603 ] ] } },
{ "type": "Feature", "properties": { "osm_id": "-17604", "highway": "footway", "z_order": 0 }, "geometry": { "type": "LineString", "coordinates": [ [ 37.5827313, 55.7627634 ], [ 37.5827977, 55.7626933 ], [ 37.5831473, 55.7623246 ] ] } },
{ "type": "Feature", "properties": { "osm_id": "-17605", "highway": "footway", "z_order": 0 }, "geometry": { "type": "LineString", "coordinates": [ [ 37.5824294, 55.7617688 ], [ 37.5829115, 55.7616462 ], [ 37.5825321, 55.7616019 ] ] } },
{ "type": "Feature", "properties": { "osm_id": "-17606", "highway": "footway", "z_order": 0 }, "geometry": { "type": "LineString", "coordinates": [ [ 37.5829115, 55.7616462 ], [ 37.5828207, 55.761532 ] ] } },
{ "type": "Feature", "properties": { "osm_id": "-17607", "highway": "footway", "z_order": 0 }, "geometry": { "type": "LineString", "coordinates": [ [ 37.584874, 55.7634888 ], [ 37.5850845, 55.7635698 ], [ 37.5849427, 55.7633895 ], [ 37.5847906, 55.7631962 ] ] } },
{ "type": "Feature", "properties": { "osm_id": "-17608", "highway": "footway", "z_order": 0 }, "geometry": { "type": "LineString", "coordinates": [ [ 37.584816, 55.7633453 ], [ 37.5850845, 55.7635698 ] ] } },
{ "type": "Feature", "properties": { "osm_id": "-17609", "highway": "footway", "z_order": 0 }, "geometry": { "type": "LineString", "coordinates": [ [ 37.5845276, 55.7630603 ], [ 37.5840646, 55.7628614 ] ] } },
{ "type": "Feature", "properties": { "osm_id": "-17610", "highway": "footway", "z_order": 0 }, "geometry": { "type": "LineString", "coordinates": [ [ 37.5831475, 55.7614562 ], [ 37.5833333, 55.7614144 ] ] } },
{ "type": "Feature", "properties": { "osm_id": "-17611", "highway": "footway", "z_order": 0 }, "geometry": { "type": "LineString", "coordinates": [ [ 37.5775704, 55.7610862 ], [ 37.5775191, 55.7609507 ] ] } },
{ "type": "Feature", "properties": { "osm_id": "-17612", "z_order": 0, "other_tags": "\"purpose\"=>\"entry\"" }, "geometry": { "type": "LineString", "coordinates": [ [ 37.5788456, 55.7615017 ], [ 37.5785219, 55.761515 ] ] } },
{ "type": "Feature", "properties": { "osm_id": "-17613", "z_order": 0, "other_tags": "\"purpose\"=>\"entry\"" }, "geometry": { "type": "LineString", "coordinates": [ [ 37.5787989, 55.7616388 ], [ 37.5785406, 55.7616484 ] ] } },
{ "type": "Feature", "properties": { "osm_id": "-17614", "z_order": 0, "other_tags": "\"purpose\"=>\"entry\"" }, "geometry": { "type": "LineString", "coordinates": [ [ 37.5786985, 55.7617206 ], [ 37.5785516, 55.7617268 ] ] } },
{ "type": "Feature", "properties": { "osm_id": "-17615", "z_order": 0, "other_tags": "\"purpose\"=>\"entry\"" }, "geometry": { "type": "LineString", "coordinates": [ [ 37.5787197, 55.7617814 ], [ 37.57856, 55.7617867 ] ] } },
{ "type": "Feature", "properties": { "osm_id": "-17616", "z_order": 0, "other_tags": "\"purpose\"=>\"entry\"" }, "geometry": { "type": "LineString", "coordinates": [ [ 37.5789344, 55.7619505 ], [ 37.5788114, 55.7619456 ] ] } },
{ "type": "Feature", "properties": { "osm_id": "-17617", "z_order": 0, "other_tags": "\"purpose\"=>\"entry\"" }, "geometry": { "type": "LineString", "coordinates": [ [ 37.5788483, 55.7620377 ], [ 37.5787409, 55.7620011 ] ] } },
{ "type": "Feature", "properties": { "osm_id": "-17618", "z_order": 0, "other_tags": "\"purpose\"=>\"entry\"" }, "geometry": { "type": "LineString", "coordinates": [ [ 37.5788532, 55.7620864 ], [ 37.5786887, 55.7620458 ] ] } },
{ "type": "Feature", "properties": { "osm_id": "-17619", "z_order": 0, "other_tags": "\"purpose\"=>\"entry\"" }, "geometry": { "type": "LineString", "coordinates": [ [ 37.5791262, 55.7624514 ], [ 37.5790074, 55.7624191 ], [ 37.5788469, 55.7623909 ] ] } },
{ "type": "Feature", "properties": { "osm_id": "-17620", "z_order": 0, "other_tags": "\"purpose\"=>\"entry\"" }, "geometry": { "type": "LineString", "coordinates": [ [ 37.5788939, 55.7625622 ], [ 37.5790074, 55.7624191 ], [ 37.57911, 55.7622917 ] ] } },
{ "type": "Feature", "properties": { "osm_id": "-17621", "z_order": 0, "other_tags": "\"purpose\"=>\"entry\"" }, "geometry": { "type": "LineString", "coordinates": [ [ 37.5785279, 55.7627189 ], [ 37.5786609, 55.7627484 ], [ 37.5787206, 55.7626936 ] ] } },
{ "type": "Feature", "properties": { "osm_id": "-17622", "z_order": 0, "other_tags": "\"purpose\"=>\"entry\"" }, "geometry": { "type": "LineString", "coordinates": [ [ 37.5784962, 55.7627561 ], [ 37.5786026, 55.7627822 ], [ 37.5787018, 55.7626868 ] ] } },
{ "type": "Feature", "properties": { "osm_id": "-17623", "z_order": 0, "other_tags": "\"purpose\"=>\"entry\"" }, "geometry": { "type": "LineString", "coordinates": [ [ 37.5784684, 55.7627793 ], [ 37.578608, 55.7628157 ], [ 37.5787544, 55.7626954 ] ] } },
{ "type": "Feature", "properties": { "osm_id": "-17624", "highway": "footway", "z_order": 0 }, "geometry": { "type": "LineString", "coordinates": [ [ 37.578411, 55.7628126 ], [ 37.5786354, 55.7629132 ] ] } },
{ "type": "Feature", "properties": { "osm_id": "-17625", "z_order": 0, "other_tags": "\"purpose\"=>\"entry\"" }, "geometry": { "type": "LineString", "coordinates": [ [ 37.5786901, 55.7629374 ], [ 37.5786354, 55.7629132 ] ] } },
{ "type": "Feature", "properties": { "osm_id": "-17626", "z_order": 0, "other_tags": "\"purpose\"=>\"entry\"" }, "geometry": { "type": "LineString", "coordinates": [ [ 37.5785524, 55.7630025 ], [ 37.578535, 55.7630053 ], [ 37.5785138, 55.7630086 ], [ 37.5784789, 55.7630112 ] ] } },
{ "type": "Feature", "properties": { "osm_id": "-17627", "z_order": 0, "other_tags": "\"purpose\"=>\"entry\"" }, "geometry": { "type": "LineString", "coordinates": [ [ 37.5784695, 55.763098 ], [ 37.5784989, 55.7631109 ], [ 37.5785291, 55.7631156 ] ] } },
{ "type": "Feature", "properties": { "osm_id": "-17628", "z_order": 0, "other_tags": "\"purpose\"=>\"entry\"" }, "geometry": { "type": "LineString", "coordinates": [ [ 37.5784447, 55.7631336 ], [ 37.5784825, 55.7631446 ], [ 37.5785072, 55.7631473 ] ] } },
{ "type": "Feature", "properties": { "osm_id": "-17629", "z_order": 0, "other_tags": "\"purpose\"=>\"entry\"" }, "geometry": { "type": "LineString", "coordinates": [ [ 37.5784162, 55.7631529 ], [ 37.5784543, 55.7631702 ], [ 37.5784788, 55.7631773 ] ] } },
{ "type": "Feature", "properties": { "osm_id": "-17630", "z_order": 0, "other_tags": "\"purpose\"=>\"entry\"" }, "geometry": { "type": "LineString", "coordinates": [ [ 37.5783712, 55.763181 ], [ 37.5784099, 55.7631946 ], [ 37.5784313, 55.7632145 ] ] } },
{ "type": "Feature", "properties": { "osm_id": "-17631", "z_order": 0, "other_tags": "\"purpose\"=>\"entry\"" }, "geometry": { "type": "LineString", "coordinates": [ [ 37.5783522, 55.7632594 ], [ 37.578346, 55.7632441 ] ] } },
{ "type": "Feature", "properties": { "osm_id": "-17632", "z_order": 0, "other_tags": "\"purpose\"=>\"entry\"" }, "geometry": { "type": "LineString", "coordinates": [ [ 37.5781692, 55.7633727 ], [ 37.5782078, 55.7632679 ] ] } },
{ "type": "Feature", "properties": { "osm_id": "-17633", "z_order": 0, "other_tags": "\"purpose\"=>\"entry\"" }, "geometry": { "type": "LineString", "coordinates": [ [ 37.5778392, 55.7631723 ], [ 37.5778753, 55.7631831 ], [ 37.5779682, 55.7632036 ] ] } },
{ "type": "Feature", "properties": { "osm_id": "-17634", "z_order": 0, "other_tags": "\"purpose\"=>\"entry\"" }, "geometry": { "type": "LineString", "coordinates": [ [ 37.5778753, 55.7631831 ], [ 37.5779602, 55.7631534 ] ] } },
{ "type": "Feature", "properties": { "osm_id": "-17635", "z_order": 0, "other_tags": "\"purpose\"=>\"entry\"" }, "geometry": { "type": "LineString", "coordinates": [ [ 37.5777198, 55.7632643 ], [ 37.5778343, 55.7634284 ], [ 37.5776614, 55.7635262 ] ] } },
{ "type": "Feature", "properties": { "osm_id": "-17636", "z_order": 0, "other_tags": "\"purpose\"=>\"entry\"" }, "geometry": { "type": "LineString", "coordinates": [ [ 37.5778343, 55.7634284 ], [ 37.5775101, 55.7634259 ] ] } },
{ "type": "Feature", "properties": { "osm_id": "-17637", "z_order": 0, "other_tags": "\"purpose\"=>\"entry\"" }, "geometry": { "type": "LineString", "coordinates": [ [ 37.5769198, 55.7637707 ], [ 37.5771535, 55.7638779 ], [ 37.5772729, 55.7637608 ] ] } },
{ "type": "Feature", "properties": { "osm_id": "-17638", "z_order": 0, "other_tags": "\"purpose\"=>\"entry\"" }, "geometry": { "type": "LineString", "coordinates": [ [ 37.576972, 55.7639297 ], [ 37.5767952, 55.7638362 ] ] } },
{ "type": "Feature", "properties": { "osm_id": "-17639", "z_order": 0, "other_tags": "\"purpose\"=>\"entry\"" }, "geometry": { "type": "LineString", "coordinates": [ [ 37.5769467, 55.7640476 ], [ 37.5770854, 55.7640754 ] ] } },
{ "type": "Feature", "properties": { "osm_id": "-17640", "z_order": 0, "other_tags": "\"purpose\"=>\"entry\"" }, "geometry": { "type": "LineString", "coordinates": [ [ 37.5771562, 55.7640974 ], [ 37.5771086, 55.7640628 ] ] } },
{ "type": "Feature", "properties": { "osm_id": "-17641", "z_order": 0, "other_tags": "\"purpose\"=>\"entry\"" }, "geometry": { "type": "LineString", "coordinates": [ [ 37.5774216, 55.763977 ], [ 37.5773275, 55.7639379 ] ] } },
{ "type": "Feature", "properties": { "osm_id": "-17642", "z_order": 0, "other_tags": "\"purpose\"=>\"entry\"" }, "geometry": { "type": "LineString", "coordinates": [ [ 37.5767039, 55.7640623 ], [ 37.5765355, 55.7639798 ] ] } },
{ "type": "Feature", "properties": { "osm_id": "-17643", "z_order": 0, "other_tags": "\"purpose\"=>\"entry\"" }, "geometry": { "type": "LineString", "coordinates": [ [ 37.5769446, 55.7642079 ], [ 37.5766885, 55.7641695 ], [ 37.5763887, 55.7640609 ] ] } },
{ "type": "Feature", "properties": { "osm_id": "-17644", "z_order": 0, "other_tags": "\"purpose\"=>\"entry\"" }, "geometry": { "type": "LineString", "coordinates": [ [ 37.5766686, 55.7642467 ], [ 37.5763165, 55.7645865 ] ] } },
{ "type": "Feature", "properties": { "osm_id": "-17645", "z_order": 0, "other_tags": "\"purpose\"=>\"entry\"" }, "geometry": { "type": "LineString", "coordinates": [ [ 37.5761257, 55.7642528 ], [ 37.5763165, 55.7645865 ] ] } },
{ "type": "Feature", "properties": { "osm_id": "-17646", "z_order": 0, "other_tags": "\"purpose\"=>\"entry\"" }, "geometry": { "type": "LineString", "coordinates": [ [ 37.575728, 55.7646291 ], [ 37.5763165, 55.7645865 ] ] } },
{ "type": "Feature", "properties": { "osm_id": "-17647", "z_order": 0, "other_tags": "\"purpose\"=>\"entry\"" }, "geometry": { "type": "LineString", "coordinates": [ [ 37.5756448, 55.7645225 ], [ 37.575815, 55.7645468 ] ] } },
{ "type": "Feature", "properties": { "osm_id": "-17648", "z_order": 0, "other_tags": "\"purpose\"=>\"entry\"" }, "geometry": { "type": "LineString", "coordinates": [ [ 37.5754714, 55.7643259 ], [ 37.5759247, 55.764443 ] ] } },
{ "type": "Feature", "properties": { "osm_id": "-17649", "z_order": 0, "other_tags": "\"purpose\"=>\"entry\"" }, "geometry": { "type": "LineString", "coordinates": [ [ 37.5760456, 55.7640044 ], [ 37.5759924, 55.7640558 ] ] } },
{ "type": "Feature", "properties": { "osm_id": "-17650", "z_order": 0, "other_tags": "\"purpose\"=>\"entry\"" }, "geometry": { "type": "LineString", "coordinates": [ [ 37.5763395, 55.7640882 ], [ 37.5762082, 55.7640455 ], [ 37.5761366, 55.7640969 ] ] } },
{ "type": "Feature", "properties": { "osm_id": "-17651", "z_order": 0, "other_tags": "\"purpose\"=>\"entry\"" }, "geometry": { "type": "LineString", "coordinates": [ [ 37.5759265, 55.7639754 ], [ 37.5758711, 55.7640213 ] ] } },
{ "type": "Feature", "properties": { "osm_id": "-17652", "z_order": 0, "other_tags": "\"purpose\"=>\"entry\"" }, "geometry": { "type": "LineString", "coordinates": [ [ 37.5756908, 55.7639358 ], [ 37.5756643, 55.7639624 ] ] } },
{ "type": "Feature", "properties": { "osm_id": "-17653", "z_order": 0, "other_tags": "\"purpose\"=>\"entry\"" }, "geometry": { "type": "LineString", "coordinates": [ [ 37.5752999, 55.7636864 ], [ 37.5754497, 55.7637423 ], [ 37.5753341, 55.7638684 ] ] } },
{ "type": "Feature", "properties": { "osm_id": "-17654", "z_order": 0, "other_tags": "\"purpose\"=>\"entry\"" }, "geometry": { "type": "LineString", "coordinates": [ [ 37.5749698, 55.7636553 ], [ 37.5750876, 55.7636941 ], [ 37.5752422, 55.7637394 ] ] } },
{ "type": "Feature", "properties": { "osm_id": "-17655", "z_order": 0, "other_tags": "\"purpose\"=>\"entry\"" }, "geometry": { "type": "LineString", "coordinates": [ [ 37.574777, 55.7638312 ], [ 37.5749107, 55.7638749 ], [ 37.5750758, 55.7639136 ] ] } },
{ "type": "Feature", "properties": { "osm_id": "-17656", "z_order": 0, "other_tags": "\"purpose\"=>\"entry\"" }, "geometry": { "type": "LineString", "coordinates": [ [ 37.5750284, 55.7639696 ], [ 37.575127, 55.7640551 ], [ 37.5749506, 55.7640615 ] ] } },
{ "type": "Feature", "properties": { "osm_id": "-17657", "z_order": 0, "other_tags": "\"purpose\"=>\"entry\"" }, "geometry": { "type": "LineString", "coordinates": [ [ 37.5743582, 55.7638916 ], [ 37.5744614, 55.763898 ] ] } },
{ "type": "Feature", "properties": { "osm_id": "-17658", "z_order": 0, "other_tags": "\"purpose\"=>\"entry\"" }, "geometry": { "type": "LineString", "coordinates": [ [ 37.5743771, 55.7640273 ], [ 37.5744212, 55.7640065 ] ] } },
{ "type": "Feature", "properties": { "osm_id": "-17659", "z_order": 0, "other_tags": "\"purpose\"=>\"entry\"" }, "geometry": { "type": "LineString", "coordinates": [ [ 37.5744594, 55.7635945 ], [ 37.5745702, 55.7636043 ] ] } },
{ "type": "Feature", "properties": { "osm_id": "-17660", "z_order": 0, "other_tags": "\"purpose\"=>\"entry\"" }, "geometry": { "type": "LineString", "coordinates": [ [ 37.5749649, 55.7633384 ], [ 37.5749703, 55.7633988 ] ] } },
{ "type": "Feature", "properties": { "osm_id": "-17661", "z_order": 0, "other_tags": "\"purpose\"=>\"entry\"" }, "geometry": { "type": "LineString", "coordinates": [ [ 37.5753574, 55.7632474 ], [ 37.5751857, 55.7632322 ], [ 37.5751572, 55.763383 ] ] } },
{ "type": "Feature", "properties": { "osm_id": "-17663", "z_order": 0, "other_tags": "\"purpose\"=>\"entry\"" }, "geometry": { "type": "LineString", "coordinates": [ [ 37.575416, 55.7631533 ], [ 37.5757287, 55.763247 ], [ 37.5755527, 55.7634543 ] ] } },
{ "type": "Feature", "properties": { "osm_id": "-17664", "z_order": 0, "other_tags": "\"purpose\"=>\"entry\"" }, "geometry": { "type": "LineString", "coordinates": [ [ 37.5752926, 55.7630687 ], [ 37.5754536, 55.7630929 ] ] } },
{ "type": "Feature", "properties": { "osm_id": "-17665", "z_order": 0, "other_tags": "\"purpose\"=>\"entry\"" }, "geometry": { "type": "LineString", "coordinates": [ [ 37.5764557, 55.763022 ], [ 37.5762466, 55.7631924 ], [ 37.5762927, 55.7633443 ] ] } },
{ "type": "Feature", "properties": { "osm_id": "-17666", "z_order": 0, "other_tags": "\"purpose\"=>\"entry\"" }, "geometry": { "type": "LineString", "coordinates": [ [ 37.5762349, 55.7635003 ], [ 37.5761025, 55.7633964 ] ] } },
{ "type": "Feature", "properties": { "osm_id": "-17668", "z_order": 0, "other_tags": "\"purpose\"=>\"entry\"" }, "geometry": { "type": "LineString", "coordinates": [ [ 37.5771623, 55.7628128 ], [ 37.5772402, 55.7628035 ], [ 37.5772986, 55.7628277 ] ] } },
{ "type": "Feature", "properties": { "osm_id": "-17669", "z_order": 0, "other_tags": "\"purpose\"=>\"entry\"" }, "geometry": { "type": "LineString", "coordinates": [ [ 37.5762666, 55.7625096 ], [ 37.5765197, 55.7626252 ], [ 37.5767988, 55.762602 ] ] } },
{ "type": "Feature", "properties": { "osm_id": "-17670", "z_order": 0, "other_tags": "\"purpose\"=>\"entry\"" }, "geometry": { "type": "LineString", "coordinates": [ [ 37.5761303, 55.7626831 ], [ 37.5762705, 55.7627533 ], [ 37.576134, 55.7628384 ] ] } },
{ "type": "Feature", "properties": { "osm_id": "-17671", "z_order": 0, "other_tags": "\"purpose\"=>\"entry\"" }, "geometry": { "type": "LineString", "coordinates": [ [ 37.576874, 55.7627811 ], [ 37.5765176, 55.7628566 ], [ 37.5763252, 55.7629564 ] ] } },
{ "type": "Feature", "properties": { "osm_id": "-17672", "z_order": 0, "other_tags": "\"purpose\"=>\"entry\"" }, "geometry": { "type": "LineString", "coordinates": [ [ 37.5768371, 55.7627039 ], [ 37.5764899, 55.76277 ], [ 37.5761807, 55.7628838 ] ] } },
{ "type": "Feature", "properties": { "osm_id": "-17673", "z_order": 0, "other_tags": "\"purpose\"=>\"entry\"" }, "geometry": { "type": "LineString", "coordinates": [ [ 37.5764145, 55.762179 ], [ 37.5761774, 55.7621486 ] ] } },
{ "type": "Feature", "properties": { "osm_id": "-17674", "z_order": 0, "other_tags": "\"purpose\"=>\"entry\"" }, "geometry": { "type": "LineString", "coordinates": [ [ 37.5755793, 55.7625394 ], [ 37.5756404, 55.7623513 ], [ 37.5755307, 55.7623252 ] ] } },
{ "type": "Feature", "properties": { "osm_id": "-17675", "z_order": 0, "other_tags": "\"purpose\"=>\"entry\"" }, "geometry": { "type": "LineString", "coordinates": [ [ 37.5756675, 55.7620813 ], [ 37.5757342, 55.7622427 ], [ 37.5755967, 55.7622076 ] ] } },
{ "type": "Feature", "properties": { "osm_id": "-17676", "z_order": 0, "other_tags": "\"purpose\"=>\"entry\"" }, "geometry": { "type": "LineString", "coordinates": [ [ 37.5753351, 55.7620304 ], [ 37.5748676, 55.7621541 ], [ 37.5749106, 55.7623139 ] ] } },
{ "type": "Feature", "properties": { "osm_id": "-17677", "z_order": 0, "other_tags": "\"purpose\"=>\"entry\"" }, "geometry": { "type": "LineString", "coordinates": [ [ 37.5755798, 55.7619593 ], [ 37.5755872, 55.7619991 ] ] } },
{ "type": "Feature", "properties": { "osm_id": "-17678", "z_order": 0, "other_tags": "\"purpose\"=>\"entry\"" }, "geometry": { "type": "LineString", "coordinates": [ [ 37.5758317, 55.76188 ], [ 37.5758643, 55.7619928 ] ] } },
{ "type": "Feature", "properties": { "osm_id": "-17679", "z_order": 0, "other_tags": "\"purpose\"=>\"entry\"" }, "geometry": { "type": "LineString", "coordinates": [ [ 37.5796297, 55.7625123 ], [ 37.5797218, 55.7625539 ], [ 37.5797638, 55.7626105 ] ] } },
{ "type": "Feature", "properties": { "osm_id": "-17680", "z_order": 0, "other_tags": "\"purpose\"=>\"entry\"" }, "geometry": { "type": "LineString", "coordinates": [ [ 37.5797134, 55.76248 ], [ 37.5796207, 55.7624509 ], [ 37.5796297, 55.7625123 ] ] } },
{ "type": "Feature", "properties": { "osm_id": "-17681", "z_order": 0, "other_tags": "\"purpose\"=>\"entry\"" }, "geometry": { "type": "LineString", "coordinates": [ [ 37.5800157, 55.7625984 ], [ 37.5800175, 55.7625799 ], [ 37.5799091, 55.7625811 ] ] } },
{ "type": "Feature", "properties": { "osm_id": "-17682", "z_order": 0, "other_tags": "\"purpose\"=>\"entry\"" }, "geometry": { "type": "LineString", "coordinates": [ [ 37.5800175, 55.7625799 ], [ 37.5800371, 55.7626443 ] ] } },
{ "type": "Feature", "properties": { "osm_id": "-17683", "z_order": 0, "other_tags": "\"purpose\"=>\"entry\"" }, "geometry": { "type": "LineString", "coordinates": [ [ 37.5801735, 55.7626823 ], [ 37.5802017, 55.7626201 ], [ 37.5801647, 55.7626356 ] ] } },
{ "type": "Feature", "properties": { "osm_id": "-17684", "z_order": 0, "other_tags": "\"purpose\"=>\"entry\"" }, "geometry": { "type": "LineString", "coordinates": [ [ 37.5803439, 55.7627298 ], [ 37.5804011, 55.7626787 ], [ 37.5803626, 55.7626907 ] ] } },
{ "type": "Feature", "properties": { "osm_id": "-17685", "z_order": 0, "other_tags": "\"purpose\"=>\"entry\"" }, "geometry": { "type": "LineString", "coordinates": [ [ 37.5806111, 55.762815 ], [ 37.5806829, 55.7627501 ], [ 37.5806313, 55.7627656 ] ] } },
{ "type": "Feature", "properties": { "osm_id": "-17686", "z_order": 0, "other_tags": "\"purpose\"=>\"entry\"" }, "geometry": { "type": "LineString", "coordinates": [ [ 37.5810567, 55.762884 ], [ 37.5810745, 55.7628498 ], [ 37.5810271, 55.7628758 ] ] } },
{ "type": "Feature", "properties": { "osm_id": "-17687", "z_order": 0, "other_tags": "\"purpose\"=>\"entry\"" }, "geometry": { "type": "LineString", "coordinates": [ [ 37.5814919, 55.763015 ], [ 37.581466, 55.7629086 ], [ 37.5813449, 55.76297 ] ] } },
{ "type": "Feature", "properties": { "osm_id": "-17688", "z_order": 0, "other_tags": "\"purpose\"=>\"entry\"" }, "geometry": { "type": "LineString", "coordinates": [ [ 37.5821439, 55.7626603 ], [ 37.5816541, 55.7627851 ], [ 37.5816167, 55.7630533 ] ] } },
{ "type": "Feature", "properties": { "osm_id": "-17689", "z_order": 0, "other_tags": "\"purpose\"=>\"entry\"" }, "geometry": { "type": "LineString", "coordinates": [ [ 37.5823352, 55.7627878 ], [ 37.5821129, 55.7627501 ], [ 37.582171, 55.7626939 ] ] } },
{ "type": "Feature", "properties": { "osm_id": "-17690", "z_order": 0, "other_tags": "\"purpose\"=>\"entry\"" }, "geometry": { "type": "LineString", "coordinates": [ [ 37.582419, 55.7626871 ], [ 37.5823348, 55.7626342 ], [ 37.5822663, 55.7627 ] ] } },
{ "type": "Feature", "properties": { "osm_id": "-17691", "z_order": 0, "other_tags": "\"purpose\"=>\"entry\"" }, "geometry": { "type": "LineString", "coordinates": [ [ 37.5823348, 55.7626342 ], [ 37.5826212, 55.7626252 ] ] } },
{ "type": "Feature", "properties": { "osm_id": "-17692", "z_order": 0, "other_tags": "\"purpose\"=>\"entry\"" }, "geometry": { "type": "LineString", "coordinates": [ [ 37.5833418, 55.7625785 ], [ 37.5830897, 55.7627656 ], [ 37.5827977, 55.7626933 ] ] } },
{ "type": "Feature", "properties": { "osm_id": "-17693", "z_order": 0, "other_tags": "\"purpose\"=>\"entry\"" }, "geometry": { "type": "LineString", "coordinates": [ [ 37.5837127, 55.7630925 ], [ 37.5834525, 55.7631373 ], [ 37.5833471, 55.7630063 ] ] } },
{ "type": "Feature", "properties": { "osm_id": "-17694", "z_order": 0, "other_tags": "\"purpose\"=>\"entry\"" }, "geometry": { "type": "LineString", "coordinates": [ [ 37.5837127, 55.7630925 ], [ 37.5840397, 55.7630905 ], [ 37.5840353, 55.7630197 ] ] } },
{ "type": "Feature", "properties": { "osm_id": "-17695", "z_order": 0, "other_tags": "\"purpose\"=>\"entry\"" }, "geometry": { "type": "LineString", "coordinates": [ [ 37.5845276, 55.7630603 ], [ 37.5841868, 55.7631254 ], [ 37.5842383, 55.7630233 ] ] } },
{ "type": "Feature", "properties": { "osm_id": "-17696", "z_order": 0, "other_tags": "\"purpose\"=>\"entry\"" }, "geometry": { "type": "LineString", "coordinates": [ [ 37.5847906, 55.7631962 ], [ 37.5844648, 55.7631898 ], [ 37.5845276, 55.7630603 ] ] } },
{ "type": "Feature", "properties": { "osm_id": "-17697", "z_order": 0, "other_tags": "\"purpose\"=>\"entry\"" }, "geometry": { "type": "LineString", "coordinates": [ [ 37.584414, 55.7628881 ], [ 37.5846735, 55.762928 ], [ 37.5845531, 55.7629801 ] ] } },
{ "type": "Feature", "properties": { "osm_id": "-17698", "z_order": 0, "other_tags": "\"purpose\"=>\"entry\"" }, "geometry": { "type": "LineString", "coordinates": [ [ 37.5850845, 55.7635698 ], [ 37.5850649, 55.7633686 ], [ 37.5849427, 55.7633895 ] ] } },
{ "type": "Feature", "properties": { "osm_id": "-17699", "z_order": 0, "other_tags": "\"purpose\"=>\"entry\"" }, "geometry": { "type": "LineString", "coordinates": [ [ 37.5850649, 55.7633686 ], [ 37.584816, 55.7633453 ] ] } },
{ "type": "Feature", "properties": { "osm_id": "-17700", "z_order": 0, "other_tags": "\"purpose\"=>\"entry\"" }, "geometry": { "type": "LineString", "coordinates": [ [ 37.584168, 55.763681 ], [ 37.5842279, 55.763828 ] ] } },
{ "type": "Feature", "properties": { "osm_id": "-17701", "z_order": 0, "other_tags": "\"purpose\"=>\"entry\"" }, "geometry": { "type": "LineString", "coordinates": [ [ 37.5837837, 55.7636878 ], [ 37.5836983, 55.7638607 ] ] } },
{ "type": "Feature", "properties": { "osm_id": "-17702", "z_order": 0, "other_tags": "\"purpose\"=>\"entry\"" }, "geometry": { "type": "LineString", "coordinates": [ [ 37.583382, 55.7639082 ], [ 37.5832442, 55.7637092 ], [ 37.5830501, 55.763749 ] ] } },
{ "type": "Feature", "properties": { "osm_id": "-17703", "z_order": 0, "other_tags": "\"purpose\"=>\"entry\"" }, "geometry": { "type": "LineString", "coordinates": [ [ 37.583891, 55.7639258 ], [ 37.5838323, 55.7638461 ] ] } },
{ "type": "Feature", "properties": { "osm_id": "-17704", "z_order": 0, "other_tags": "\"purpose\"=>\"entry\"" }, "geometry": { "type": "LineString", "coordinates": [ [ 37.5845836, 55.763949 ], [ 37.5842526, 55.7639425 ], [ 37.5842279, 55.763828 ] ] } },
{ "type": "Feature", "properties": { "osm_id": "-17706", "z_order": 0, "other_tags": "\"purpose\"=>\"entry\"" }, "geometry": { "type": "LineString", "coordinates": [ [ 37.58379, 55.7644181 ], [ 37.5839111, 55.7643775 ], [ 37.5839359, 55.7644723 ] ] } },
{ "type": "Feature", "properties": { "osm_id": "-17707", "z_order": 0, "other_tags": "\"purpose\"=>\"entry\"" }, "geometry": { "type": "LineString", "coordinates": [ [ 37.5842394, 55.7644952 ], [ 37.5842342, 55.7644328 ] ] } },
{ "type": "Feature", "properties": { "osm_id": "-17708", "z_order": 0, "other_tags": "\"purpose\"=>\"entry\"" }, "geometry": { "type": "LineString", "coordinates": [ [ 37.5834518, 55.7643923 ], [ 37.5834573, 55.7645088 ], [ 37.5835888, 55.7644622 ] ] } },
{ "type": "Feature", "properties": { "osm_id": "-17709", "z_order": 0, "other_tags": "\"purpose\"=>\"entry\"" }, "geometry": { "type": "LineString", "coordinates": [ [ 37.5831336, 55.7641781 ], [ 37.5833813, 55.7642547 ], [ 37.583264, 55.7643056 ] ] } },
{ "type": "Feature", "properties": { "osm_id": "-17710", "z_order": 0, "other_tags": "\"purpose\"=>\"entry\"" }, "geometry": { "type": "LineString", "coordinates": [ [ 37.583382, 55.7639082 ], [ 37.5834404, 55.7641396 ], [ 37.5831363, 55.76412 ] ] } },
{ "type": "Feature", "properties": { "osm_id": "-17711", "z_order": 0, "other_tags": "\"purpose\"=>\"entry\"" }, "geometry": { "type": "LineString", "coordinates": [ [ 37.5835888, 55.7644622 ], [ 37.5838609, 55.7641863 ], [ 37.5835738, 55.7638974 ] ] } },
{ "type": "Feature", "properties": { "osm_id": "-17712", "z_order": 0, "other_tags": "\"purpose\"=>\"entry\"" }, "geometry": { "type": "LineString", "coordinates": [ [ 37.5845654, 55.76386 ], [ 37.5838609, 55.7641863 ], [ 37.5844106, 55.764329 ] ] } },
{ "type": "Feature", "properties": { "osm_id": "-17713", "z_order": 0, "other_tags": "\"purpose\"=>\"entry\"" }, "geometry": { "type": "LineString", "coordinates": [ [ 37.5846007, 55.7641275 ], [ 37.5839416, 55.7642229 ], [ 37.5840687, 55.7644218 ] ] } },
{ "type": "Feature", "properties": { "osm_id": "-17714", "z_order": 0, "other_tags": "\"purpose\"=>\"entry\"" }, "geometry": { "type": "LineString", "coordinates": [ [ 37.5839416, 55.7642229 ], [ 37.5833803, 55.7643425 ] ] } },
{ "type": "Feature", "properties": { "osm_id": "-17715", "z_order": 0, "other_tags": "\"purpose\"=>\"entry\"" }, "geometry": { "type": "LineString", "coordinates": [ [ 37.5838222, 55.7647426 ], [ 37.5838718, 55.7645029 ] ] } },
{ "type": "Feature", "properties": { "osm_id": "-17716", "z_order": 0, "other_tags": "\"purpose\"=>\"entry\"" }, "geometry": { "type": "LineString", "coordinates": [ [ 37.5826576, 55.7638976 ], [ 37.5825091, 55.7639041 ], [ 37.582682, 55.7639962 ] ] } },
{ "type": "Feature", "properties": { "osm_id": "-17717", "z_order": 0, "other_tags": "\"purpose\"=>\"entry\"" }, "geometry": { "type": "LineString", "coordinates": [ [ 37.5821833, 55.7636255 ], [ 37.5822422, 55.7637157 ], [ 37.5823882, 55.7637256 ] ] } },
{ "type": "Feature", "properties": { "osm_id": "-17718", "z_order": 0, "other_tags": "\"purpose\"=>\"entry\"" }, "geometry": { "type": "LineString", "coordinates": [ [ 37.5821113, 55.7639041 ], [ 37.5824646, 55.7637744 ] ] } },
{ "type": "Feature", "properties": { "osm_id": "-17719", "z_order": 0, "other_tags": "\"purpose\"=>\"entry\"" }, "geometry": { "type": "LineString", "coordinates": [ [ 37.5827063, 55.7635785 ], [ 37.5823885, 55.7635295 ], [ 37.5823252, 55.7636436 ] ] } },
{ "type": "Feature", "properties": { "osm_id": "-17720", "z_order": 0, "other_tags": "\"purpose\"=>\"entry\"" }, "geometry": { "type": "LineString", "coordinates": [ [ 37.5827242, 55.763316 ], [ 37.5825122, 55.7634062 ], [ 37.5827063, 55.7635785 ] ] } },
{ "type": "Feature", "properties": { "osm_id": "-17721", "z_order": 0, "other_tags": "\"purpose\"=>\"entry\"" }, "geometry": { "type": "LineString", "coordinates": [ [ 37.5816842, 55.7633149 ], [ 37.5820688, 55.7633461 ], [ 37.581882, 55.763438 ] ] } },
{ "type": "Feature", "properties": { "osm_id": "-17722", "z_order": 0, "other_tags": "\"purpose\"=>\"entry\"" }, "geometry": { "type": "LineString", "coordinates": [ [ 37.5820688, 55.7633461 ], [ 37.5818984, 55.7631489 ] ] } },
{ "type": "Feature", "properties": { "osm_id": "-17723", "z_order": 0, "other_tags": "\"purpose\"=>\"entry\"" }, "geometry": { "type": "LineString", "coordinates": [ [ 37.5813418, 55.763404 ], [ 37.5815967, 55.7635042 ], [ 37.581882, 55.763438 ] ] } },
{ "type": "Feature", "properties": { "osm_id": "-17724", "z_order": 0, "other_tags": "\"purpose\"=>\"entry\"" }, "geometry": { "type": "LineString", "coordinates": [ [ 37.5819722, 55.7634941 ], [ 37.5814994, 55.7635684 ], [ 37.5812006, 55.7634373 ] ] } },
{ "type": "Feature", "properties": { "osm_id": "-17725", "z_order": 0, "other_tags": "\"purpose\"=>\"entry\"" }, "geometry": { "type": "LineString", "coordinates": [ [ 37.5809894, 55.7631112 ], [ 37.5812619, 55.7629445 ] ] } },
{ "type": "Feature", "properties": { "osm_id": "-17726", "z_order": 0, "other_tags": "\"purpose\"=>\"entry\"" }, "geometry": { "type": "LineString", "coordinates": [ [ 37.5808441, 55.7628706 ], [ 37.5807672, 55.7630523 ], [ 37.5809331, 55.7628496 ] ] } },
{ "type": "Feature", "properties": { "osm_id": "-17727", "z_order": 0, "other_tags": "\"purpose\"=>\"entry\"" }, "geometry": { "type": "LineString", "coordinates": [ [ 37.5806402, 55.763224 ], [ 37.5806085, 55.7634136 ] ] } },
{ "type": "Feature", "properties": { "osm_id": "-17728", "z_order": 0, "other_tags": "\"purpose\"=>\"entry\"" }, "geometry": { "type": "LineString", "coordinates": [ [ 37.5828207, 55.761532 ], [ 37.5826303, 55.7612966 ], [ 37.5823807, 55.7613375 ] ] } },
{ "type": "Feature", "properties": { "osm_id": "-17729", "z_order": 0, "other_tags": "\"purpose\"=>\"entry\"" }, "geometry": { "type": "LineString", "coordinates": [ [ 37.5830684, 55.761472 ], [ 37.5829148, 55.7615487 ], [ 37.5828207, 55.761532 ] ] } },
{ "type": "Feature", "properties": { "osm_id": "-17730", "z_order": 0, "other_tags": "\"purpose\"=>\"entry\"" }, "geometry": { "type": "LineString", "coordinates": [ [ 37.5831632, 55.761591 ], [ 37.5829769, 55.7616241 ], [ 37.5829115, 55.7616462 ] ] } },
{ "type": "Feature", "properties": { "osm_id": "-17731", "z_order": 0, "other_tags": "\"purpose\"=>\"entry\"" }, "geometry": { "type": "LineString", "coordinates": [ [ 37.5837912, 55.7619976 ], [ 37.5836, 55.762046 ] ] } },
{ "type": "Feature", "properties": { "osm_id": "-17732", "z_order": 0, "other_tags": "\"purpose\"=>\"entry\"" }, "geometry": { "type": "LineString", "coordinates": [ [ 37.5833966, 55.7622604 ], [ 37.5831473, 55.7623246 ] ] } },
{ "type": "Feature", "properties": { "osm_id": "-17733", "z_order": 0, "other_tags": "\"purpose\"=>\"entry\"" }, "geometry": { "type": "LineString", "coordinates": [ [ 37.5839878, 55.763411 ], [ 37.5838201, 55.763177 ] ] } },
{ "type": "Feature", "properties": { "osm_id": "-17734", "z_order": 0, "other_tags": "\"purpose\"=>\"entry\"" }, "geometry": { "type": "LineString", "coordinates": [ [ 37.5768285, 55.7648715 ], [ 37.5767248, 55.7648416 ] ] } },
{ "type": "Feature", "properties": { "osm_id": "-17735", "z_order": 0, "other_tags": "\"purpose\"=>\"entry\"" }, "geometry": { "type": "LineString", "coordinates": [ [ 37.5755263, 55.7648999 ], [ 37.5753766, 55.7650452 ], [ 37.5757259, 55.7650304 ] ] } },
{ "type": "Feature", "properties": { "osm_id": "-17736", "z_order": 0, "other_tags": "\"purpose\"=>\"entry\"" }, "geometry": { "type": "LineString", "coordinates": [ [ 37.5752845, 55.765014 ], [ 37.5753631, 55.7649072 ] ] } },
{ "type": "Feature", "properties": { "osm_id": "-17737", "z_order": 0, "other_tags": "\"purpose\"=>\"entry\"" }, "geometry": { "type": "LineString", "coordinates": [ [ 37.5751369, 55.7650292 ], [ 37.5751967, 55.7649145 ] ] } },
{ "type": "Feature", "properties": { "osm_id": "-17738", "z_order": 0, "other_tags": "\"purpose\"=>\"entry\"" }, "geometry": { "type": "LineString", "coordinates": [ [ 37.5750502, 55.7650117 ], [ 37.5750895, 55.7649013 ] ] } },
{ "type": "Feature", "properties": { "osm_id": "-17739", "z_order": 0, "other_tags": "\"purpose\"=>\"entry\"" }, "geometry": { "type": "LineString", "coordinates": [ [ 37.5749554, 55.7649682 ], [ 37.5749923, 55.764876 ] ] } },
{ "type": "Feature", "properties": { "osm_id": "-17740", "z_order": 0, "other_tags": "\"purpose\"=>\"entry\"" }, "geometry": { "type": "LineString", "coordinates": [ [ 37.574797, 55.7649225 ], [ 37.5748559, 55.7648406 ] ] } },
{ "type": "Feature", "properties": { "osm_id": "-17741", "z_order": 0, "other_tags": "\"purpose\"=>\"entry\"" }, "geometry": { "type": "LineString", "coordinates": [ [ 37.5744912, 55.7648837 ], [ 37.5745855, 55.7648678 ] ] } },
{ "type": "Feature", "properties": { "osm_id": "-17742", "z_order": 0, "other_tags": "\"purpose\"=>\"entry\"" }, "geometry": { "type": "LineString", "coordinates": [ [ 37.5745518, 55.7647336 ], [ 37.5746035, 55.7647339 ] ] } },
{ "type": "Feature", "properties": { "osm_id": "-17743", "z_order": 0, "other_tags": "\"purpose\"=>\"entry\"" }, "geometry": { "type": "LineString", "coordinates": [ [ 37.5745572, 55.7646703 ], [ 37.5746122, 55.7646695 ] ] } },
{ "type": "Feature", "properties": { "osm_id": "-17744", "z_order": 0, "other_tags": "\"purpose\"=>\"entry\"" }, "geometry": { "type": "LineString", "coordinates": [ [ 37.5743521, 55.7646162 ], [ 37.5746186, 55.7646221 ] ] } },
{ "type": "Feature", "properties": { "osm_id": "-17745", "z_order": 0, "other_tags": "\"purpose\"=>\"entry\"" }, "geometry": { "type": "LineString", "coordinates": [ [ 37.5745451, 55.764492 ], [ 37.5745711, 55.7644844 ] ] } },
{ "type": "Feature", "properties": { "osm_id": "-17746", "z_order": 0, "other_tags": "\"purpose\"=>\"entry\"" }, "geometry": { "type": "LineString", "coordinates": [ [ 37.5744326, 55.7644486 ], [ 37.5744529, 55.7644378 ] ] } },
{ "type": "Feature", "properties": { "osm_id": "-17747", "z_order": 0, "other_tags": "\"purpose\"=>\"entry\"" }, "geometry": { "type": "LineString", "coordinates": [ [ 37.574308, 55.7644174 ], [ 37.5743471, 55.764396 ] ] } },
{ "type": "Feature", "properties": { "osm_id": "-17748", "z_order": 0, "other_tags": "\"purpose\"=>\"entry\"" }, "geometry": { "type": "LineString", "coordinates": [ [ 37.5750305, 55.7647633 ], [ 37.5749514, 55.7645698 ], [ 37.5748132, 55.7645886 ] ] } },
{ "type": "Feature", "properties": { "osm_id": "-17749", "z_order": 0, "other_tags": "\"purpose\"=>\"entry\"" }, "geometry": { "type": "LineString", "coordinates": [ [ 37.5749514, 55.7645698 ], [ 37.5747284, 55.7644621 ] ] } },
{ "type": "Feature", "properties": { "osm_id": "-17750", "z_order": 0, "other_tags": "\"purpose\"=>\"entry\"" }, "geometry": { "type": "LineString", "coordinates": [ [ 37.5751924, 55.7626557 ], [ 37.5751623, 55.7626532 ] ] } },
{ "type": "Feature", "properties": { "osm_id": "-17751", "z_order": 0, "other_tags": "\"purpose\"=>\"entry\"" }, "geometry": { "type": "LineString", "coordinates": [ [ 37.5752222, 55.7625719 ], [ 37.5751772, 55.7625713 ] ] } },
{ "type": "Feature", "properties": { "osm_id": "-17752", "z_order": 0, "other_tags": "\"purpose\"=>\"entry\"" }, "geometry": { "type": "LineString", "coordinates": [ [ 37.574958, 55.7625663 ], [ 37.5751112, 55.7625247 ], [ 37.5751853, 55.7625268 ] ] } },
{ "type": "Feature", "properties": { "osm_id": "-17753", "z_order": 0, "other_tags": "\"purpose\"=>\"entry\"" }, "geometry": { "type": "LineString", "coordinates": [ [ 37.5748322, 55.7625567 ], [ 37.57493, 55.7625342 ] ] } },
{ "type": "Feature", "properties": { "osm_id": "-17754", "z_order": 0, "other_tags": "\"purpose\"=>\"entry\"" }, "geometry": { "type": "LineString", "coordinates": [ [ 37.5748993, 55.762708 ], [ 37.5750545, 55.7626772 ] ] } },
{ "type": "Feature", "properties": { "osm_id": "-17755", "z_order": 0, "other_tags": "\"purpose\"=>\"entry\"" }, "geometry": { "type": "LineString", "coordinates": [ [ 37.5749894, 55.7624436 ], [ 37.5750136, 55.7624972 ], [ 37.5749068, 55.7625076 ] ] } },
{ "type": "Feature", "properties": { "osm_id": "-17756", "z_order": 0, "other_tags": "\"purpose\"=>\"entry\"" }, "geometry": { "type": "LineString", "coordinates": [ [ 37.5750136, 55.7624972 ], [ 37.5751943, 55.7624777 ] ] } },
{ "type": "Feature", "properties": { "osm_id": "-17757", "z_order": 0, "other_tags": "\"purpose\"=>\"entry\"" }, "geometry": { "type": "LineString", "coordinates": [ [ 37.5770605, 55.761177 ], [ 37.5774731, 55.7619532 ], [ 37.5763565, 55.7617956 ] ] } },
{ "type": "Feature", "properties": { "osm_id": "-17758", "z_order": 0, "other_tags": "\"purpose\"=>\"entry\"" }, "geometry": { "type": "LineString", "coordinates": [ [ 37.5783192, 55.7613519 ], [ 37.5774731, 55.7619532 ], [ 37.5779208, 55.7612378 ] ] } },
{ "type": "Feature", "properties": { "osm_id": "-17759", "z_order": 0, "other_tags": "\"purpose\"=>\"entry\"" }, "geometry": { "type": "LineString", "coordinates": [ [ 37.578575, 55.7621316 ], [ 37.5774731, 55.7619532 ], [ 37.5785516, 55.7617268 ] ] } },
{ "type": "Feature", "properties": { "osm_id": "-17760", "z_order": 0, "other_tags": "\"purpose\"=>\"entry\"" }, "geometry": { "type": "LineString", "coordinates": [ [ 37.5773783, 55.7628365 ], [ 37.5774731, 55.7619532 ], [ 37.5781059, 55.7625883 ] ] } },
{ "type": "Feature", "properties": { "osm_id": "-17761", "z_order": 0, "other_tags": "\"purpose\"=>\"entry\"" }, "geometry": { "type": "LineString", "coordinates": [ [ 37.5779959, 55.7626466 ], [ 37.5779749, 55.7626312 ] ] } },
{ "type": "Feature", "properties": { "osm_id": "-17762", "z_order": 0, "other_tags": "\"purpose\"=>\"entry\"" }, "geometry": { "type": "LineString", "coordinates": [ [ 37.5774731, 55.7619532 ], [ 37.5767554, 55.7625002 ] ] } },
{ "type": "Feature", "properties": { "osm_id": "24780237", "highway": "footway", "z_order": 0 }, "geometry": { "type": "LineString", "coordinates": [ [ 37.5790625, 55.7626078 ], [ 37.5794027, 55.7627002 ], [ 37.5794553, 55.7627144 ] ] } },
{ "type": "Feature", "properties": { "osm_id": "24780719", "name": "Малый пруд", "z_order": 0, "other_tags": "\"water\"=>\"pond\"" }, "geometry": { "type": "LineString", "coordinates": [ [ 37.5761041, 55.7638344 ], [ 37.5760853, 55.7638827 ], [ 37.5761068, 55.763928 ], [ 37.5761282, 55.76394 ], [ 37.5762503, 55.7639461 ], [ 37.5763133, 55.7639325 ], [ 37.5765547, 55.763805 ], [ 37.576827, 55.7636428 ], [ 37.5769356, 55.7635741 ], [ 37.5769919, 55.763513 ], [ 37.5769785, 55.7634556 ], [ 37.5769329, 55.7634338 ], [ 37.5768229, 55.7634194 ], [ 37.576611, 55.7634534 ], [ 37.5762583, 55.7636133 ], [ 37.5761443, 55.7637235 ], [ 37.5761041, 55.7638344 ] ] } },
{ "type": "Feature", "properties": { "osm_id": "37645194", "name": "Московский Зоопарк: Главный вход", "z_order": 0 }, "geometry": { "type": "LineString", "coordinates": [ [ 37.5781786, 55.7610584 ], [ 37.5785248, 55.7612576 ], [ 37.5785014, 55.761271 ], [ 37.5785902, 55.7613205 ], [ 37.5787275, 55.7612441 ], [ 37.5787384, 55.7612195 ], [ 37.5787292, 55.7611964 ], [ 37.5787037, 55.7611821 ], [ 37.5786708, 55.7611714 ], [ 37.5785955, 55.7611793 ], [ 37.5785235, 55.7611335 ], [ 37.5782852, 55.761 ], [ 37.5781786, 55.7610584 ] ] } },
{ "type": "Feature", "properties": { "osm_id": "48702290", "name": "Слоны", "z_order": 0, "other_tags": "\"addr:country\"=>\"RU\",\"attraction\"=>\"animal\",\"is_in:zoo\"=>\"Московский зоопарк\"" }, "geometry": { "type": "LineString", "coordinates": [ [ 37.5759632, 55.7649223 ], [ 37.576108, 55.7649395 ], [ 37.5764389, 55.7649787 ], [ 37.5770162, 55.764524 ], [ 37.576836, 55.7644474 ], [ 37.5768235, 55.7643899 ], [ 37.5768133, 55.7643425 ], [ 37.5767525, 55.7643594 ], [ 37.5766762, 55.7643807 ], [ 37.576196, 55.7647592 ], [ 37.5759632, 55.7649223 ] ] } },
{ "type": "Feature", "properties": { "osm_id": "48702292", "name": "Дом птиц", "z_order": 0, "other_tags": "\"addr:country\"=>\"RU\",\"attraction\"=>\"animal\",\"is_in:zoo\"=>\"Московский зоопарк\"" }, "geometry": { "type": "LineString", "coordinates": [ [ 37.5741848, 55.7643806 ], [ 37.5741084, 55.7649034 ], [ 37.5741656, 55.7649067 ], [ 37.5741594, 55.7649697 ], [ 37.5743018, 55.7650599 ], [ 37.5745435, 55.7650714 ], [ 37.5748342, 55.7650831 ], [ 37.5748269, 55.7651341 ], [ 37.5750767, 55.7651451 ], [ 37.5756749, 55.7652389 ], [ 37.575684, 55.7651292 ], [ 37.5756064, 55.7651277 ], [ 37.5755021, 55.7651257 ], [ 37.5755059, 55.7650646 ], [ 37.5754514, 55.7650225 ], [ 37.5753828, 55.7650114 ], [ 37.5753363, 55.764977 ], [ 37.5752415, 55.7649736 ], [ 37.575182, 55.764999 ], [ 37.575098, 55.7649928 ], [ 37.5750179, 55.7649246 ], [ 37.574926, 55.7649228 ], [ 37.5748853, 55.7648853 ], [ 37.5747299, 55.764881 ], [ 37.574713, 55.7648891 ], [ 37.5746503, 55.7649193 ], [ 37.574647, 55.7649603 ], [ 37.5744646, 55.7649576 ], [ 37.5743883, 55.7648938 ], [ 37.5743911, 55.7648146 ], [ 37.5744669, 55.7648165 ], [ 37.5744815, 55.7646732 ], [ 37.5745636, 55.7646394 ], [ 37.5745685, 55.7645379 ], [ 37.5742221, 55.7644445 ], [ 37.5742288, 55.7643947 ], [ 37.5741848, 55.7643806 ] ] } },
{ "type": "Feature", "properties": { "osm_id": "48918268", "name": "Жирафы", "z_order": 0, "other_tags": "\"attraction\"=>\"animal\",\"is_in:zoo\"=>\"Московский зоопарк\"" }, "geometry": { "type": "LineString", "coordinates": [ [ 37.5754747, 55.7625543 ], [ 37.575455, 55.7625868 ], [ 37.5753445, 55.762786 ], [ 37.5756057, 55.7628324 ], [ 37.5757359, 55.7626008 ], [ 37.5754747, 55.7625543 ] ] } },
{ "type": "Feature", "properties": { "osm_id": "50446717", "highway": "footway", "z_order": 0 }, "geometry": { "type": "LineString", "coordinates": [ [ 37.577849, 55.7610688 ], [ 37.5775704, 55.7610862 ], [ 37.5773257, 55.7611257 ], [ 37.5772273, 55.7611439 ], [ 37.5770605, 55.761177 ], [ 37.5767475, 55.7612331 ], [ 37.5766568, 55.7612711 ], [ 37.5766304, 55.7613051 ], [ 37.5765317, 55.7614753 ], [ 37.576495, 55.7615322 ], [ 37.576442, 55.7615264 ] ] } },
{ "type": "Feature", "properties": { "osm_id": "50446718", "highway": "footway", "z_order": 0 }, "geometry": { "type": "LineString", "coordinates": [ [ 37.5761391, 55.7620541 ], [ 37.5758643, 55.7619928 ] ] } },
{ "type": "Feature", "properties": { "osm_id": "50446719", "highway": "footway", "z_order": 0 }, "geometry": { "type": "LineString", "coordinates": [ [ 37.5752795, 55.7633727 ], [ 37.5751572, 55.763383 ], [ 37.5749703, 55.7633988 ], [ 37.5746358, 55.7634271 ], [ 37.5745702, 55.7636043 ], [ 37.5745545, 55.7636466 ], [ 37.5744614, 55.763898 ], [ 37.5744212, 55.7640065 ], [ 37.5744856, 55.7640971 ], [ 37.5748784, 55.7641468 ], [ 37.575127, 55.7640551 ], [ 37.5751568, 55.7638179 ] ] } },
{ "type": "Feature", "properties": { "osm_id": "50446720", "highway": "footway", "z_order": 0 }, "geometry": { "type": "LineString", "coordinates": [ [ 37.5755799, 55.7628898 ], [ 37.5754536, 55.7630929 ], [ 37.575416, 55.7631533 ], [ 37.5753574, 55.7632474 ], [ 37.5752795, 55.7633727 ] ] } },
{ "type": "Feature", "properties": { "osm_id": "50446721", "highway": "footway", "z_order": 0 }, "geometry": { "type": "LineString", "coordinates": [ [ 37.5756675, 55.7620813 ], [ 37.5753351, 55.7620304 ], [ 37.5752682, 55.7622646 ], [ 37.5751371, 55.7624016 ], [ 37.5751943, 55.7624777 ], [ 37.5751853, 55.7625268 ], [ 37.5751772, 55.7625713 ], [ 37.5751623, 55.7626532 ], [ 37.57514, 55.7627752 ], [ 37.5755799, 55.7628898 ], [ 37.5760627, 55.7627691 ] ] } },
{ "type": "Feature", "properties": { "osm_id": "50446726", "highway": "footway", "z_order": 0 }, "geometry": { "type": "LineString", "coordinates": [ [ 37.5759568, 55.7625994 ], [ 37.5760627, 55.7627691 ] ] } },
{ "type": "Feature", "properties": { "osm_id": "50446727", "highway": "footway", "z_order": 0 }, "geometry": { "type": "LineString", "coordinates": [ [ 37.5760627, 55.7627691 ], [ 37.5761303, 55.7626831 ], [ 37.5762088, 55.7625832 ], [ 37.5762666, 55.7625096 ], [ 37.576337, 55.7624376 ], [ 37.5765609, 55.7624406 ], [ 37.5766695, 55.7624557 ], [ 37.5767554, 55.7625002 ], [ 37.5767809, 55.7625545 ], [ 37.5767988, 55.762602 ], [ 37.5768371, 55.7627039 ], [ 37.576874, 55.7627811 ], [ 37.5769532, 55.7629472 ] ] } },
{ "type": "Feature", "properties": { "osm_id": "50446728", "highway": "footway", "z_order": 0 }, "geometry": { "type": "LineString", "coordinates": [ [ 37.5760627, 55.7627691 ], [ 37.576134, 55.7628384 ], [ 37.5761807, 55.7628838 ], [ 37.5763252, 55.7629564 ], [ 37.5764557, 55.763022 ], [ 37.5764811, 55.7630347 ], [ 37.576811, 55.7630694 ] ] } },
{ "type": "Feature", "properties": { "osm_id": "50446729", "highway": "footway", "z_order": 0 }, "geometry": { "type": "LineString", "coordinates": [ [ 37.5751568, 55.7638179 ], [ 37.5750758, 55.7639136 ], [ 37.5750284, 55.7639696 ], [ 37.5749506, 55.7640615 ], [ 37.5748784, 55.7641468 ], [ 37.5747431, 55.7643506 ], [ 37.5747284, 55.7644621 ], [ 37.5748074, 55.7645458 ], [ 37.5748132, 55.7645886 ], [ 37.5748141, 55.7645947 ], [ 37.5748269, 55.7646888 ], [ 37.5749185, 55.7647452 ], [ 37.5750305, 55.7647633 ], [ 37.575512, 55.7649005 ], [ 37.5755263, 55.7648999 ], [ 37.575674, 55.7649086 ], [ 37.5760021, 55.7649514 ] ] } },
{ "type": "Feature", "properties": { "osm_id": "50446732", "highway": "footway", "z_order": 0 }, "geometry": { "type": "LineString", "coordinates": [ [ 37.5775101, 55.7634259 ], [ 37.5774363, 55.7634681 ], [ 37.5773936, 55.7634932 ], [ 37.5770854, 55.7636837 ], [ 37.5769198, 55.7637707 ], [ 37.5767952, 55.7638362 ], [ 37.5765355, 55.7639798 ], [ 37.5763887, 55.7640609 ], [ 37.5763395, 55.7640882 ], [ 37.5762601, 55.7641321 ] ] } },
{ "type": "Feature", "properties": { "osm_id": "50446733", "highway": "footway", "z_order": 0 }, "geometry": { "type": "LineString", "coordinates": [ [ 37.5762601, 55.7641321 ], [ 37.5761366, 55.7640969 ], [ 37.5759924, 55.7640558 ], [ 37.575942, 55.7640415 ], [ 37.5758711, 55.7640213 ], [ 37.5757828, 55.7639961 ], [ 37.5756643, 55.7639624 ], [ 37.5755505, 55.76393 ], [ 37.5753341, 55.7638684 ], [ 37.5751568, 55.7638179 ] ] } },
{ "type": "Feature", "properties": { "osm_id": "50446734", "highway": "footway", "z_order": 0 }, "geometry": { "type": "LineString", "coordinates": [ [ 37.5758643, 55.7619928 ], [ 37.5756675, 55.7620813 ], [ 37.5755967, 55.7622076 ], [ 37.5755307, 55.7623252 ], [ 37.5754244, 55.7625148 ], [ 37.5755793, 55.7625394 ], [ 37.5759568, 55.7625994 ] ] } },
{ "type": "Feature", "properties": { "osm_id": "50446735", "highway": "footway", "z_order": 0 }, "geometry": { "type": "LineString", "coordinates": [ [ 37.5759568, 55.7625994 ], [ 37.5760742, 55.7623799 ] ] } },
{ "type": "Feature", "properties": { "osm_id": "50446736", "highway": "footway", "z_order": 0 }, "geometry": { "type": "LineString", "coordinates": [ [ 37.5760742, 55.7623799 ], [ 37.5761324, 55.7622494 ], [ 37.5761774, 55.7621486 ], [ 37.5762129, 55.7620689 ], [ 37.5761391, 55.7620541 ] ] } },
{ "type": "Feature", "properties": { "osm_id": "50446738", "highway": "footway", "z_order": 0 }, "geometry": { "type": "LineString", "coordinates": [ [ 37.576811, 55.7630694 ], [ 37.5768068, 55.7631327 ], [ 37.5768366, 55.7631864 ], [ 37.5768994, 55.7632376 ], [ 37.5769758, 55.7632806 ], [ 37.5770833, 55.7633123 ], [ 37.5772132, 55.7633334 ], [ 37.5773688, 55.763356 ], [ 37.5775101, 55.7634259 ], [ 37.5777198, 55.7632643 ], [ 37.5778392, 55.7631723 ], [ 37.5779115, 55.7631166 ] ] } },
{ "type": "Feature", "properties": { "osm_id": "50446740", "highway": "footway", "z_order": 0 }, "geometry": { "type": "LineString", "coordinates": [ [ 37.5779115, 55.7631166 ], [ 37.5782642, 55.7629008 ], [ 37.5783304, 55.7628604 ], [ 37.578411, 55.7628126 ], [ 37.5784684, 55.7627793 ], [ 37.5784844, 55.7627699 ] ] } },
{ "type": "Feature", "properties": { "osm_id": "50446743", "highway": "footway", "z_order": 0 }, "geometry": { "type": "LineString", "coordinates": [ [ 37.576811, 55.7630694 ], [ 37.5768685, 55.7629931 ], [ 37.5769532, 55.7629472 ], [ 37.5770469, 55.7629237 ], [ 37.5771777, 55.762912 ], [ 37.5772742, 55.7629112 ], [ 37.5773918, 55.7629246 ], [ 37.5774989, 55.7629426 ], [ 37.577605, 55.7629789 ], [ 37.5779115, 55.7631166 ] ] } },
{ "type": "Feature", "properties": { "osm_id": "109467260", "highway": "footway", "z_order": 0 }, "geometry": { "type": "LineString", "coordinates": [ [ 37.5845654, 55.76386 ], [ 37.5842279, 55.763828 ], [ 37.584133, 55.7638403 ], [ 37.5838323, 55.7638461 ], [ 37.5836983, 55.7638607 ], [ 37.5835738, 55.7638974 ], [ 37.583382, 55.7639082 ], [ 37.5832054, 55.7639181 ], [ 37.5829754, 55.763933 ], [ 37.5826588, 55.7639211 ] ] } },
{ "type": "Feature", "properties": { "osm_id": "109467263", "highway": "footway", "z_order": 0 }, "geometry": { "type": "LineString", "coordinates": [ [ 37.5795322, 55.7626634 ], [ 37.5795993, 55.7626324 ], [ 37.5797638, 55.7626105 ], [ 37.5799372, 55.7625946 ], [ 37.5800157, 55.7625984 ], [ 37.5801075, 55.7626197 ], [ 37.5801647, 55.7626356 ], [ 37.5803626, 55.7626907 ], [ 37.5806313, 55.7627656 ], [ 37.5809331, 55.7628496 ], [ 37.5810271, 55.7628758 ], [ 37.5810567, 55.762884 ], [ 37.5811435, 55.7629082 ], [ 37.5812619, 55.7629445 ], [ 37.5813449, 55.76297 ], [ 37.5814919, 55.763015 ], [ 37.5816167, 55.7630533 ], [ 37.5818077, 55.7631119 ] ] } },
{ "type": "Feature", "properties": { "osm_id": "109467266", "highway": "footway", "z_order": 0 }, "geometry": { "type": "LineString", "coordinates": [ [ 37.5826551, 55.7625935 ], [ 37.5827313, 55.7627634 ], [ 37.582655, 55.7628922 ], [ 37.5826656, 55.7629387 ], [ 37.5826656, 55.7629721 ], [ 37.5826889, 55.7630126 ], [ 37.5827382, 55.7631303 ], [ 37.5827242, 55.763316 ], [ 37.5827864, 55.7635165 ], [ 37.5827615, 55.7635357 ], [ 37.5827063, 55.7635785 ], [ 37.5823969, 55.7636528 ], [ 37.5823252, 55.7636436 ], [ 37.5821833, 55.7636255 ], [ 37.5819722, 55.7634941 ], [ 37.581882, 55.763438 ], [ 37.5816842, 55.7633149 ] ] } },
{ "type": "Feature", "properties": { "osm_id": "109467267", "z_order": 0, "other_tags": "\"water\"=>\"pond\"" }, "geometry": { "type": "LineString", "coordinates": [ [ 37.5820794, 55.7636856 ], [ 37.5818312, 55.7635025 ], [ 37.5816862, 55.7634191 ], [ 37.5815863, 55.7634173 ], [ 37.5814284, 55.7634572 ], [ 37.5811931, 55.7635079 ], [ 37.5810675, 55.7635514 ], [ 37.5812834, 55.7636385 ], [ 37.5816669, 55.7637853 ], [ 37.5818893, 55.7638561 ], [ 37.5820117, 55.7638216 ], [ 37.5820955, 55.7637527 ], [ 37.5820794, 55.7636856 ] ] } },
{ "type": "Feature", "properties": { "osm_id": "126271227", "highway": "footway", "z_order": 0 }, "geometry": { "type": "LineString", "coordinates": [ [ 37.5831475, 55.7614562 ], [ 37.5830684, 55.761472 ], [ 37.5828207, 55.761532 ], [ 37.5825321, 55.7616019 ], [ 37.5824613, 55.7616327 ], [ 37.5824184, 55.7616757 ], [ 37.5824111, 55.7617251 ], [ 37.5824294, 55.7617688 ], [ 37.582907, 55.7623809 ], [ 37.5828641, 55.7624584 ], [ 37.5827686, 55.7624875 ], [ 37.5826551, 55.7625935 ], [ 37.5826212, 55.7626252 ], [ 37.5825929, 55.7626516 ], [ 37.582419, 55.7626871 ], [ 37.5823343, 55.7627044 ], [ 37.5823352, 55.7627878 ], [ 37.5823361, 55.7628787 ], [ 37.5821723, 55.7630176 ], [ 37.5821465, 55.7630626 ] ] } },
{ "type": "Feature", "properties": { "osm_id": "126271228", "highway": "footway", "z_order": 0 }, "geometry": { "type": "LineString", "coordinates": [ [ 37.5840704, 55.7629439 ], [ 37.5840646, 55.7628614 ], [ 37.584049, 55.7628342 ] ] } },
{ "type": "Feature", "properties": { "osm_id": "126271806", "highway": "footway", "z_order": 0 }, "geometry": { "type": "LineString", "coordinates": [ [ 37.5831259, 55.7642399 ], [ 37.5831336, 55.7641781 ], [ 37.5831363, 55.76412 ], [ 37.5831617, 55.7640566 ], [ 37.5831846, 55.7640066 ], [ 37.5832054, 55.7639181 ] ] } },
{ "type": "Feature", "properties": { "osm_id": "126271807", "highway": "footway", "z_order": 0 }, "geometry": { "type": "LineString", "coordinates": [ [ 37.5826588, 55.7639211 ], [ 37.582682, 55.7639962 ], [ 37.5829408, 55.7641411 ], [ 37.5830467, 55.7642467 ], [ 37.5831259, 55.7642399 ], [ 37.583264, 55.7643056 ], [ 37.5833803, 55.7643425 ], [ 37.5834518, 55.7643923 ], [ 37.5835604, 55.7644165 ], [ 37.5837649, 55.7644584 ], [ 37.5838098, 55.764467 ], [ 37.5839359, 55.7644723 ], [ 37.5840687, 55.7644218 ], [ 37.5842604, 55.7643614 ], [ 37.5844106, 55.764329 ], [ 37.584525, 55.7642658 ], [ 37.5845501, 55.7642045 ], [ 37.5846007, 55.7641275 ], [ 37.5845985, 55.7640223 ], [ 37.5845836, 55.763949 ], [ 37.5845654, 55.76386 ], [ 37.5846627, 55.7636065 ], [ 37.584874, 55.7634888 ], [ 37.5848107, 55.7634459 ], [ 37.584816, 55.7633453 ], [ 37.5847969, 55.7632742 ], [ 37.5847906, 55.7631962 ], [ 37.5845276, 55.7630603 ], [ 37.5843992, 55.7630199 ], [ 37.5842765, 55.762998 ] ] } },
{ "type": "Feature", "properties": { "osm_id": "383281975", "highway": "footway", "z_order": 0 }, "geometry": { "type": "LineString", "coordinates": [ [ 37.5800313, 55.7632964 ], [ 37.5800355, 55.7631908 ] ] } },
{ "type": "Feature", "properties": { "osm_id": "383281976", "highway": "footway", "z_order": 0 }, "geometry": { "type": "LineString", "coordinates": [ [ 37.5813418, 55.763404 ], [ 37.5812006, 55.7634373 ], [ 37.5809808, 55.7634892 ] ] } },
{ "type": "Feature", "properties": { "osm_id": "383281979", "highway": "footway", "z_order": 0 }, "geometry": { "type": "LineString", "coordinates": [ [ 37.5793021, 55.7629839 ], [ 37.5793409, 55.7629944 ], [ 37.5793657, 55.7630201 ], [ 37.5794035, 55.7630433 ], [ 37.5795557, 55.7630818 ], [ 37.5797187, 55.7631228 ], [ 37.5800355, 55.7631908 ] ] } },
{ "type": "Feature", "properties": { "osm_id": "383281980", "highway": "footway", "z_order": 0 }, "geometry": { "type": "LineString", "coordinates": [ [ 37.5809808, 55.7634892 ], [ 37.5806085, 55.7634136 ], [ 37.5800313, 55.7632964 ], [ 37.5799967, 55.7632889 ], [ 37.5794849, 55.7631775 ], [ 37.5793384, 55.7631365 ], [ 37.5792818, 55.763088 ], [ 37.5792509, 55.7630333 ], [ 37.5792643, 55.7630032 ], [ 37.5793021, 55.7629839 ], [ 37.5793047, 55.7629375 ], [ 37.5793386, 55.7628783 ], [ 37.5793752, 55.7628653 ], [ 37.5795322, 55.7626634 ] ] } },
{ "type": "Feature", "properties": { "osm_id": "383283775", "highway": "footway", "z_order": 0 }, "geometry": { "type": "LineString", "coordinates": [ [ 37.5827864, 55.7635165 ], [ 37.5829825, 55.7636704 ], [ 37.5830501, 55.763749 ], [ 37.5831522, 55.7638676 ], [ 37.5832054, 55.7639181 ] ] } },
{ "type": "Feature", "properties": { "osm_id": "383283776", "highway": "footway", "z_order": 0 }, "geometry": { "type": "LineString", "coordinates": [ [ 37.5823252, 55.7636436 ], [ 37.5823882, 55.7637256 ], [ 37.5824646, 55.7637744 ], [ 37.5826576, 55.7638976 ], [ 37.5826588, 55.7639211 ] ] } },
{ "type": "Feature", "properties": { "osm_id": "383283778", "highway": "footway", "z_order": 0 }, "geometry": { "type": "LineString", "coordinates": [ [ 37.5830684, 55.761472 ], [ 37.5831632, 55.761591 ] ] } },
{ "type": "Feature", "properties": { "osm_id": "383793708", "highway": "footway", "z_order": 0 }, "geometry": { "type": "LineString", "coordinates": [ [ 37.5783225, 55.7612661 ], [ 37.5785235, 55.7611335 ], [ 37.5788331, 55.7610204 ] ] } },
{ "type": "Feature", "properties": { "osm_id": "384327579", "highway": "footway", "z_order": 0 }, "geometry": { "type": "LineString", "coordinates": [ [ 37.5762772, 55.7617845 ], [ 37.5761391, 55.7620541 ] ] } },
{ "type": "Feature", "properties": { "osm_id": "384327580", "highway": "footway", "z_order": 0 }, "geometry": { "type": "LineString", "coordinates": [ [ 37.5762772, 55.7617845 ], [ 37.5763565, 55.7617956 ] ] } },
{ "type": "Feature", "properties": { "osm_id": "384327581", "highway": "footway", "z_order": 0 }, "geometry": { "type": "LineString", "coordinates": [ [ 37.5762129, 55.7620689 ], [ 37.5763565, 55.7617956 ], [ 37.576495, 55.7615322 ] ] } },
{ "type": "Feature", "properties": { "osm_id": "384327582", "highway": "footway", "z_order": 0 }, "geometry": { "type": "LineString", "coordinates": [ [ 37.576442, 55.7615264 ], [ 37.5763919, 55.7615171 ], [ 37.5763498, 55.7616222 ], [ 37.5762772, 55.7617845 ] ] } },
{ "type": "Feature", "properties": { "osm_id": "384327583", "highway": "footway", "z_order": 0 }, "geometry": { "type": "LineString", "coordinates": [ [ 37.5766568, 55.7612711 ], [ 37.5765092, 55.7612421 ], [ 37.5763919, 55.7612161 ], [ 37.5763723, 55.7612081 ] ] } },
{ "type": "Feature", "properties": { "osm_id": "384327584", "highway": "footway", "z_order": 0 }, "geometry": { "type": "LineString", "coordinates": [ [ 37.5763723, 55.7612081 ], [ 37.5763857, 55.7612541 ], [ 37.5763887, 55.7612912 ], [ 37.5764428, 55.7613294 ], [ 37.5763919, 55.7615171 ] ] } },
{ "type": "Feature", "properties": { "osm_id": "385124410", "name": "Фазаны", "z_order": 0, "other_tags": "\"attraction\"=>\"animal\",\"is_in:zoo\"=>\"Московский зоопарк\"" }, "geometry": { "type": "LineString", "coordinates": [ [ 37.5754614, 55.7618899 ], [ 37.57546, 55.7619791 ], [ 37.5757819, 55.7619807 ], [ 37.5757833, 55.7618915 ], [ 37.5754614, 55.7618899 ] ] } },
{ "type": "Feature", "properties": { "osm_id": "385124412", "name": "Арахнарий", "z_order": 0, "other_tags": "\"attraction\"=>\"animal\",\"is_in:zoo\"=>\"Московский зоопарк\"" }, "geometry": { "type": "LineString", "coordinates": [ [ 37.5755433, 55.7618894 ], [ 37.5757898, 55.761891 ], [ 37.5759599, 55.7618921 ], [ 37.5759616, 55.761806 ], [ 37.575545, 55.7618033 ], [ 37.5755433, 55.7618894 ] ] } },
{ "type": "Feature", "properties": { "osm_id": "385128167", "highway": "footway", "z_order": 0 }, "geometry": { "type": "LineString", "coordinates": [ [ 37.5753351, 55.7620304 ], [ 37.5754342, 55.7620026 ], [ 37.5755872, 55.7619991 ], [ 37.5758643, 55.7619928 ] ] } },
{ "type": "Feature", "properties": { "osm_id": "406591810", "highway": "footway", "z_order": 0 }, "geometry": { "type": "LineString", "coordinates": [ [ 37.5827063, 55.7635785 ], [ 37.5826576, 55.7638976 ] ] } },
{ "type": "Feature", "properties": { "osm_id": "407983599", "highway": "footway", "z_order": 0 }, "geometry": { "type": "LineString", "coordinates": [ [ 37.582682, 55.7639962 ], [ 37.5825493, 55.7640832 ], [ 37.5824933, 55.7641201 ] ] } },
{ "type": "Feature", "properties": { "osm_id": "407983601", "highway": "footway", "z_order": 0 }, "geometry": { "type": "LineString", "coordinates": [ [ 37.5824933, 55.7641201 ], [ 37.5823816, 55.7641937 ], [ 37.5823212, 55.7642312 ] ] } },
{ "type": "Feature", "properties": { "osm_id": "410591545", "highway": "footway", "z_order": 0 }, "geometry": { "type": "LineString", "coordinates": [ [ 37.5788105, 55.7624309 ], [ 37.5788469, 55.7623909 ], [ 37.5788734, 55.7623617 ], [ 37.5788744, 55.7623276 ], [ 37.5789677, 55.7623074 ], [ 37.5790595, 55.7622875 ], [ 37.57911, 55.7622917 ], [ 37.5791248, 55.7623311 ], [ 37.579156, 55.7623492 ], [ 37.5791651, 55.7623695 ], [ 37.5791155, 55.7624227 ], [ 37.5791262, 55.7624514 ], [ 37.5790473, 55.7625443 ], [ 37.5790625, 55.7626078 ] ] } },
{ "type": "Feature", "properties": { "osm_id": "410591546", "highway": "footway", "z_order": 0 }, "geometry": { "type": "LineString", "coordinates": [ [ 37.5838162, 55.7629729 ], [ 37.5835825, 55.76299 ], [ 37.5833471, 55.7630063 ], [ 37.5830541, 55.7630934 ], [ 37.5829354, 55.763124 ], [ 37.5828276, 55.7631341 ], [ 37.5827382, 55.7631303 ], [ 37.582631, 55.7631221 ], [ 37.5825541, 55.7631014 ], [ 37.5825275, 55.7630903 ], [ 37.5824681, 55.7630655 ], [ 37.5823212, 55.7630625 ], [ 37.5822203, 55.7630742 ], [ 37.5821465, 55.7630626 ], [ 37.5821076, 55.7630976 ], [ 37.5820579, 55.7631184 ], [ 37.5818984, 55.7631489 ], [ 37.5818077, 55.7631119 ], [ 37.5816842, 55.7633149 ], [ 37.5813418, 55.763404 ] ] } },
{ "type": "Feature", "properties": { "osm_id": "410591549", "highway": "footway", "z_order": 0 }, "geometry": { "type": "LineString", "coordinates": [ [ 37.578702, 55.762515 ], [ 37.578664, 55.7625595 ], [ 37.5786321, 55.7625969 ] ] } },
{ "type": "Feature", "properties": { "osm_id": "410591550", "highway": "footway", "z_order": 0 }, "geometry": { "type": "LineString", "coordinates": [ [ 37.5793386, 55.7628783 ], [ 37.5793363, 55.7628552 ] ] } },
{ "type": "Feature", "properties": { "osm_id": "410591551", "highway": "footway", "z_order": 0 }, "geometry": { "type": "LineString", "coordinates": [ [ 37.5786321, 55.7625969 ], [ 37.5785279, 55.7627189 ], [ 37.5784962, 55.7627561 ], [ 37.5784844, 55.7627699 ] ] } },
{ "type": "Feature", "properties": { "osm_id": "410591552", "highway": "footway", "z_order": 0 }, "geometry": { "type": "LineString", "coordinates": [ [ 37.5793363, 55.7628552 ], [ 37.5794553, 55.7627144 ] ] } },
{ "type": "Feature", "properties": { "osm_id": "410591553", "highway": "footway", "z_order": 0 }, "geometry": { "type": "LineString", "coordinates": [ [ 37.5788105, 55.7624309 ], [ 37.5787677, 55.7624811 ], [ 37.5787443, 55.7625085 ] ] } },
{ "type": "Feature", "properties": { "osm_id": "410591554", "highway": "footway", "z_order": 0 }, "geometry": { "type": "LineString", "coordinates": [ [ 37.582907, 55.7623809 ], [ 37.5831473, 55.7623246 ], [ 37.5833418, 55.7625785 ] ] } },
{ "type": "Feature", "properties": { "osm_id": "410591555", "highway": "footway", "z_order": 0 }, "geometry": { "type": "LineString", "coordinates": [ [ 37.578702, 55.762515 ], [ 37.5787443, 55.7625085 ] ] } },
{ "type": "Feature", "properties": { "osm_id": "410591557", "highway": "footway", "z_order": 0 }, "geometry": { "type": "LineString", "coordinates": [ [ 37.5838201, 55.763177 ], [ 37.5837127, 55.7630925 ], [ 37.5835825, 55.76299 ] ] } },
{ "type": "Feature", "properties": { "osm_id": "410591558", "highway": "footway", "z_order": 0 }, "geometry": { "type": "LineString", "coordinates": [ [ 37.5823343, 55.7627044 ], [ 37.5822663, 55.7627 ], [ 37.582171, 55.7626939 ], [ 37.5821439, 55.7626603 ], [ 37.5821187, 55.762629 ] ] } },
{ "type": "Feature", "properties": { "osm_id": "410591562", "highway": "footway", "z_order": 0 }, "geometry": { "type": "LineString", "coordinates": [ [ 37.584049, 55.7628342 ], [ 37.583947, 55.7628307 ], [ 37.5838475, 55.7628529 ], [ 37.5838075, 55.7629144 ], [ 37.5838162, 55.7629729 ] ] } },
{ "type": "Feature", "properties": { "osm_id": "410591563", "highway": "footway", "z_order": 0 }, "geometry": { "type": "LineString", "coordinates": [ [ 37.584525, 55.7642658 ], [ 37.584596, 55.7643282 ], [ 37.5845907, 55.7643697 ], [ 37.5845102, 55.7643795 ], [ 37.5844458, 55.7643584 ], [ 37.5844106, 55.764329 ] ] } },
{ "type": "Feature", "properties": { "osm_id": "410591564", "highway": "footway", "z_order": 0 }, "geometry": { "type": "LineString", "coordinates": [ [ 37.5810271, 55.7628758 ], [ 37.5808441, 55.7628706 ], [ 37.5807124, 55.7628669 ], [ 37.5806111, 55.762815 ], [ 37.5805652, 55.7627915 ], [ 37.5803439, 55.7627298 ], [ 37.5801735, 55.7626823 ], [ 37.5800371, 55.7626443 ], [ 37.5799372, 55.7625946 ], [ 37.5799091, 55.7625811 ], [ 37.5798845, 55.7625073 ], [ 37.5797757, 55.7624769 ], [ 37.5797134, 55.76248 ], [ 37.5796297, 55.7625123 ], [ 37.5794553, 55.7627144 ] ] } },
{ "type": "Feature", "properties": { "osm_id": "410591565", "highway": "footway", "z_order": 0 }, "geometry": { "type": "LineString", "coordinates": [ [ 37.5838162, 55.7629729 ], [ 37.5838216, 55.7630042 ], [ 37.5840353, 55.7630197 ], [ 37.5840687, 55.7630221 ], [ 37.5841495, 55.7630233 ], [ 37.5842383, 55.7630233 ], [ 37.5842765, 55.762998 ], [ 37.5842303, 55.7629459 ], [ 37.5840704, 55.7629439 ], [ 37.5839268, 55.7629604 ], [ 37.5838162, 55.7629729 ] ] } },
{ "type": "Feature", "properties": { "osm_id": "410591566", "highway": "footway", "z_order": 0 }, "geometry": { "type": "LineString", "coordinates": [ [ 37.578702, 55.762515 ], [ 37.5786037, 55.7624885 ], [ 37.5785838, 55.7622169 ], [ 37.578575, 55.7621316 ], [ 37.5785733, 55.7618637 ], [ 37.5785725, 55.7618581 ], [ 37.57856, 55.7617867 ], [ 37.5785516, 55.7617268 ], [ 37.5785406, 55.7616484 ], [ 37.5785219, 55.761515 ], [ 37.5785089, 55.7614049 ], [ 37.5784181, 55.7613373 ], [ 37.5783794, 55.7613085 ], [ 37.5783225, 55.7612661 ], [ 37.5781441, 55.7611333 ], [ 37.577849, 55.7610688 ] ] } },
{ "type": "Feature", "properties": { "osm_id": "431822418", "highway": "footway", "z_order": 0 }, "geometry": { "type": "LineString", "coordinates": [ [ 37.5762601, 55.7641321 ], [ 37.5761485, 55.7642053 ] ] } },
{ "type": "Feature", "properties": { "osm_id": "431822419", "highway": "footway", "z_order": 0 }, "geometry": { "type": "LineString", "coordinates": [ [ 37.5756616, 55.7648632 ], [ 37.575674, 55.7649086 ] ] } },
{ "type": "Feature", "properties": { "osm_id": "431822421", "highway": "footway", "z_order": 0 }, "geometry": { "type": "LineString", "coordinates": [ [ 37.5756253, 55.7647926 ], [ 37.5756616, 55.7648632 ] ] } },
{ "type": "Feature", "properties": { "osm_id": "431822422", "highway": "footway", "z_order": 0 }, "geometry": { "type": "LineString", "coordinates": [ [ 37.5760747, 55.7642438 ], [ 37.5761257, 55.7642528 ] ] } },
{ "type": "Feature", "properties": { "osm_id": "431822423", "highway": "footway", "z_order": 0 }, "geometry": { "type": "LineString", "coordinates": [ [ 37.5761257, 55.7642528 ], [ 37.5759247, 55.764443 ], [ 37.5759, 55.7644664 ], [ 37.575815, 55.7645468 ], [ 37.575728, 55.7646291 ], [ 37.5756201, 55.7647312 ], [ 37.5756627, 55.7647613 ], [ 37.5756253, 55.7647926 ] ] } },
{ "type": "Feature", "properties": { "osm_id": "431822425", "name": "Ластоногие", "z_order": 0, "other_tags": "\"attraction\"=>\"animal\"" }, "geometry": { "type": "LineString", "coordinates": [ [ 37.5756253, 55.7647926 ], [ 37.5755777, 55.7648155 ], [ 37.5755024, 55.7648224 ], [ 37.5754208, 55.7648175 ], [ 37.5752827, 55.7647893 ], [ 37.5751665, 55.7647463 ], [ 37.5750887, 55.7647146 ], [ 37.574985, 55.7646576 ], [ 37.5749076, 55.7645964 ], [ 37.5748783, 55.7645376 ], [ 37.5748638, 55.7644608 ], [ 37.5749014, 55.7643786 ], [ 37.5749628, 55.7643045 ], [ 37.5750352, 55.7642538 ], [ 37.5750968, 55.7642004 ], [ 37.5751363, 55.7641388 ], [ 37.5751482, 55.7640836 ], [ 37.5751756, 55.7640237 ], [ 37.5752308, 55.7639701 ], [ 37.5752999, 55.7639397 ], [ 37.5753958, 55.7639247 ], [ 37.5754888, 55.7639365 ], [ 37.5759137, 55.764039 ], [ 37.5759885, 55.7640702 ], [ 37.5760399, 55.7641143 ], [ 37.5760716, 55.7641568 ], [ 37.5760747, 55.7642438 ], [ 37.5755945, 55.7647277 ], [ 37.5756253, 55.7647926 ] ] } },
{ "type": "Feature", "properties": { "osm_id": "456077295", "name": "Контактный зоопарк", "z_order": 0, "other_tags": "\"attraction\"=>\"animal\",\"is_in:zoo\"=>\"Московский зоопарк\"" }, "geometry": { "type": "LineString", "coordinates": [ [ 37.5827157, 55.7609883 ], [ 37.5828485, 55.7610071 ], [ 37.5830993, 55.761351 ], [ 37.5829836, 55.7613794 ], [ 37.5828378, 55.761415 ], [ 37.5827887, 55.7614485 ], [ 37.5827359, 55.7613833 ], [ 37.5826676, 55.7614007 ], [ 37.5824316, 55.7610629 ], [ 37.5827157, 55.7609883 ] ] } },
{ "type": "Feature", "properties": { "osm_id": "456596267", "highway": "footway", "z_order": 0 }, "geometry": { "type": "LineString", "coordinates": [ [ 37.584049, 55.7628342 ], [ 37.5841084, 55.7627956 ], [ 37.5841334, 55.7627466 ], [ 37.5841168, 55.7626915 ], [ 37.5837383, 55.7622187 ], [ 37.5836, 55.762046 ], [ 37.5835078, 55.7619307 ], [ 37.5834162, 55.7618164 ], [ 37.5831475, 55.7614562 ] ] } },
{ "type": "Feature", "properties": { "osm_id": "456596271", "name": "Черепахи (летний вольер)", "z_order": 0, "other_tags": "\"attraction\"=>\"animal\",\"is_in:zoo\"=>\"Московский зоопарк\"" }, "geometry": { "type": "LineString", "coordinates": [ [ 37.5837806, 55.7618845 ], [ 37.5835647, 55.7619356 ], [ 37.5836126, 55.7619993 ], [ 37.5836698, 55.7619875 ], [ 37.5837807, 55.7621353 ], [ 37.5838099, 55.7621418 ], [ 37.5839526, 55.7621109 ], [ 37.5837806, 55.7618845 ] ] } },
{ "type": "Feature", "properties": { "osm_id": "457202542", "z_order": 0, "other_tags": "\"attraction\"=>\"animal\",\"is_in:zoo\"=>\"Московский зоопарк\"" }, "geometry": { "type": "LineString", "coordinates": [ [ 37.578968, 55.7613865 ], [ 37.5786104, 55.7614446 ], [ 37.5785971, 55.7615307 ], [ 37.578596, 55.7615968 ], [ 37.5786328, 55.7617329 ], [ 37.5786521, 55.7617866 ], [ 37.5786758, 55.7618359 ], [ 37.5787476, 55.7618801 ], [ 37.5788307, 55.7619291 ], [ 37.578899, 55.7619273 ], [ 37.5791149, 55.7619144 ], [ 37.578982, 55.7614367 ], [ 37.578968, 55.7613865 ] ] } },
{ "type": "Feature", "properties": { "osm_id": "457202543", "z_order": 0, "other_tags": "\"attraction\"=>\"animal\",\"is_in:zoo\"=>\"Московский зоопарк\"" }, "geometry": { "type": "LineString", "coordinates": [ [ 37.579133, 55.7619782 ], [ 37.5791148, 55.7619144 ], [ 37.5789013, 55.7619271 ], [ 37.5789057, 55.761972 ], [ 37.5788214, 55.7619782 ], [ 37.5787992, 55.7620217 ], [ 37.5787816, 55.7620661 ], [ 37.5787717, 55.7621113 ], [ 37.5787636, 55.7622282 ], [ 37.5787749, 55.762303 ], [ 37.5788057, 55.762319 ], [ 37.5788458, 55.7623169 ], [ 37.5791918, 55.7622468 ], [ 37.5791883, 55.7622099 ], [ 37.5791625, 55.7620841 ], [ 37.579133, 55.7619782 ] ] } },
{ "type": "Feature", "properties": { "osm_id": "619759962", "highway": "footway", "z_order": 0 }, "geometry": { "type": "LineString", "coordinates": [ [ 37.5780282, 55.7632509 ], [ 37.5781109, 55.7632649 ], [ 37.5782078, 55.7632679 ], [ 37.578346, 55.7632441 ], [ 37.5783603, 55.7632416 ], [ 37.5784313, 55.7632145 ], [ 37.5784504, 55.7632072 ], [ 37.5784788, 55.7631773 ], [ 37.5785046, 55.76315 ], [ 37.5785072, 55.7631473 ], [ 37.5785291, 55.7631156 ], [ 37.5785479, 55.7630884 ], [ 37.5785524, 55.7630025 ], [ 37.5785195, 55.7629444 ], [ 37.57848, 55.7629044 ], [ 37.5783838, 55.7628755 ] ] } },
{ "type": "Feature", "properties": { "osm_id": "619876204", "highway": "footway", "z_order": 0 }, "geometry": { "type": "LineString", "coordinates": [ [ 37.5835604, 55.7644165 ], [ 37.5835888, 55.7644622 ], [ 37.5836223, 55.7644803 ], [ 37.5836639, 55.7645089 ], [ 37.5836921, 55.7645195 ], [ 37.5837323, 55.7645233 ], [ 37.5837806, 55.764521 ], [ 37.5838383, 55.7645127 ], [ 37.5838718, 55.7645029 ], [ 37.5839359, 55.7644723 ] ] } },
{ "type": "Feature", "properties": { "osm_id": "619876205", "highway": "footway", "z_order": 0 }, "geometry": { "type": "LineString", "coordinates": [ [ 37.58379, 55.7644181 ], [ 37.5837649, 55.7644584 ] ] } },
{ "type": "Feature", "properties": { "osm_id": "620079613", "highway": "footway", "z_order": 0 }, "geometry": { "type": "LineString", "coordinates": [ [ 37.5783838, 55.7628755 ], [ 37.5783304, 55.7628604 ] ] } },
{ "type": "Feature", "properties": { "osm_id": "620079614", "highway": "footway", "z_order": 0 }, "geometry": { "type": "LineString", "coordinates": [ [ 37.5779897, 55.7631757 ], [ 37.5779682, 55.7632036 ], [ 37.5779696, 55.7632225 ], [ 37.5779964, 55.7632459 ], [ 37.5780282, 55.7632509 ] ] } },
{ "type": "Feature", "properties": { "osm_id": "620409642", "highway": "footway", "z_order": 0 }, "geometry": { "type": "LineString", "coordinates": [ [ 37.5780567, 55.7631954 ], [ 37.5781198, 55.7632097 ], [ 37.5781828, 55.7632157 ], [ 37.5782284, 55.7632166 ], [ 37.5782472, 55.7632163 ], [ 37.578274, 55.7632131 ], [ 37.5782904, 55.7632093 ], [ 37.5783179, 55.7632014 ], [ 37.5783565, 55.7631872 ], [ 37.5783712, 55.763181 ], [ 37.5783927, 55.7631699 ], [ 37.5784162, 55.7631529 ], [ 37.5784447, 55.7631336 ], [ 37.5784591, 55.7631184 ], [ 37.5784695, 55.763098 ], [ 37.5784832, 55.7630712 ], [ 37.5784829, 55.7630522 ], [ 37.5784826, 55.7630312 ], [ 37.5784789, 55.7630112 ], [ 37.5784705, 55.7629931 ], [ 37.5784547, 55.7629639 ], [ 37.5784232, 55.7629346 ], [ 37.5783591, 55.7628984 ] ] } },
{ "type": "Feature", "properties": { "osm_id": "620409644", "highway": "footway", "z_order": 0 }, "geometry": { "type": "LineString", "coordinates": [ [ 37.5779897, 55.7631757 ], [ 37.5779602, 55.7631534 ], [ 37.5779115, 55.7631166 ] ] } },
{ "type": "Feature", "properties": { "osm_id": "620412093", "highway": "footway", "z_order": 0 }, "geometry": { "type": "LineString", "coordinates": [ [ 37.5772279, 55.7643392 ], [ 37.5774305, 55.7642698 ] ] } },
{ "type": "Feature", "properties": { "osm_id": "620412096", "highway": "footway", "z_order": 0 }, "geometry": { "type": "LineString", "coordinates": [ [ 37.5774305, 55.7642698 ], [ 37.5779173, 55.7640509 ], [ 37.577979, 55.7639944 ], [ 37.5778717, 55.7638902 ], [ 37.577932, 55.7638186 ], [ 37.5780152, 55.7637771 ], [ 37.5778432, 55.7636551 ], [ 37.5776614, 55.7635262 ], [ 37.5775471, 55.7634451 ], [ 37.5775101, 55.7634259 ] ] } },
{ "type": "Feature", "properties": { "osm_id": "620957687", "highway": "footway", "z_order": 0 }, "geometry": { "type": "LineString", "coordinates": [ [ 37.5779897, 55.7631757 ], [ 37.5780675, 55.7631976 ], [ 37.5780567, 55.7631954 ] ] } },
{ "type": "Feature", "properties": { "osm_id": "620959972", "highway": "footway", "z_order": 0 }, "geometry": { "type": "LineString", "coordinates": [ [ 37.5783591, 55.7628984 ], [ 37.5783431, 55.7629097 ], [ 37.5783076, 55.7629143 ], [ 37.5782787, 55.762909 ], [ 37.5782642, 55.7629008 ] ] } },
{ "type": "Feature", "properties": { "osm_id": "701280516", "highway": "footway", "z_order": 0 }, "geometry": { "type": "LineString", "coordinates": [ [ 37.5825275, 55.7630903 ], [ 37.582655, 55.7628922 ] ] } },
{ "type": "Feature", "properties": { "osm_id": "1072611315", "highway": "footway", "z_order": 0 }, "geometry": { "type": "LineString", "coordinates": [ [ 37.5825321, 55.7616019 ], [ 37.5823807, 55.7613375 ], [ 37.582215, 55.761048 ] ] } },
{ "type": "Feature", "properties": { "osm_id": "1082627391", "highway": "footway", "z_order": 0 }, "geometry": { "type": "LineString", "coordinates": [ [ 37.576337, 55.7624376 ], [ 37.5761867, 55.7624028 ], [ 37.5760742, 55.7623799 ] ] } },
{ "type": "Feature", "properties": { "osm_id": "1191745921", "highway": "footway", "z_order": 0 }, "geometry": { "type": "LineString", "coordinates": [ [ 37.5749829, 55.7619005 ], [ 37.5752431, 55.7619051 ], [ 37.5753249, 55.7619707 ], [ 37.5753351, 55.7620304 ] ] } },
{ "type": "Feature", "properties": { "osm_id": "1191745922", "highway": "footway", "z_order": 0 }, "geometry": { "type": "LineString", "coordinates": [ [ 37.5754244, 55.7625148 ], [ 37.5751943, 55.7624777 ] ] } },
{ "type": "Feature", "properties": { "osm_id": "1191745936", "name": "Zoo Chalet", "z_order": 0 }, "geometry": { "type": "LineString", "coordinates": [ [ 37.5785362, 55.7623559 ], [ 37.5784863, 55.7623407 ], [ 37.5784548, 55.7623736 ], [ 37.5785047, 55.7623887 ], [ 37.5785362, 55.7623559 ] ] } },
{ "type": "Feature", "properties": { "osm_id": "1516034248", "highway": "footway", "z_order": 0 }, "geometry": { "type": "LineString", "coordinates": [ [ 37.5799537, 55.7632119 ], [ 37.5800007, 55.7632235 ], [ 37.5799967, 55.7632889 ] ] } },
{ "type": "Feature", "properties": { "osm_id": "1516034249", "highway": "footway", "z_order": 0 }, "geometry": { "type": "LineString", "coordinates": [ [ 37.5794027, 55.7627002 ], [ 37.5792155, 55.7629312 ], [ 37.5792021, 55.7629531 ], [ 37.579198, 55.7629761 ], [ 37.5792034, 55.7629961 ], [ 37.5792222, 55.7630157 ], [ 37.5792403, 55.7630293 ], [ 37.5792899, 55.7630471 ], [ 37.5795997, 55.7631244 ], [ 37.5799537, 55.7632119 ] ] } },
{ "type": "Feature", "properties": { "osm_id": "1516034251", "highway": "footway", "z_order": 0 }, "geometry": { "type": "LineString", "coordinates": [ [ 37.578759, 55.762607 ], [ 37.578664, 55.7625595 ] ] } },
{ "type": "Feature", "properties": { "osm_id": "1516034252", "highway": "footway", "z_order": 0 }, "geometry": { "type": "LineString", "coordinates": [ [ 37.5790625, 55.7626078 ], [ 37.5789915, 55.762689 ], [ 37.57897, 55.7626988 ], [ 37.5789325, 55.7627049 ], [ 37.5787544, 55.7626954 ], [ 37.5787206, 55.7626936 ], [ 37.5787018, 55.7626868 ], [ 37.578683, 55.7626739 ], [ 37.5786763, 55.7626596 ], [ 37.5786817, 55.7626445 ], [ 37.5787501, 55.7625645 ], [ 37.5787622, 55.7625562 ], [ 37.5787823, 55.7625479 ], [ 37.5788064, 55.7625449 ], [ 37.5788346, 55.7625479 ], [ 37.5788939, 55.7625622 ], [ 37.5789486, 55.7625755 ], [ 37.5789654, 55.7625823 ], [ 37.5789781, 55.7625925 ], [ 37.5789848, 55.7626026 ], [ 37.5789848, 55.7626147 ], [ 37.5789546, 55.7626509 ], [ 37.5789419, 55.7626585 ], [ 37.5789265, 55.7626626 ], [ 37.5789037, 55.7626641 ], [ 37.5788822, 55.7626641 ], [ 37.5788628, 55.7626589 ], [ 37.578759, 55.762607 ] ] } }
]
}
