{
"type": "FeatureCollection",
"name": "multipolygons",
"features": [
{ "type": "Feature", "properties": { "osm_id": "3368597", "name": "Большой пруд", "type": "multipolygon", "natural": "water", "other_tags": "\"name:de\"=>\"Großer Teich\",\"name:en\"=>\"Big Pond\",\"water\"=>\"pond\",\"wikidata\"=>\"Q21644068\",\"wikipedia\"=>\"ru:Пресненские пруды\"" }, "geometry": { "type": "Polygon", "coordinates": [ [ [ 37.5810789, 55.7633712 ], [ 37.5809721, 55.7633896 ], [ 37.5807939, 55.7633712 ], [ 37.580593, 55.7633119 ], [ 37.5801486, 55.7631975 ], [ 37.5799248, 55.7631402 ], [ 37.5796465, 55.7630689 ], [ 37.579551, 55.7630453 ], [ 37.5794435, 55.7630111 ], [ 37.5794137, 55.7629945 ], [ 37.5793924, 55.7629754 ], [ 37.5793845, 55.7629594 ], [ 37.5793895, 55.7629387 ], [ 37.5794118, 55.7629051 ], [ 37.579416, 55.7628948 ], [ 37.5794266, 55.7628545 ], [ 37.5794356, 55.7628415 ], [ 37.5795304, 55.762731 ], [ 37.5795538, 55.7627097 ], [ 37.5795823, 55.7626959 ], [ 37.5796215, 55.7626887 ], [ 37.5796887, 55.7626886 ], [ 37.5797489, 55.762688 ], [ 37.5797957, 55.7626828 ], [ 37.5799056, 55.762655 ], [ 37.5799269, 55.762652 ], [ 37.5799507, 55.762652 ], [ 37.5799754, 55.7626558 ], [ 37.580452, 55.7627865 ], [ 37.5804938, 55.762806 ], [ 37.5805299, 55.7628266 ], [ 37.5806499, 55.7628953 ], [ 37.5806796, 55.762906 ], [ 37.5807133, 55.7629106 ], [ 37.5807998, 55.7629053 ], [ 37.58084, 55.762906 ], [ 37.5808827, 55.7629131 ], [ 37.5810189, 55.7629416 ], [ 37.5810418, 55.7629545 ], [ 37.5810521, 55.7629701 ], [ 37.5810473, 55.7629896 ], [ 37.5810386, 55.7630087 ], [ 37.5810473, 55.7630243 ], [ 37.5810979, 55.7630457 ], [ 37.581201, 55.7630341 ], [ 37.5812985, 55.7630774 ], [ 37.5814069, 55.7631393 ], [ 37.5814868, 55.7632073 ], [ 37.5814828, 55.7632425 ], [ 37.5814316, 55.7632624 ], [ 37.5813437, 55.7632656 ], [ 37.5812646, 55.7632576 ], [ 37.5812251, 55.7632301 ], [ 37.5812156, 55.7632132 ], [ 37.5812188, 55.7631945 ], [ 37.581233, 55.7631785 ], [ 37.5812283, 55.7631598 ], [ 37.5811967, 55.7631607 ], [ 37.5810765, 55.7631785 ], [ 37.5809327, 55.7632141 ], [ 37.5809358, 55.7632318 ], [ 37.5810987, 55.7632247 ], [ 37.5811334, 55.7632256 ], [ 37.5811619, 55.7632354 ], [ 37.5811793, 55.7632514 ], [ 37.5811872, 55.763287 ], [ 37.5811698, 55.7633226 ], [ 37.581154, 55.7633395 ], [ 37.5811319, 55.7633519 ], [ 37.5810789, 55.7633712 ] ] ] } },
{ "type": "Feature", "properties": { "osm_id": "3368919", "name": "Большой пруд", "type": "multipolygon", "natural": "water", "other_tags": "\"name:de\"=>\"Großer Teich\",\"water\"=>\"pond\",\"wikidata\"=>\"Q21644068\",\"wikipedia\"=>\"ru:Пресненские пруды\"" }, "geometry": { "type": "Polygon", "coordinates": [ [ [ 37.5763783, 55.7620035 ], [ 37.5763857, 55.7619882 ], [ 37.5763482, 55.7619632 ], [ 37.5763388, 55.7619285 ], [ 37.5764179, 55.7617881 ], [ 37.5764528, 55.7617315 ], [ 37.5765681, 55.7616621 ], [ 37.5765869, 55.7616395 ], [ 37.5765976, 55.7616146 ], [ 37.5766218, 55.7615738 ], [ 37.5766338, 55.7615406 ], [ 37.5766714, 55.7614569 ], [ 37.5766794, 55.7614508 ], [ 37.5766633, 55.7614312 ], [ 37.5766835, 55.761401 ], [ 37.576721, 55.7613912 ], [ 37.5768256, 55.7613339 ], [ 37.5769101, 55.7613271 ], [ 37.5769772, 55.7613263 ], [ 37.5770684, 55.7613324 ], [ 37.5771542, 55.7613399 ], [ 37.5771877, 55.7613346 ], [ 37.5772065, 55.7613097 ], [ 37.5772172, 55.7612758 ], [ 37.5772776, 55.761266 ], [ 37.57735, 55.7612682 ], [ 37.5774372, 55.7612592 ], [ 37.5775485, 55.7612509 ], [ 37.5776719, 55.7612426 ], [ 37.5778931, 55.7612214 ], [ 37.5779012, 55.761266 ], [ 37.5779521, 55.761318 ], [ 37.5779991, 55.7613452 ], [ 37.5780742, 55.7613784 ], [ 37.5781788, 55.7613874 ], [ 37.5782619, 55.7613882 ], [ 37.5783209, 55.7614169 ], [ 37.5783987, 55.7614795 ], [ 37.5784859, 55.7616334 ], [ 37.5784618, 55.7617587 ], [ 37.5784497, 55.7619066 ], [ 37.5784202, 55.7619903 ], [ 37.5783826, 55.7621397 ], [ 37.5783424, 55.7622748 ], [ 37.5782807, 55.7623427 ], [ 37.5780912, 55.7624734 ], [ 37.5778945, 55.7625796 ], [ 37.577578, 55.7626609 ], [ 37.5774166, 55.762532 ], [ 37.5773477, 55.7625574 ], [ 37.577486, 55.7626934 ], [ 37.5773635, 55.7627565 ], [ 37.5773019, 55.7627511 ], [ 37.5772328, 55.7627704 ], [ 37.5771852, 55.7627506 ], [ 37.5770118, 55.7627346 ], [ 37.5769394, 55.7627139 ], [ 37.5768965, 55.7626736 ], [ 37.5768336, 55.7624302 ], [ 37.5768048, 55.7624106 ], [ 37.5767605, 55.7624016 ], [ 37.5766327, 55.7623969 ], [ 37.5763875, 55.7623942 ], [ 37.5763374, 55.762374 ], [ 37.576312, 55.7623125 ], [ 37.5762986, 55.762268 ], [ 37.5763361, 55.762234 ], [ 37.5765615, 55.7621664 ], [ 37.5766151, 55.7621495 ], [ 37.5766607, 55.7621163 ], [ 37.576666, 55.7620658 ], [ 37.5766405, 55.7620115 ], [ 37.5765856, 55.7619715 ], [ 37.5765021, 55.7619585 ], [ 37.5764506, 55.7619803 ], [ 37.5763709, 55.7621249 ], [ 37.5763165, 55.762132 ], [ 37.5763783, 55.7620035 ] ], [ [ 37.5773316, 55.761504 ], [ 37.5773339, 55.7614918 ], [ 37.5773238, 55.7614755 ], [ 37.5773047, 55.7614718 ], [ 37.577291, 55.7614725 ], [ 37.5772085, 55.7614961 ], [ 37.5772068, 55.7615061 ], [ 37.5772313, 55.7615282 ], [ 37.5772467, 55.7615301 ], [ 37.5773316, 55.761504 ] ], [ [ 37.5775123, 55.7617549 ], [ 37.5778221, 55.7617632 ], [ 37.577833, 55.7616344 ], [ 37.5775232, 55.7616261 ], [ 37.5775123, 55.7617549 ] ], [ [ 37.5772444, 55.7618658 ], [ 37.5772236, 55.7619213 ], [ 37.5772397, 55.7619334 ], [ 37.5772632, 55.761936 ], [ 37.5772893, 55.7619311 ], [ 37.5773155, 55.7618745 ], [ 37.5773088, 55.7618647 ], [ 37.5772974, 55.7618609 ], [ 37.5772705, 55.7618583 ], [ 37.5772571, 55.7618598 ], [ 37.5772444, 55.7618658 ] ], [ [ 37.5767146, 55.7617625 ], [ 37.5767089, 55.7617568 ], [ 37.5766885, 55.7617523 ], [ 37.5766757, 55.761756 ], [ 37.5766645, 55.761776 ], [ 37.5766729, 55.7617812 ], [ 37.5766917, 55.7617847 ], [ 37.5767045, 55.7617809 ], [ 37.5767146, 55.7617625 ] ], [ [ 37.5769433, 55.7616423 ], [ 37.5769403, 55.7616297 ], [ 37.5769165, 55.7616185 ], [ 37.576895, 55.7616185 ], [ 37.5768752, 55.7616295 ], [ 37.5768742, 55.7616393 ], [ 37.5768997, 55.7616549 ], [ 37.5769205, 55.7616549 ], [ 37.5769433, 55.7616423 ] ], [ [ 37.5780934, 55.7617223 ], [ 37.5780787, 55.7617307 ], [ 37.5780757, 55.7617424 ], [ 37.5780855, 55.7617528 ], [ 37.5781042, 55.761758 ], [ 37.5781249, 55.7617561 ], [ 37.5781395, 55.7617476 ], [ 37.5781425, 55.761736 ], [ 37.5781328, 55.7617255 ], [ 37.578114, 55.7617203 ], [ 37.5780934, 55.7617223 ] ], [ [ 37.5781184, 55.7621646 ], [ 37.5781821, 55.7620624 ], [ 37.5781775, 55.7620439 ], [ 37.5780715, 55.7620281 ], [ 37.5780031, 55.7621458 ], [ 37.5781184, 55.7621646 ] ], [ [ 37.5767462, 55.7619356 ], [ 37.5767254, 55.7619911 ], [ 37.5767415, 55.7620032 ], [ 37.5767649, 55.7620058 ], [ 37.5767911, 55.7620009 ], [ 37.5768172, 55.7619443 ], [ 37.5768105, 55.7619345 ], [ 37.5767991, 55.7619307 ], [ 37.5767723, 55.7619281 ], [ 37.5767589, 55.7619296 ], [ 37.5767462, 55.7619356 ] ] ] } },
{ "type": "Feature", "properties": { "osm_id": "4236627", "type": "multipolygon", "building": "retail", "other_tags": "\"addr:housenumber\"=>\"1 с2\",\"addr:street\"=>\"Большая Грузинская улица\",\"building:levels\"=>\"2\"" }, "geometry": { "type": "Polygon", "coordinates": [ [ [ 37.5771505, 55.7610819 ], [ 37.5771673, 55.7611358 ], [ 37.5770799, 55.7611442 ], [ 37.5770837, 55.7611562 ], [ 37.5770066, 55.761164 ], [ 37.5770028, 55.761152 ], [ 37.5766694, 55.7611858 ], [ 37.5766736, 55.7612046 ], [ 37.576657, 55.7612228 ], [ 37.5766305, 55.7612348 ], [ 37.5766018, 55.7612394 ], [ 37.5765631, 55.7612383 ], [ 37.5765339, 55.7612316 ], [ 37.5765078, 55.7612192 ], [ 37.5764959, 55.7612034 ], [ 37.5764597, 55.7612071 ], [ 37.576442, 55.7611518 ], [ 37.5771505, 55.7610819 ] ] ] } },
{ "type": "Feature", "properties": { "osm_id": "6109025", "type": "multipolygon", "building": "yes", "other_tags": "\"addr:housenumber\"=>\"8 с26А\",\"addr:street\"=>\"Большая Грузинская улица\"" }, "geometry": { "type": "Polygon", "coordinates": [ [ [ 37.5818273, 55.7639561 ], [ 37.5818488, 55.7639127 ], [ 37.5820172, 55.7638145 ], [ 37.5821836, 55.7637538 ], [ 37.582367, 55.7638315 ], [ 37.5823458, 55.7638553 ], [ 37.582377, 55.7638539 ], [ 37.5824054, 55.7638725 ], [ 37.5824054, 55.7638845 ], [ 37.5824457, 55.763888 ], [ 37.5824594, 55.763907 ], [ 37.5824492, 55.7639341 ], [ 37.5824031, 55.7639495 ], [ 37.5823978, 55.7639997 ], [ 37.5823215, 55.7640548 ], [ 37.5823572, 55.7640724 ], [ 37.5822623, 55.764142 ], [ 37.5821375, 55.7640887 ], [ 37.5818273, 55.7639561 ] ] ] } },
{ "type": "Feature", "properties": { "osm_id": "6141293", "name": "Копытные Африки", "type": "multipolygon", "building": "yes", "other_tags": "\"addr:housenumber\"=>\"8 с10\",\"addr:street\"=>\"Большая Грузинская улица\",\"attraction\"=>\"animal\",\"is_in:zoo\"=>\"Московский зоопарк\",\"name:de\"=>\"Afrikanische Huftiere\",\"name:en\"=>\"African Ungulates\"" }, "geometry": { "type": "Polygon", "coordinates": [ [ [ 37.5843621, 55.7633333 ], [ 37.5843983, 55.7633864 ], [ 37.5843983, 55.763419 ], [ 37.5843621, 55.7634721 ], [ 37.5843983, 55.7634721 ], [ 37.5843983, 55.7635089 ], [ 37.5843621, 55.7635252 ], [ 37.5843332, 55.7635089 ], [ 37.5843043, 55.7635252 ], [ 37.5843983, 55.7635946 ], [ 37.5843332, 55.7636273 ], [ 37.5842392, 55.7635579 ], [ 37.5841234, 55.7635742 ], [ 37.5840294, 55.7635742 ], [ 37.5839643, 55.7635579 ], [ 37.5838921, 55.7635534 ], [ 37.5838413, 55.7635415 ], [ 37.5838124, 55.7635415 ], [ 37.5837834, 55.7635579 ], [ 37.5837183, 55.7635252 ], [ 37.5838124, 55.7634721 ], [ 37.583796, 55.7634537 ], [ 37.5837834, 55.7634395 ], [ 37.5836315, 55.7634395 ], [ 37.5836315, 55.76337 ], [ 37.5837834, 55.76337 ], [ 37.5838413, 55.7633006 ], [ 37.583846, 55.7632598 ], [ 37.5837834, 55.7631945 ], [ 37.5838013, 55.7631888 ], [ 37.5838589, 55.7631705 ], [ 37.5838816, 55.7631633 ], [ 37.5839321, 55.7632078 ], [ 37.5840583, 55.7632108 ], [ 37.5840872, 55.7632312 ], [ 37.5841523, 55.7632312 ], [ 37.5842753, 55.7632639 ], [ 37.5843332, 55.7633006 ], [ 37.5843621, 55.7633333 ] ] ] } },
{ "type": "Feature", "properties": { "osm_id": "6141298", "type": "multipolygon", "building": "yes" }, "geometry": { "type": "Polygon", "coordinates": [ [ [ 37.5829561, 55.7627824 ], [ 37.5829414, 55.7627505 ], [ 37.5829494, 55.762718 ], [ 37.582979, 55.7626896 ], [ 37.5830257, 55.7626698 ], [ 37.5830822, 55.7626615 ], [ 37.5831401, 55.762666 ], [ 37.5831905, 55.7626827 ], [ 37.5832257, 55.7627089 ], [ 37.5832405, 55.7627407 ], [ 37.5832324, 55.7627733 ], [ 37.5832028, 55.7628017 ], [ 37.5831562, 55.7628215 ], [ 37.5830996, 55.7628298 ], [ 37.5830418, 55.7628252 ], [ 37.5829914, 55.7628086 ], [ 37.5829561, 55.7627824 ] ] ] } },
{ "type": "Feature", "properties": { "osm_id": "6141300", "name": "Фауна России", "type": "multipolygon", "building": "yes", "other_tags": "\"addr:housenumber\"=>\"1 с102\",\"addr:street\"=>\"Большая Грузинская улица\",\"attraction\"=>\"animal\",\"building:levels\"=>\"1\",\"is_in:zoo\"=>\"Московский зоопарк\",\"name:de\"=>\"Russische Tierwelt\",\"name:en\"=>\"Fauna of Russia\",\"zoo\"=>\"enclosure\"" }, "geometry": { "type": "Polygon", "coordinates": [ [ [ 37.578559, 55.7631462 ], [ 37.5781341, 55.7635646 ], [ 37.5781404, 55.7636995 ], [ 37.5780758, 55.7636988 ], [ 37.5780758, 55.7636633 ], [ 37.5778318, 55.7635758 ], [ 37.5780061, 55.7634166 ], [ 37.5779712, 55.763403 ], [ 37.5780812, 55.7633019 ], [ 37.5780142, 55.7632808 ], [ 37.5780282, 55.7632509 ], [ 37.5780463, 55.763203 ], [ 37.5781375, 55.7632272 ], [ 37.5782328, 55.7632302 ], [ 37.5783199, 55.7632121 ], [ 37.5784004, 55.7631781 ], [ 37.5784675, 55.7631276 ], [ 37.5784943, 55.763065 ], [ 37.5784903, 55.7629971 ], [ 37.5784379, 55.7629322 ], [ 37.5783628, 55.7628854 ], [ 37.5783838, 55.7628755 ], [ 37.5784044, 55.7628658 ], [ 37.578493, 55.7629016 ], [ 37.5785507, 55.7629272 ], [ 37.5786383, 55.7629663 ], [ 37.5787099, 55.7629999 ], [ 37.5786246, 55.7630824 ], [ 37.578559, 55.7631462 ] ] ] } },
{ "type": "Feature", "properties": { "osm_id": "6141304", "type": "multipolygon", "building": "yes" }, "geometry": { "type": "Polygon", "coordinates": [ [ [ 37.5832324, 55.7627733 ], [ 37.5833008, 55.7627943 ], [ 37.5833142, 55.7628184 ], [ 37.5832646, 55.762863 ], [ 37.583211, 55.7628758 ], [ 37.5831761, 55.7628773 ], [ 37.583152, 55.7628848 ], [ 37.5831332, 55.7629135 ], [ 37.5830259, 55.7628939 ], [ 37.5830433, 55.7628615 ], [ 37.5830017, 55.7628494 ], [ 37.5829669, 55.762863 ], [ 37.5829132, 55.7628494 ], [ 37.5828676, 55.7628064 ], [ 37.5829561, 55.7627824 ], [ 37.5829914, 55.7628086 ], [ 37.5830418, 55.7628252 ], [ 37.5830996, 55.7628298 ], [ 37.5831562, 55.7628215 ], [ 37.5832028, 55.7628017 ], [ 37.5832324, 55.7627733 ] ] ] } },
{ "type": "Feature", "properties": { "osm_id": "6141305", "type": "multipolygon", "building": "public", "other_tags": "\"addr:housenumber\"=>\"8 с59\",\"addr:street\"=>\"Большая Грузинская улица\",\"building:levels\"=>\"3\",\"roof:colour\"=>\"grey\",\"roof:material\"=>\"tar_paper\",\"roof:shape\"=>\"flat\"" }, "geometry": { "type": "Polygon", "coordinates": [ [ [ 37.5833207, 55.7622368 ], [ 37.5834058, 55.762216 ], [ 37.5834296, 55.7621566 ], [ 37.5832484, 55.7619224 ], [ 37.583202, 55.7619086 ], [ 37.5831733, 55.7619156 ], [ 37.5831922, 55.7618984 ], [ 37.5831629, 55.7618605 ], [ 37.583128, 55.7618571 ], [ 37.583131, 55.7618199 ], [ 37.5830703, 55.7617416 ], [ 37.583036, 55.76175 ], [ 37.5830688, 55.7617068 ], [ 37.5830467, 55.761674 ], [ 37.5831714, 55.7616457 ], [ 37.5835157, 55.7620969 ], [ 37.5835575, 55.7620868 ], [ 37.5836918, 55.7622628 ], [ 37.5837086, 55.7622588 ], [ 37.5840165, 55.7626623 ], [ 37.583989, 55.7627171 ], [ 37.584015, 55.7627511 ], [ 37.5839841, 55.7627881 ], [ 37.5839097, 55.7628077 ], [ 37.5837782, 55.7627722 ], [ 37.5837228, 55.7627856 ], [ 37.5837373, 55.7627793 ], [ 37.5837455, 55.7627708 ], [ 37.5837454, 55.7627608 ], [ 37.5837394, 55.7627515 ], [ 37.5837243, 55.7627321 ], [ 37.5837395, 55.7626997 ], [ 37.5834446, 55.7623184 ], [ 37.5833935, 55.7623309 ], [ 37.5833207, 55.7622368 ] ] ] } },
{ "type": "Feature", "properties": { "osm_id": "6141306", "type": "multipolygon", "building": "public", "other_tags": "\"addr:housenumber\"=>\"8 с59\",\"addr:street\"=>\"Большая Грузинская улица\",\"building:levels\"=>\"3\",\"roof:colour\"=>\"grey\",\"roof:material\"=>\"tar_paper\",\"roof:shape\"=>\"flat\"" }, "geometry": { "type": "Polygon", "coordinates": [ [ [ 37.583036, 55.76175 ], [ 37.5830703, 55.7617416 ], [ 37.583131, 55.7618199 ], [ 37.583128, 55.7618571 ], [ 37.5831629, 55.7618605 ], [ 37.5831922, 55.7618984 ], [ 37.5831733, 55.7619156 ], [ 37.583202, 55.7619086 ], [ 37.5832484, 55.7619224 ], [ 37.5834296, 55.7621566 ], [ 37.5834058, 55.762216 ], [ 37.5833207, 55.7622368 ], [ 37.5832032, 55.7622655 ], [ 37.5831359, 55.762282 ], [ 37.5831235, 55.7622832 ], [ 37.58311, 55.7622816 ], [ 37.583101, 55.7622782 ], [ 37.5830933, 55.7622728 ], [ 37.5830765, 55.7622511 ], [ 37.5830746, 55.7622387 ], [ 37.5830819, 55.7622247 ], [ 37.5831202, 55.762166 ], [ 37.5829225, 55.7619106 ], [ 37.5828245, 55.7618886 ], [ 37.5827947, 55.76185 ], [ 37.5827919, 55.7618327 ], [ 37.5827956, 55.7618188 ], [ 37.5828132, 55.7618068 ], [ 37.5828361, 55.761799 ], [ 37.583036, 55.76175 ] ] ] } },
{ "type": "Feature", "properties": { "osm_id": "6141307", "type": "multipolygon", "building": "yes" }, "geometry": { "type": "Polygon", "coordinates": [ [ [ 37.5837228, 55.7627856 ], [ 37.5835801, 55.7628206 ], [ 37.5835553, 55.7627886 ], [ 37.5835824, 55.762782 ], [ 37.5835683, 55.7627637 ], [ 37.5834952, 55.7627816 ], [ 37.5834428, 55.7627139 ], [ 37.5834742, 55.7627062 ], [ 37.5834453, 55.7626687 ], [ 37.5835522, 55.7626425 ], [ 37.5833283, 55.7623529 ], [ 37.5832517, 55.7623717 ], [ 37.5832435, 55.7623732 ], [ 37.5832362, 55.7623728 ], [ 37.5832302, 55.7623708 ], [ 37.5832261, 55.7623676 ], [ 37.5832185, 55.7623579 ], [ 37.5832173, 55.7623524 ], [ 37.5832194, 55.7623476 ], [ 37.5832249, 55.7623444 ], [ 37.5832311, 55.7623422 ], [ 37.5832575, 55.7623357 ], [ 37.5832032, 55.7622655 ], [ 37.5833207, 55.7622368 ], [ 37.5833935, 55.7623309 ], [ 37.5834446, 55.7623184 ], [ 37.5837395, 55.7626997 ], [ 37.5837243, 55.7627321 ], [ 37.5837394, 55.7627515 ], [ 37.5837454, 55.7627608 ], [ 37.5837455, 55.7627708 ], [ 37.5837373, 55.7627793 ], [ 37.5837228, 55.7627856 ] ] ] } },
{ "type": "Feature", "properties": { "osm_id": "6141308", "type": "multipolygon", "building": "yes" }, "geometry": { "type": "Polygon", "coordinates": [ [ [ 37.5817906, 55.7626733 ], [ 37.5820195, 55.76264 ], [ 37.5820751, 55.7627101 ], [ 37.5820429, 55.7627894 ], [ 37.5820143, 55.7627969 ], [ 37.5819517, 55.7628135 ], [ 37.5818578, 55.7627856 ], [ 37.5815829, 55.7628399 ], [ 37.5815695, 55.7628611 ], [ 37.5815253, 55.7628716 ], [ 37.5814971, 55.7628611 ], [ 37.5814327, 55.7627977 ], [ 37.5813683, 55.7627916 ], [ 37.5813335, 55.762772 ], [ 37.5817452, 55.7626702 ], [ 37.5817553, 55.7626822 ], [ 37.5817906, 55.7626733 ] ] ] } },
{ "type": "Feature", "properties": { "osm_id": "6141314", "type": "multipolygon", "landuse": "grass" }, "geometry": { "type": "Polygon", "coordinates": [ [ [ 37.5840142, 55.7630476 ], [ 37.5840231, 55.7630369 ], [ 37.5840666, 55.763038 ], [ 37.5841471, 55.7630384 ], [ 37.5842329, 55.7630399 ], [ 37.5843657, 55.7630535 ], [ 37.5845072, 55.7630859 ], [ 37.5846876, 55.7632074 ], [ 37.5847627, 55.7632806 ], [ 37.5847754, 55.7633194 ], [ 37.5847541, 55.7633272 ], [ 37.5847392, 55.7632862 ], [ 37.5846691, 55.7632149 ], [ 37.5844864, 55.7631016 ], [ 37.5842668, 55.7630584 ], [ 37.5840142, 55.7630476 ] ] ] } },
{ "type": "Feature", "properties": { "osm_id": "6141315", "type": "multipolygon", "landuse": "grass" }, "geometry": { "type": "Polygon", "coordinates": [ [ [ 37.5845815, 55.76363 ], [ 37.5845229, 55.7637851 ], [ 37.5841333, 55.7637525 ], [ 37.5837391, 55.7637798 ], [ 37.5837247, 55.7637427 ], [ 37.5836549, 55.7636974 ], [ 37.5835248, 55.7636771 ], [ 37.5835074, 55.7635541 ], [ 37.5835476, 55.7634877 ], [ 37.5835906, 55.7634598 ], [ 37.5836241, 55.763453 ], [ 37.583796, 55.7634537 ], [ 37.5838124, 55.7634721 ], [ 37.5837183, 55.7635252 ], [ 37.5837834, 55.7635579 ], [ 37.5838124, 55.7635415 ], [ 37.5838413, 55.7635415 ], [ 37.5838921, 55.7635534 ], [ 37.5839643, 55.7635579 ], [ 37.5840294, 55.7635742 ], [ 37.5841234, 55.7635742 ], [ 37.5842392, 55.7635579 ], [ 37.5843332, 55.7636273 ], [ 37.5843778, 55.7636537 ], [ 37.5844355, 55.7636522 ], [ 37.5844878, 55.7636175 ], [ 37.5845815, 55.76363 ] ] ] } },
{ "type": "Feature", "properties": { "osm_id": "6141316", "type": "multipolygon", "landuse": "grass" }, "geometry": { "type": "Polygon", "coordinates": [ [ [ 37.5838413, 55.7633006 ], [ 37.5837579, 55.7632787 ], [ 37.5836358, 55.7632787 ], [ 37.5835044, 55.7633021 ], [ 37.5834534, 55.76333 ], [ 37.5834239, 55.7634085 ], [ 37.5834266, 55.763757 ], [ 37.5834896, 55.7637827 ], [ 37.58349, 55.7638353 ], [ 37.5832939, 55.7638749 ], [ 37.5831829, 55.7638568 ], [ 37.5830765, 55.7637386 ], [ 37.5829632, 55.7636029 ], [ 37.5829619, 55.7635586 ], [ 37.582982, 55.7635375 ], [ 37.5829779, 55.7634974 ], [ 37.5829663, 55.7634863 ], [ 37.5829238, 55.7634454 ], [ 37.582873, 55.7633861 ], [ 37.5828445, 55.7633171 ], [ 37.582846, 55.7632498 ], [ 37.5828703, 55.7632126 ], [ 37.582925, 55.7631938 ], [ 37.5830299, 55.7631738 ], [ 37.5832938, 55.7631014 ], [ 37.5834997, 55.7630849 ], [ 37.5835739, 55.7631016 ], [ 37.5836736, 55.763124 ], [ 37.5838013, 55.7631888 ], [ 37.5837834, 55.7631945 ], [ 37.583846, 55.7632598 ], [ 37.5838413, 55.7633006 ] ] ] } },
{ "type": "Feature", "properties": { "osm_id": "6141317", "type": "multipolygon", "landuse": "grass" }, "geometry": { "type": "Polygon", "coordinates": [ [ [ 37.5843983, 55.7635089 ], [ 37.5843983, 55.7634721 ], [ 37.5843621, 55.7634721 ], [ 37.5843983, 55.763419 ], [ 37.5843983, 55.7633864 ], [ 37.5843621, 55.7633333 ], [ 37.5843952, 55.7633224 ], [ 37.5843818, 55.7632772 ], [ 37.5843241, 55.7632259 ], [ 37.5842383, 55.7631995 ], [ 37.5841525, 55.7631987 ], [ 37.5841163, 55.7631549 ], [ 37.5840251, 55.7631572 ], [ 37.5839929, 55.7631278 ], [ 37.5839701, 55.7630457 ], [ 37.5840142, 55.7630476 ], [ 37.5842668, 55.7630584 ], [ 37.5844864, 55.7631016 ], [ 37.5846691, 55.7632149 ], [ 37.5847392, 55.7632862 ], [ 37.5847541, 55.7633272 ], [ 37.5847644, 55.7633556 ], [ 37.5847477, 55.7634749 ], [ 37.5846702, 55.7635363 ], [ 37.5846004, 55.7635458 ], [ 37.5844784, 55.7635375 ], [ 37.5843983, 55.7635089 ] ] ] } },
{ "type": "Feature", "properties": { "osm_id": "6141320", "type": "multipolygon", "natural": "water" }, "geometry": { "type": "Polygon", "coordinates": [ [ [ 37.5790648, 55.7624901 ], [ 37.5790242, 55.7625379 ], [ 37.5789262, 55.7625117 ], [ 37.5789175, 55.7624982 ], [ 37.5788856, 55.7624893 ], [ 37.5788766, 55.7624689 ], [ 37.578839, 55.7624563 ], [ 37.5788508, 55.7624433 ], [ 37.5788319, 55.7624371 ], [ 37.5788991, 55.7623652 ], [ 37.5788999, 55.7623377 ], [ 37.5790625, 55.7623024 ], [ 37.5790884, 55.7623046 ], [ 37.5791011, 55.7623383 ], [ 37.5791327, 55.7623566 ], [ 37.5791377, 55.7623677 ], [ 37.5791099, 55.7623975 ], [ 37.579068, 55.7623833 ], [ 37.5790573, 55.7623769 ], [ 37.5790513, 55.7623656 ], [ 37.5790439, 55.7623542 ], [ 37.5790217, 55.7623486 ], [ 37.5790016, 55.7623482 ], [ 37.5789795, 55.7623524 ], [ 37.578954, 55.762361 ], [ 37.5789279, 55.7623652 ], [ 37.5789151, 55.7623735 ], [ 37.5789104, 55.7623878 ], [ 37.5789024, 55.762401 ], [ 37.5788883, 55.7624176 ], [ 37.578893, 55.7624338 ], [ 37.5789238, 55.7624463 ], [ 37.5789493, 55.762455 ], [ 37.5789554, 55.7624723 ], [ 37.5789822, 55.7624814 ], [ 37.5790271, 55.7624814 ], [ 37.5790648, 55.7624901 ] ] ] } },
{ "type": "Feature", "properties": { "osm_id": "18456560", "name": "Террариум", "type": "multipolygon", "building": "yes", "other_tags": "\"addr:housenumber\"=>\"8 с57\",\"addr:street\"=>\"Большая Грузинская улица\",\"attraction\"=>\"animal\",\"is_in:zoo\"=>\"Московский зоопарк\",\"name:de\"=>\"Terrarium\"" }, "geometry": { "type": "Polygon", "coordinates": [ [ [ 37.5842063, 55.7621565 ], [ 37.5840211, 55.762201 ], [ 37.5839526, 55.7621109 ], [ 37.5837806, 55.7618845 ], [ 37.5837662, 55.7618657 ], [ 37.5837171, 55.761801 ], [ 37.5839023, 55.7617564 ], [ 37.5842063, 55.7621565 ] ] ] } },
{ "type": "Feature", "properties": { "osm_id": "19799850", "type": "multipolygon", "natural": "water" }, "geometry": { "type": "Polygon", "coordinates": [ [ [ 37.5749758, 55.7644097 ], [ 37.5750037, 55.7644207 ], [ 37.5750212, 55.7644327 ], [ 37.5750507, 55.7644516 ], [ 37.5750855, 55.7644674 ], [ 37.5751219, 55.7644814 ], [ 37.575152, 55.7644966 ], [ 37.5752049, 55.7645108 ], [ 37.5752285, 55.7645301 ], [ 37.5752465, 55.7645451 ], [ 37.5752498, 55.7645576 ], [ 37.5752363, 55.7645695 ], [ 37.5752299, 55.7645738 ], [ 37.5752163, 55.7645829 ], [ 37.5751948, 55.7646055 ], [ 37.5751895, 55.7646327 ], [ 37.575168, 55.7646613 ], [ 37.5751353, 55.7646713 ], [ 37.5750554, 55.7646297 ], [ 37.574991, 55.7645776 ], [ 37.5749751, 55.764552 ], [ 37.5749686, 55.7645417 ], [ 37.5749534, 55.7645172 ], [ 37.5749548, 55.7644659 ], [ 37.5749758, 55.7644097 ] ] ] } },
{ "type": "Feature", "properties": { "osm_id": "19799851", "type": "multipolygon", "natural": "water" }, "geometry": { "type": "Polygon", "coordinates": [ [ [ 37.5756273, 55.7641739 ], [ 37.5756247, 55.7641532 ], [ 37.5756059, 55.7641388 ], [ 37.575573, 55.7641324 ], [ 37.5755408, 55.7641377 ], [ 37.5754282, 55.7640823 ], [ 37.57539, 55.7641136 ], [ 37.5752513, 55.7641137 ], [ 37.5752508, 55.7640789 ], [ 37.5752713, 55.7640476 ], [ 37.5753044, 55.7640124 ], [ 37.5753418, 55.7639869 ], [ 37.5753872, 55.763975 ], [ 37.5754431, 55.7639772 ], [ 37.5758087, 55.764064 ], [ 37.5758315, 55.7640694 ], [ 37.5758667, 55.7640778 ], [ 37.5759502, 55.7641281 ], [ 37.5759732, 55.7641541 ], [ 37.5759884, 55.7642031 ], [ 37.5759835, 55.7642304 ], [ 37.5759649, 55.7642619 ], [ 37.575898, 55.7643299 ], [ 37.5758516, 55.7643144 ], [ 37.5758357, 55.7643297 ], [ 37.5758243, 55.7643407 ], [ 37.5758053, 55.764359 ], [ 37.5758585, 55.7643762 ], [ 37.5756291, 55.7646186 ], [ 37.5756192, 55.764629 ], [ 37.5755744, 55.7646764 ], [ 37.5755194, 55.7647036 ], [ 37.5754657, 55.7647164 ], [ 37.5753976, 55.7647151 ], [ 37.5753142, 55.764696 ], [ 37.5752431, 55.7646621 ], [ 37.5752605, 55.7646168 ], [ 37.5753075, 55.7645814 ], [ 37.5753598, 55.7645519 ], [ 37.5753798, 55.7645446 ], [ 37.5754261, 55.7645277 ], [ 37.5754718, 55.7645321 ], [ 37.5755274, 55.764524 ], [ 37.5755687, 55.7644968 ], [ 37.5755718, 55.7644605 ], [ 37.5756374, 55.7643958 ], [ 37.5757125, 55.7643317 ], [ 37.5757632, 55.764346 ], [ 37.57578, 55.7643275 ], [ 37.5757897, 55.7643169 ], [ 37.5758025, 55.7643029 ], [ 37.5757433, 55.7642833 ], [ 37.5757193, 55.7642417 ], [ 37.5757366, 55.7642294 ], [ 37.5757353, 55.7642128 ], [ 37.5757159, 55.7641939 ], [ 37.5756877, 55.7641902 ], [ 37.5756589, 55.7641917 ], [ 37.5756511, 55.7641873 ], [ 37.5756367, 55.7641792 ], [ 37.5756273, 55.7641739 ] ] ] } }
]
}
