{
"type": "FeatureCollection",
"name": "points",
"features": [
{ "type": "Feature", "properties": { "osm_id": "-42429", "name": "Капибара", "other_tags": "\"attraction\"=>\"animal\",\"is_in:zoo\"=>\"Московский зоопарк\"" }, "geometry": { "type": "Point", "coordinates": [ 37.5788456, 55.7615017 ] } },
{ "type": "Feature", "properties": { "osm_id": "-42430", "name": "Викунья", "other_tags": "\"attraction\"=>\"animal\",\"is_in:zoo\"=>\"Московский зоопарк\"" }, "geometry": { "type": "Point", "coordinates": [ 37.5786985, 55.7617206 ] } },
{ "type": "Feature", "properties": { "osm_id": "-42432", "name": "Лама", "other_tags": "\"attraction\"=>\"animal\",\"is_in:zoo\"=>\"Московский зоопарк\"" }, "geometry": { "type": "Point", "coordinates": [ 37.5787197, 55.7617814 ] } },
{ "type": "Feature", "properties": { "osm_id": "-42433", "name": "Гигантский муравьед", "other_tags": "\"attraction\"=>\"animal\",\"is_in:zoo\"=>\"Московский зоопарк\"" }, "geometry": { "type": "Point", "coordinates": [ 37.5788483, 55.7620377 ] } },
{ "type": "Feature", "properties": { "osm_id": "-42434", "name": "Паламедея хохлатая", "other_tags": "\"attraction\"=>\"animal\",\"is_in:zoo\"=>\"Московский зоопарк\"" }, "geometry": { "type": "Point", "coordinates": [ 37.5788532, 55.7620864 ] } },
{ "type": "Feature", "properties": { "osm_id": "-42435", "name": "Черный аист", "other_tags": "\"attraction\"=>\"animal\",\"is_in:zoo\"=>\"Московский зоопарк\"" }, "geometry": { "type": "Point", "coordinates": [ 37.578608, 55.7628157 ] } },
{ "type": "Feature", "properties": { "osm_id": "-42436", "name": "Синий ушастый фазан", "other_tags": "\"attraction\"=>\"animal\",\"is_in:zoo\"=>\"Московский зоопарк\"" }, "geometry": { "type": "Point", "coordinates": [ 37.5786026, 55.7627822 ] } },
{ "type": "Feature", "properties": { "osm_id": "-42443", "name": "Птицы", "other_tags": "\"attraction\"=>\"animal\",\"is_in:zoo\"=>\"Московский зоопарк\"" }, "geometry": { "type": "Point", "coordinates": [ 37.5779959, 55.7626466 ] } },
{ "type": "Feature", "properties": { "osm_id": "-42444", "name": "Камышовый кот", "other_tags": "\"attraction\"=>\"animal\",\"is_in:zoo\"=>\"Московский зоопарк\"" }, "geometry": { "type": "Point", "coordinates": [ 37.5786901, 55.7629374 ] } },
{ "type": "Feature", "properties": { "osm_id": "-42450", "name": "Фауна России", "other_tags": "\"attraction\"=>\"animal\",\"is_in:zoo\"=>\"Московский зоопарк\"" }, "geometry": { "type": "Point", "coordinates": [ 37.5781692, 55.7633727 ] } },
{ "type": "Feature", "properties": { "osm_id": "-42461", "name": "Павлины", "other_tags": "\"attraction\"=>\"animal\",\"is_in:zoo\"=>\"Московский зоопарк\"" }, "geometry": { "type": "Point", "coordinates": [ 37.5772402, 55.7628035 ] } },
{ "type": "Feature", "properties": { "osm_id": "-42462", "name": "Гриф", "other_tags": "\"attraction\"=>\"animal\",\"is_in:zoo\"=>\"Московский зоопарк\"" }, "geometry": { "type": "Point", "coordinates": [ 37.5764899, 55.76277 ] } },
{ "type": "Feature", "properties": { "osm_id": "-42463", "name": "Скала хищных птиц", "other_tags": "\"attraction\"=>\"animal\",\"is_in:zoo\"=>\"Московский зоопарк\"" }, "geometry": { "type": "Point", "coordinates": [ 37.5765197, 55.7626252 ] } },
{ "type": "Feature", "properties": { "osm_id": "-42464", "name": "Андский кондор", "other_tags": "\"attraction\"=>\"animal\",\"is_in:zoo\"=>\"Московский зоопарк\"" }, "geometry": { "type": "Point", "coordinates": [ 37.5762705, 55.7627533 ] } },
{ "type": "Feature", "properties": { "osm_id": "-42465", "name": "Китоглав", "other_tags": "\"attraction\"=>\"animal\",\"is_in:zoo\"=>\"Московский зоопарк\"" }, "geometry": { "type": "Point", "coordinates": [ 37.577037, 55.7634451 ] } },
{ "type": "Feature", "properties": { "osm_id": "-42469", "other_tags": "\"purpose\"=>\"entry\"" }, "geometry": { "type": "Point", "coordinates": [ 37.5766686, 55.7642467 ] } },
{ "type": "Feature", "properties": { "osm_id": "-42473", "name": "Серый тюлень", "other_tags": "\"attraction\"=>\"animal\",\"is_in:zoo\"=>\"Московский зоопарк\"" }, "geometry": { "type": "Point", "coordinates": [ 37.5771535, 55.7638779 ] } },
{ "type": "Feature", "properties": { "osm_id": "-42474", "name": "Птица-секретарь", "other_tags": "\"attraction\"=>\"animal\",\"is_in:zoo\"=>\"Московский зоопарк\"" }, "geometry": { "type": "Point", "coordinates": [ 37.576972, 55.7639297 ] } },
{ "type": "Feature", "properties": { "osm_id": "-42475", "name": "Райская красавка", "other_tags": "\"attraction\"=>\"animal\",\"is_in:zoo\"=>\"Московский зоопарк\"" }, "geometry": { "type": "Point", "coordinates": [ 37.5767039, 55.7640623 ] } },
{ "type": "Feature", "properties": { "osm_id": "-42476", "name": "Ящерицы", "other_tags": "\"attraction\"=>\"animal\",\"is_in:zoo\"=>\"Московский зоопарк\"" }, "geometry": { "type": "Point", "coordinates": [ 37.5771562, 55.7640974 ] } },
{ "type": "Feature", "properties": { "osm_id": "-42477", "name": "Рептилии", "other_tags": "\"attraction\"=>\"animal\",\"is_in:zoo\"=>\"Московский зоопарк\"" }, "geometry": { "type": "Point", "coordinates": [ 37.5774216, 55.763977 ] } },
{ "type": "Feature", "properties": { "osm_id": "-42482", "other_tags": "\"purpose\"=>\"entry\"" }, "geometry": { "type": "Point", "coordinates": [ 37.5770854, 55.7640754 ] } },
{ "type": "Feature", "properties": { "osm_id": "-42484", "other_tags": "\"purpose\"=>\"entry\"" }, "geometry": { "type": "Point", "coordinates": [ 37.5769446, 55.7642079 ] } },
{ "type": "Feature", "properties": { "osm_id": "-42485", "name": "Черный лебедь", "other_tags": "\"attraction\"=>\"animal\",\"is_in:zoo\"=>\"Московский зоопарк\"" }, "geometry": { "type": "Point", "coordinates": [ 37.5762082, 55.7640455 ] } },
{ "type": "Feature", "properties": { "osm_id": "-42486", "name": "Фазан", "other_tags": "\"attraction\"=>\"animal\",\"is_in:zoo\"=>\"Московский зоопарк\"" }, "geometry": { "type": "Point", "coordinates": [ 37.5760456, 55.7640044 ] } },
{ "type": "Feature", "properties": { "osm_id": "-42487", "name": "Австралийская пеганка", "other_tags": "\"attraction\"=>\"animal\",\"is_in:zoo\"=>\"Московский зоопарк\"" }, "geometry": { "type": "Point", "coordinates": [ 37.5759265, 55.7639754 ] } },
{ "type": "Feature", "properties": { "osm_id": "-42488", "name": "Гимолайский монал", "other_tags": "\"attraction\"=>\"animal\",\"is_in:zoo\"=>\"Московский зоопарк\"" }, "geometry": { "type": "Point", "coordinates": [ 37.5756908, 55.7639358 ] } },
{ "type": "Feature", "properties": { "osm_id": "-42489", "name": "Овцебык", "other_tags": "\"attraction\"=>\"animal\",\"is_in:zoo\"=>\"Московский зоопарк\"" }, "geometry": { "type": "Point", "coordinates": [ 37.5754497, 55.7637423 ] } },
{ "type": "Feature", "properties": { "osm_id": "-42490", "other_tags": "\"purpose\"=>\"entry\"" }, "geometry": { "type": "Point", "coordinates": [ 37.5755527, 55.7634543 ] } },
{ "type": "Feature", "properties": { "osm_id": "-42492", "other_tags": "\"purpose\"=>\"entry\"" }, "geometry": { "type": "Point", "coordinates": [ 37.5761025, 55.7633964 ] } },
{ "type": "Feature", "properties": { "osm_id": "-42496", "name": "Лесной северный олень", "other_tags": "\"attraction\"=>\"animal\",\"is_in:zoo\"=>\"Московский зоопарк\"" }, "geometry": { "type": "Point", "coordinates": [ 37.5757287, 55.763247 ] } },
{ "type": "Feature", "properties": { "osm_id": "-42497", "name": "Кустарниковая собака", "other_tags": "\"attraction\"=>\"animal\",\"is_in:zoo\"=>\"Московский зоопарк\"" }, "geometry": { "type": "Point", "coordinates": [ 37.5749107, 55.7638749 ] } },
{ "type": "Feature", "properties": { "osm_id": "-42498", "name": "Енот-полоскун", "other_tags": "\"attraction\"=>\"animal\",\"is_in:zoo\"=>\"Московский зоопарк\"" }, "geometry": { "type": "Point", "coordinates": [ 37.5743582, 55.7638916 ] } },
{ "type": "Feature", "properties": { "osm_id": "-42499", "name": "Змеиное сафари", "other_tags": "\"attraction\"=>\"animal\",\"is_in:zoo\"=>\"Московский зоопарк\"" }, "geometry": { "type": "Point", "coordinates": [ 37.5743771, 55.7640273 ] } },
{ "type": "Feature", "properties": { "osm_id": "-42500", "name": "Сивуч", "other_tags": "\"attraction\"=>\"animal\",\"is_in:zoo\"=>\"Московский зоопарк\"" }, "geometry": { "type": "Point", "coordinates": [ 37.5756448, 55.7645225 ] } },
{ "type": "Feature", "properties": { "osm_id": "-42501", "name": "Ластоногие", "other_tags": "\"attraction\"=>\"animal\",\"is_in:zoo\"=>\"Московский зоопарк\"" }, "geometry": { "type": "Point", "coordinates": [ 37.5754714, 55.7643259 ] } },
{ "type": "Feature", "properties": { "osm_id": "-42502", "name": "Черный аист", "other_tags": "\"attraction\"=>\"animal\",\"is_in:zoo\"=>\"Московский зоопарк\"" }, "geometry": { "type": "Point", "coordinates": [ 37.574308, 55.7644174 ] } },
{ "type": "Feature", "properties": { "osm_id": "-42503", "name": "Свердоклювый ябиру", "other_tags": "\"attraction\"=>\"animal\",\"is_in:zoo\"=>\"Московский зоопарк\"" }, "geometry": { "type": "Point", "coordinates": [ 37.5744326, 55.7644486 ] } },
{ "type": "Feature", "properties": { "osm_id": "-42504", "name": "Паламедея хохлатая", "other_tags": "\"attraction\"=>\"animal\",\"is_in:zoo\"=>\"Московский зоопарк\"" }, "geometry": { "type": "Point", "coordinates": [ 37.5745451, 55.764492 ] } },
{ "type": "Feature", "properties": { "osm_id": "-42505", "name": "Черношейный журавль", "other_tags": "\"attraction\"=>\"animal\",\"is_in:zoo\"=>\"Московский зоопарк\"" }, "geometry": { "type": "Point", "coordinates": [ 37.5746087, 55.7645618 ] } },
{ "type": "Feature", "properties": { "osm_id": "-42506", "name": "Карфский рогатый журавль", "other_tags": "\"attraction\"=>\"animal\",\"is_in:zoo\"=>\"Московский зоопарк\"" }, "geometry": { "type": "Point", "coordinates": [ 37.5745572, 55.7646703 ] } },
{ "type": "Feature", "properties": { "osm_id": "-42507", "name": "Дом птиц", "other_tags": "\"attraction\"=>\"animal\",\"is_in:zoo\"=>\"Московский зоопарк\"" }, "geometry": { "type": "Point", "coordinates": [ 37.5743521, 55.7646162 ] } },
{ "type": "Feature", "properties": { "osm_id": "-42508", "name": "Райская красавка", "other_tags": "\"attraction\"=>\"animal\",\"is_in:zoo\"=>\"Московский зоопарк\"" }, "geometry": { "type": "Point", "coordinates": [ 37.5745518, 55.7647336 ] } },
{ "type": "Feature", "properties": { "osm_id": "-42509", "name": "Казуар", "other_tags": "\"attraction\"=>\"animal\",\"is_in:zoo\"=>\"Московский зоопарк\"" }, "geometry": { "type": "Point", "coordinates": [ 37.574797, 55.7649225 ] } },
{ "type": "Feature", "properties": { "osm_id": "-42510", "name": "Тукан Токо", "other_tags": "\"attraction\"=>\"animal\",\"is_in:zoo\"=>\"Московский зоопарк\"" }, "geometry": { "type": "Point", "coordinates": [ 37.5749554, 55.7649682 ] } },
{ "type": "Feature", "properties": { "osm_id": "-42511", "name": "Пунчана", "other_tags": "\"attraction\"=>\"animal\",\"is_in:zoo\"=>\"Московский зоопарк\"" }, "geometry": { "type": "Point", "coordinates": [ 37.5750502, 55.7650117 ] } },
{ "type": "Feature", "properties": { "osm_id": "-42512", "name": "Венценосная лесная куропатка", "other_tags": "\"attraction\"=>\"animal\",\"is_in:zoo\"=>\"Московский зоопарк\"" }, "geometry": { "type": "Point", "coordinates": [ 37.5751369, 55.7650292 ] } },
{ "type": "Feature", "properties": { "osm_id": "-42513", "name": "Кеа", "other_tags": "\"attraction\"=>\"animal\",\"is_in:zoo\"=>\"Московский зоопарк\"" }, "geometry": { "type": "Point", "coordinates": [ 37.5752845, 55.765014 ] } },
{ "type": "Feature", "properties": { "osm_id": "-42514", "name": "Попугаи", "other_tags": "\"attraction\"=>\"animal\",\"is_in:zoo\"=>\"Московский зоопарк\"" }, "geometry": { "type": "Point", "coordinates": [ 37.5753766, 55.7650452 ] } },
{ "type": "Feature", "properties": { "osm_id": "-42515", "name": "Северный морской котик", "other_tags": "\"attraction\"=>\"animal\",\"is_in:zoo\"=>\"Московский зоопарк\"" }, "geometry": { "type": "Point", "coordinates": [ 37.5749514, 55.7645698 ] } },
{ "type": "Feature", "properties": { "osm_id": "-42516", "name": "Амфибии", "other_tags": "\"attraction\"=>\"animal\",\"is_in:zoo\"=>\"Московский зоопарк\"" }, "geometry": { "type": "Point", "coordinates": [ 37.5768285, 55.7648715 ] } },
{ "type": "Feature", "properties": { "osm_id": "-42517", "name": "Слоны", "other_tags": "\"attraction\"=>\"animal\",\"is_in:zoo\"=>\"Московский зоопарк\"" }, "geometry": { "type": "Point", "coordinates": [ 37.5763165, 55.7645865 ] } },
{ "type": "Feature", "properties": { "osm_id": "-42518", "name": "Дальневосточный леопард", "other_tags": "\"attraction\"=>\"animal\",\"is_in:zoo\"=>\"Московский зоопарк\"" }, "geometry": { "type": "Point", "coordinates": [ 37.5752926, 55.7630687 ] } },
{ "type": "Feature", "properties": { "osm_id": "-42519", "name": "Милайский медведь", "other_tags": "\"attraction\"=>\"animal\",\"is_in:zoo\"=>\"Московский зоопарк\"" }, "geometry": { "type": "Point", "coordinates": [ 37.5751924, 55.7626557 ] } },
{ "type": "Feature", "properties": { "osm_id": "-42520", "name": "Равнинный тапир", "other_tags": "\"attraction\"=>\"animal\",\"is_in:zoo\"=>\"Московский зоопарк\"" }, "geometry": { "type": "Point", "coordinates": [ 37.5752222, 55.7625719 ] } },
{ "type": "Feature", "properties": { "osm_id": "-42521", "name": "Беркут", "other_tags": "\"attraction\"=>\"animal\",\"is_in:zoo\"=>\"Московский зоопарк\"" }, "geometry": { "type": "Point", "coordinates": [ 37.5751112, 55.7625247 ] } },
{ "type": "Feature", "properties": { "osm_id": "-42522", "name": "Манул", "other_tags": "\"attraction\"=>\"animal\",\"is_in:zoo\"=>\"Московский зоопарк\"" }, "geometry": { "type": "Point", "coordinates": [ 37.5750136, 55.7624972 ] } },
{ "type": "Feature", "properties": { "osm_id": "-42523", "name": "Бинтуронг", "other_tags": "\"attraction\"=>\"animal\",\"is_in:zoo\"=>\"Московский зоопарк\"" }, "geometry": { "type": "Point", "coordinates": [ 37.5748322, 55.7625567 ] } },
{ "type": "Feature", "properties": { "osm_id": "-42524", "name": "Красный волк", "other_tags": "\"attraction\"=>\"animal\",\"is_in:zoo\"=>\"Московский зоопарк\"" }, "geometry": { "type": "Point", "coordinates": [ 37.5757342, 55.7622427 ] } },
{ "type": "Feature", "properties": { "osm_id": "-42525", "name": "Совы", "other_tags": "\"attraction\"=>\"animal\",\"is_in:zoo\"=>\"Московский зоопарк\"" }, "geometry": { "type": "Point", "coordinates": [ 37.5755798, 55.7619593 ] } },
{ "type": "Feature", "properties": { "osm_id": "-42526", "name": "Арахноландия", "other_tags": "\"attraction\"=>\"animal\",\"is_in:zoo\"=>\"Московский зоопарк\"" }, "geometry": { "type": "Point", "coordinates": [ 37.5758317, 55.76188 ] } },
{ "type": "Feature", "properties": { "osm_id": "-42527", "other_tags": "\"purpose\"=>\"entry\"" }, "geometry": { "type": "Point", "coordinates": [ 37.5779208, 55.7612378 ] } },
{ "type": "Feature", "properties": { "osm_id": "-42531", "other_tags": "\"purpose\"=>\"entry\"" }, "geometry": { "type": "Point", "coordinates": [ 37.5783192, 55.7613519 ] } },
{ "type": "Feature", "properties": { "osm_id": "-42535", "other_tags": "\"purpose\"=>\"entry\"" }, "geometry": { "type": "Point", "coordinates": [ 37.5788114, 55.7619456 ] } },
{ "type": "Feature", "properties": { "osm_id": "-42538", "other_tags": "\"purpose\"=>\"entry\"" }, "geometry": { "type": "Point", "coordinates": [ 37.5781059, 55.7625883 ] } },
{ "type": "Feature", "properties": { "osm_id": "-42540", "other_tags": "\"purpose\"=>\"entry\"" }, "geometry": { "type": "Point", "coordinates": [ 37.5773783, 55.7628365 ] } },
{ "type": "Feature", "properties": { "osm_id": "-42541", "other_tags": "\"purpose\"=>\"entry\"" }, "geometry": { "type": "Point", "coordinates": [ 37.576874, 55.7627811 ] } },
{ "type": "Feature", "properties": { "osm_id": "-42548", "other_tags": "\"purpose\"=>\"entry\"" }, "geometry": { "type": "Point", "coordinates": [ 37.5748559, 55.7648406 ] } },
{ "type": "Feature", "properties": { "osm_id": "-42549", "other_tags": "\"purpose\"=>\"entry\"" }, "geometry": { "type": "Point", "coordinates": [ 37.5745855, 55.7648678 ] } },
{ "type": "Feature", "properties": { "osm_id": "-42552", "other_tags": "\"purpose\"=>\"entry\"" }, "geometry": { "type": "Point", "coordinates": [ 37.5749106, 55.7623139 ] } },
{ "type": "Feature", "properties": { "osm_id": "-42553", "name": "Пума", "other_tags": "\"attraction\"=>\"animal\",\"is_in:zoo\"=>\"Московский зоопарк\"" }, "geometry": { "type": "Point", "coordinates": [ 37.5749649, 55.7633384 ] } },
{ "type": "Feature", "properties": { "osm_id": "-42554", "name": "Утки", "other_tags": "\"attraction\"=>\"animal\",\"is_in:zoo\"=>\"Московский зоопарк\"" }, "geometry": { "type": "Point", "coordinates": [ 37.5774731, 55.7619532 ] } },
{ "type": "Feature", "properties": { "osm_id": "-42556", "other_tags": "\"purpose\"=>\"entry\"" }, "geometry": { "type": "Point", "coordinates": [ 37.5743471, 55.764396 ] } },
{ "type": "Feature", "properties": { "osm_id": "-42557", "other_tags": "\"purpose\"=>\"entry\"" }, "geometry": { "type": "Point", "coordinates": [ 37.5785219, 55.761515 ] } },
{ "type": "Feature", "properties": { "osm_id": "-42558", "other_tags": "\"purpose\"=>\"entry\"" }, "geometry": { "type": "Point", "coordinates": [ 37.5785406, 55.7616484 ] } },
{ "type": "Feature", "properties": { "osm_id": "-42559", "other_tags": "\"purpose\"=>\"entry\"" }, "geometry": { "type": "Point", "coordinates": [ 37.5785516, 55.7617268 ] } },
{ "type": "Feature", "properties": { "osm_id": "-42560", "other_tags": "\"purpose\"=>\"entry\"" }, "geometry": { "type": "Point", "coordinates": [ 37.57856, 55.7617867 ] } },
{ "type": "Feature", "properties": { "osm_id": "-42561", "other_tags": "\"purpose\"=>\"entry\"" }, "geometry": { "type": "Point", "coordinates": [ 37.5787409, 55.7620011 ] } },
{ "type": "Feature", "properties": { "osm_id": "-42562", "other_tags": "\"purpose\"=>\"entry\"" }, "geometry": { "type": "Point", "coordinates": [ 37.5786887, 55.7620458 ] } },
{ "type": "Feature", "properties": { "osm_id": "-42563", "other_tags": "\"purpose\"=>\"entry\"" }, "geometry": { "type": "Point", "coordinates": [ 37.5788469, 55.7623909 ] } },
{ "type": "Feature", "properties": { "osm_id": "-42565", "other_tags": "\"purpose\"=>\"entry\"" }, "geometry": { "type": "Point", "coordinates": [ 37.5785279, 55.7627189 ] } },
{ "type": "Feature", "properties": { "osm_id": "-42566", "other_tags": "\"purpose\"=>\"entry\"" }, "geometry": { "type": "Point", "coordinates": [ 37.5787544, 55.7626954 ] } },
{ "type": "Feature", "properties": { "osm_id": "-42567", "other_tags": "\"purpose\"=>\"entry\"" }, "geometry": { "type": "Point", "coordinates": [ 37.5784962, 55.7627561 ] } },
{ "type": "Feature", "properties": { "osm_id": "-42568", "other_tags": "\"purpose\"=>\"entry\"" }, "geometry": { "type": "Point", "coordinates": [ 37.5784684, 55.7627793 ] } },
{ "type": "Feature", "properties": { "osm_id": "-42569", "other_tags": "\"purpose\"=>\"entry\"" }, "geometry": { "type": "Point", "coordinates": [ 37.5785291, 55.7631156 ] } },
{ "type": "Feature", "properties": { "osm_id": "-42571", "other_tags": "\"purpose\"=>\"entry\"" }, "geometry": { "type": "Point", "coordinates": [ 37.5784788, 55.7631773 ] } },
{ "type": "Feature", "properties": { "osm_id": "-42572", "other_tags": "\"purpose\"=>\"entry\"" }, "geometry": { "type": "Point", "coordinates": [ 37.5784313, 55.7632145 ] } },
{ "type": "Feature", "properties": { "osm_id": "-42573", "other_tags": "\"purpose\"=>\"entry\"" }, "geometry": { "type": "Point", "coordinates": [ 37.578346, 55.7632441 ] } },
{ "type": "Feature", "properties": { "osm_id": "-42574", "other_tags": "\"purpose\"=>\"entry\"" }, "geometry": { "type": "Point", "coordinates": [ 37.5779602, 55.7631534 ] } },
{ "type": "Feature", "properties": { "osm_id": "-42575", "other_tags": "\"purpose\"=>\"entry\"" }, "geometry": { "type": "Point", "coordinates": [ 37.5778392, 55.7631723 ] } },
{ "type": "Feature", "properties": { "osm_id": "-42576", "other_tags": "\"purpose\"=>\"entry\"" }, "geometry": { "type": "Point", "coordinates": [ 37.5776614, 55.7635262 ] } },
{ "type": "Feature", "properties": { "osm_id": "-42577", "other_tags": "\"purpose\"=>\"entry\"" }, "geometry": { "type": "Point", "coordinates": [ 37.5777198, 55.7632643 ] } },
{ "type": "Feature", "properties": { "osm_id": "-42579", "other_tags": "\"purpose\"=>\"entry\"" }, "geometry": { "type": "Point", "coordinates": [ 37.5772729, 55.7637608 ] } },
{ "type": "Feature", "properties": { "osm_id": "-42580", "other_tags": "\"purpose\"=>\"entry\"" }, "geometry": { "type": "Point", "coordinates": [ 37.5767952, 55.7638362 ] } },
{ "type": "Feature", "properties": { "osm_id": "-42581", "other_tags": "\"purpose\"=>\"entry\"" }, "geometry": { "type": "Point", "coordinates": [ 37.5765355, 55.7639798 ] } },
{ "type": "Feature", "properties": { "osm_id": "-42582", "other_tags": "\"purpose\"=>\"entry\"" }, "geometry": { "type": "Point", "coordinates": [ 37.5763887, 55.7640609 ] } },
{ "type": "Feature", "properties": { "osm_id": "-42584", "other_tags": "\"purpose\"=>\"entry\"" }, "geometry": { "type": "Point", "coordinates": [ 37.5761366, 55.7640969 ] } },
{ "type": "Feature", "properties": { "osm_id": "-42588", "other_tags": "\"purpose\"=>\"entry\"" }, "geometry": { "type": "Point", "coordinates": [ 37.5746257, 55.7645694 ] } },
{ "type": "Feature", "properties": { "osm_id": "-42591", "other_tags": "\"purpose\"=>\"entry\"" }, "geometry": { "type": "Point", "coordinates": [ 37.5750895, 55.7649013 ] } },
{ "type": "Feature", "properties": { "osm_id": "-42592", "other_tags": "\"purpose\"=>\"entry\"" }, "geometry": { "type": "Point", "coordinates": [ 37.5751967, 55.7649145 ] } },
{ "type": "Feature", "properties": { "osm_id": "-42594", "other_tags": "\"purpose\"=>\"entry\"" }, "geometry": { "type": "Point", "coordinates": [ 37.5753631, 55.7649072 ] } },
{ "type": "Feature", "properties": { "osm_id": "-42596", "other_tags": "\"purpose\"=>\"entry\"" }, "geometry": { "type": "Point", "coordinates": [ 37.5748132, 55.7645886 ] } },
{ "type": "Feature", "properties": { "osm_id": "-42598", "other_tags": "\"purpose\"=>\"entry\"" }, "geometry": { "type": "Point", "coordinates": [ 37.5745711, 55.7644844 ] } },
{ "type": "Feature", "properties": { "osm_id": "-42599", "other_tags": "\"purpose\"=>\"entry\"" }, "geometry": { "type": "Point", "coordinates": [ 37.5744529, 55.7644378 ] } },
{ "type": "Feature", "properties": { "osm_id": "-42600", "other_tags": "\"purpose\"=>\"entry\"" }, "geometry": { "type": "Point", "coordinates": [ 37.5744614, 55.763898 ] } },
{ "type": "Feature", "properties": { "osm_id": "-42601", "other_tags": "\"purpose\"=>\"entry\"" }, "geometry": { "type": "Point", "coordinates": [ 37.5745702, 55.7636043 ] } },
{ "type": "Feature", "properties": { "osm_id": "-42602", "other_tags": "\"purpose\"=>\"entry\"" }, "geometry": { "type": "Point", "coordinates": [ 37.574777, 55.7638312 ] } },
{ "type": "Feature", "properties": { "osm_id": "-42603", "other_tags": "\"purpose\"=>\"entry\"" }, "geometry": { "type": "Point", "coordinates": [ 37.5750758, 55.7639136 ] } },
{ "type": "Feature", "properties": { "osm_id": "-42607", "other_tags": "\"purpose\"=>\"entry\"" }, "geometry": { "type": "Point", "coordinates": [ 37.575728, 55.7646291 ] } },
{ "type": "Feature", "properties": { "osm_id": "-42609", "other_tags": "\"purpose\"=>\"entry\"" }, "geometry": { "type": "Point", "coordinates": [ 37.5749698, 55.7636553 ] } },
{ "type": "Feature", "properties": { "osm_id": "-42612", "other_tags": "\"purpose\"=>\"entry\"" }, "geometry": { "type": "Point", "coordinates": [ 37.5749703, 55.7633988 ] } },
{ "type": "Feature", "properties": { "osm_id": "-42613", "other_tags": "\"purpose\"=>\"entry\"" }, "geometry": { "type": "Point", "coordinates": [ 37.5753574, 55.7632474 ] } },
{ "type": "Feature", "properties": { "osm_id": "-42614", "other_tags": "\"purpose\"=>\"entry\"" }, "geometry": { "type": "Point", "coordinates": [ 37.575416, 55.7631533 ] } },
{ "type": "Feature", "properties": { "osm_id": "-42616", "other_tags": "\"purpose\"=>\"entry\"" }, "geometry": { "type": "Point", "coordinates": [ 37.5779749, 55.7626312 ] } },
{ "type": "Feature", "properties": { "osm_id": "-42618", "other_tags": "\"purpose\"=>\"entry\"" }, "geometry": { "type": "Point", "coordinates": [ 37.5761774, 55.7621486 ] } },
{ "type": "Feature", "properties": { "osm_id": "-42619", "other_tags": "\"purpose\"=>\"entry\"" }, "geometry": { "type": "Point", "coordinates": [ 37.5755872, 55.7619991 ] } },
{ "type": "Feature", "properties": { "osm_id": "-42621", "other_tags": "\"purpose\"=>\"entry\"" }, "geometry": { "type": "Point", "coordinates": [ 37.5750545, 55.7626772 ] } },
{ "type": "Feature", "properties": { "osm_id": "-42622", "other_tags": "\"purpose\"=>\"entry\"" }, "geometry": { "type": "Point", "coordinates": [ 37.5751853, 55.7625268 ] } },
{ "type": "Feature", "properties": { "osm_id": "-42623", "other_tags": "\"purpose\"=>\"entry\"" }, "geometry": { "type": "Point", "coordinates": [ 37.574958, 55.7625663 ] } },
{ "type": "Feature", "properties": { "osm_id": "-42624", "other_tags": "\"purpose\"=>\"entry\"" }, "geometry": { "type": "Point", "coordinates": [ 37.5751772, 55.7625713 ] } },
{ "type": "Feature", "properties": { "osm_id": "-42625", "other_tags": "\"purpose\"=>\"entry\"" }, "geometry": { "type": "Point", "coordinates": [ 37.5751623, 55.7626532 ] } },
{ "type": "Feature", "properties": { "osm_id": "-42627", "other_tags": "\"purpose\"=>\"entry\"" }, "geometry": { "type": "Point", "coordinates": [ 37.5763252, 55.7629564 ] } },
{ "type": "Feature", "properties": { "osm_id": "-42629", "other_tags": "\"purpose\"=>\"entry\"" }, "geometry": { "type": "Point", "coordinates": [ 37.5755307, 55.7623252 ] } },
{ "type": "Feature", "properties": { "osm_id": "-42630", "other_tags": "\"purpose\"=>\"entry\"" }, "geometry": { "type": "Point", "coordinates": [ 37.5755967, 55.7622076 ] } },
{ "type": "Feature", "properties": { "osm_id": "-42632", "other_tags": "\"purpose\"=>\"entry\"" }, "geometry": { "type": "Point", "coordinates": [ 37.5755793, 55.7625394 ] } },
{ "type": "Feature", "properties": { "osm_id": "-42633", "name": "Сурок", "other_tags": "\"attraction\"=>\"animal\",\"is_in:zoo\"=>\"Московский зоопарк\"" }, "geometry": { "type": "Point", "coordinates": [ 37.5766885, 55.7641695 ] } },
{ "type": "Feature", "properties": { "osm_id": "-42634", "name": "Кенгуру Беннетта", "other_tags": "\"attraction\"=>\"animal\",\"is_in:zoo\"=>\"Московский зоопарк\"" }, "geometry": { "type": "Point", "coordinates": [ 37.5800175, 55.7625799 ] } },
{ "type": "Feature", "properties": { "osm_id": "-42635", "name": "Харза", "other_tags": "\"attraction\"=>\"animal\",\"is_in:zoo\"=>\"Московский зоопарк\"" }, "geometry": { "type": "Point", "coordinates": [ 37.5806829, 55.7627501 ] } },
{ "type": "Feature", "properties": { "osm_id": "-42636", "name": "Полярный мир", "other_tags": "\"attraction\"=>\"animal\",\"is_in:zoo\"=>\"Московский зоопарк\"" }, "geometry": { "type": "Point", "coordinates": [ 37.5816541, 55.7627851 ] } },
{ "type": "Feature", "properties": { "osm_id": "-42637", "name": "Корова домашняя", "other_tags": "\"attraction\"=>\"animal\",\"is_in:zoo\"=>\"Московский зоопарк\"" }, "geometry": { "type": "Point", "coordinates": [ 37.5829148, 55.7615487 ] } },
{ "type": "Feature", "properties": { "osm_id": "-42638", "name": "Эдильбаевская овца", "other_tags": "\"attraction\"=>\"animal\",\"is_in:zoo\"=>\"Московский зоопарк\"" }, "geometry": { "type": "Point", "coordinates": [ 37.5829769, 55.7616241 ] } },
{ "type": "Feature", "properties": { "osm_id": "-42639", "name": "Камерунская коза", "other_tags": "\"attraction\"=>\"animal\",\"is_in:zoo\"=>\"Московский зоопарк\"" }, "geometry": { "type": "Point", "coordinates": [ 37.5826303, 55.7612966 ] } },
{ "type": "Feature", "properties": { "osm_id": "-42640", "name": "Крокодилы, змеи и вараны", "other_tags": "\"attraction\"=>\"animal\",\"is_in:zoo\"=>\"Московский зоопарк\"" }, "geometry": { "type": "Point", "coordinates": [ 37.5837912, 55.7619976 ] } },
{ "type": "Feature", "properties": { "osm_id": "-42641", "name": "Рыбы коралловых рифов", "other_tags": "\"attraction\"=>\"animal\",\"is_in:zoo\"=>\"Московский зоопарк\"" }, "geometry": { "type": "Point", "coordinates": [ 37.5839416, 55.7642229 ] } },
{ "type": "Feature", "properties": { "osm_id": "-42642", "name": "Копытные Азии", "other_tags": "\"attraction\"=>\"animal\",\"is_in:zoo\"=>\"Московский зоопарк\"" }, "geometry": { "type": "Point", "coordinates": [ 37.5838222, 55.7647426 ] } },
{ "type": "Feature", "properties": { "osm_id": "-42643", "name": "Карликовый бегемот", "other_tags": "\"attraction\"=>\"animal\",\"is_in:zoo\"=>\"Московский зоопарк\"" }, "geometry": { "type": "Point", "coordinates": [ 37.5844648, 55.7631898 ] } },
{ "type": "Feature", "properties": { "osm_id": "-42644", "name": "Обыкновенный дикдик", "other_tags": "\"attraction\"=>\"animal\",\"is_in:zoo\"=>\"Московский зоопарк\"" }, "geometry": { "type": "Point", "coordinates": [ 37.5841868, 55.7631254 ] } },
{ "type": "Feature", "properties": { "osm_id": "-42645", "name": "Медоед", "other_tags": "\"attraction\"=>\"animal\",\"is_in:zoo\"=>\"Московский зоопарк\"" }, "geometry": { "type": "Point", "coordinates": [ 37.5840397, 55.7630905 ] } },
{ "type": "Feature", "properties": { "osm_id": "-42647", "other_tags": "\"purpose\"=>\"entry\"" }, "geometry": { "type": "Point", "coordinates": [ 37.5800371, 55.7626443 ] } },
{ "type": "Feature", "properties": { "osm_id": "-42651", "other_tags": "\"purpose\"=>\"entry\"" }, "geometry": { "type": "Point", "coordinates": [ 37.5845531, 55.7629801 ] } },
{ "type": "Feature", "properties": { "osm_id": "-42652", "other_tags": "\"purpose\"=>\"entry\"" }, "geometry": { "type": "Point", "coordinates": [ 37.5829115, 55.7616462 ] } },
{ "type": "Feature", "properties": { "osm_id": "-42653", "other_tags": "\"purpose\"=>\"entry\"" }, "geometry": { "type": "Point", "coordinates": [ 37.5828207, 55.761532 ] } },
{ "type": "Feature", "properties": { "osm_id": "-42654", "other_tags": "\"purpose\"=>\"entry\"" }, "geometry": { "type": "Point", "coordinates": [ 37.5850845, 55.7635698 ] } },
{ "type": "Feature", "properties": { "osm_id": "-42655", "other_tags": "\"entrance\"=>\"side\",\"exit\"=>\"side\"" }, "geometry": { "type": "Point", "coordinates": [ 37.5833333, 55.7614144 ] } },
{ "type": "Feature", "properties": { "osm_id": "-42656", "other_tags": "\"exit\"=>\"side\"" }, "geometry": { "type": "Point", "coordinates": [ 37.5823212, 55.7642312 ] } },
{ "type": "Feature", "properties": { "osm_id": "-42657", "other_tags": "\"exit\"=>\"main\"" }, "geometry": { "type": "Point", "coordinates": [ 37.5775191, 55.7609507 ] } },
{ "type": "Feature", "properties": { "osm_id": "-42658", "other_tags": "\"purpose\"=>\"entry\"" }, "geometry": { "type": "Point", "coordinates": [ 37.5788939, 55.7625622 ] } },
{ "type": "Feature", "properties": { "osm_id": "-42659", "other_tags": "\"purpose\"=>\"entry\"" }, "geometry": { "type": "Point", "coordinates": [ 37.5786354, 55.7629132 ] } },
{ "type": "Feature", "properties": { "osm_id": "-42660", "other_tags": "\"purpose\"=>\"entry\"" }, "geometry": { "type": "Point", "coordinates": [ 37.5769198, 55.7637707 ] } },
{ "type": "Feature", "properties": { "osm_id": "-42661", "other_tags": "\"purpose\"=>\"entry\"" }, "geometry": { "type": "Point", "coordinates": [ 37.5771086, 55.7640628 ] } },
{ "type": "Feature", "properties": { "osm_id": "-42662", "other_tags": "\"purpose\"=>\"entry\"" }, "geometry": { "type": "Point", "coordinates": [ 37.5773275, 55.7639379 ] } },
{ "type": "Feature", "properties": { "osm_id": "-42663", "other_tags": "\"purpose\"=>\"entry\"" }, "geometry": { "type": "Point", "coordinates": [ 37.575815, 55.7645468 ] } },
{ "type": "Feature", "properties": { "osm_id": "-42664", "other_tags": "\"purpose\"=>\"entry\"" }, "geometry": { "type": "Point", "coordinates": [ 37.5759247, 55.764443 ] } },
{ "type": "Feature", "properties": { "osm_id": "-42665", "other_tags": "\"purpose\"=>\"entry\"" }, "geometry": { "type": "Point", "coordinates": [ 37.5759924, 55.7640558 ] } },
{ "type": "Feature", "properties": { "osm_id": "-42666", "other_tags": "\"purpose\"=>\"entry\"" }, "geometry": { "type": "Point", "coordinates": [ 37.5758711, 55.7640213 ] } },
{ "type": "Feature", "properties": { "osm_id": "-42667", "other_tags": "\"purpose\"=>\"entry\"" }, "geometry": { "type": "Point", "coordinates": [ 37.5763395, 55.7640882 ] } },
{ "type": "Feature", "properties": { "osm_id": "-42668", "other_tags": "\"purpose\"=>\"entry\"" }, "geometry": { "type": "Point", "coordinates": [ 37.5756643, 55.7639624 ] } },
{ "type": "Feature", "properties": { "osm_id": "-42669", "other_tags": "\"purpose\"=>\"entry\"" }, "geometry": { "type": "Point", "coordinates": [ 37.5753341, 55.7638684 ] } },
{ "type": "Feature", "properties": { "osm_id": "-42670", "other_tags": "\"purpose\"=>\"entry\"" }, "geometry": { "type": "Point", "coordinates": [ 37.5752999, 55.7636864 ] } },
{ "type": "Feature", "properties": { "osm_id": "-42671", "other_tags": "\"purpose\"=>\"entry\"" }, "geometry": { "type": "Point", "coordinates": [ 37.5752422, 55.7637394 ] } },
{ "type": "Feature", "properties": { "osm_id": "-42672", "other_tags": "\"purpose\"=>\"entry\"" }, "geometry": { "type": "Point", "coordinates": [ 37.5749506, 55.7640615 ] } },
{ "type": "Feature", "properties": { "osm_id": "-42673", "other_tags": "\"purpose\"=>\"entry\"" }, "geometry": { "type": "Point", "coordinates": [ 37.5750284, 55.7639696 ] } },
{ "type": "Feature", "properties": { "osm_id": "-42674", "other_tags": "\"purpose\"=>\"entry\"" }, "geometry": { "type": "Point", "coordinates": [ 37.5751572, 55.763383 ] } },
{ "type": "Feature", "properties": { "osm_id": "-42675", "other_tags": "\"purpose\"=>\"entry\"" }, "geometry": { "type": "Point", "coordinates": [ 37.5754536, 55.7630929 ] } },
{ "type": "Feature", "properties": { "osm_id": "-42676", "other_tags": "\"purpose\"=>\"entry\"" }, "geometry": { "type": "Point", "coordinates": [ 37.5762927, 55.7633443 ] } },
{ "type": "Feature", "properties": { "osm_id": "-42677", "other_tags": "\"purpose\"=>\"entry\"" }, "geometry": { "type": "Point", "coordinates": [ 37.5764557, 55.763022 ] } },
{ "type": "Feature", "properties": { "osm_id": "-42679", "other_tags": "\"purpose\"=>\"entry\"" }, "geometry": { "type": "Point", "coordinates": [ 37.5772986, 55.7628277 ] } },
{ "type": "Feature", "properties": { "osm_id": "-42680", "other_tags": "\"purpose\"=>\"entry\"" }, "geometry": { "type": "Point", "coordinates": [ 37.5771623, 55.7628128 ] } },
{ "type": "Feature", "properties": { "osm_id": "-42681", "other_tags": "\"purpose\"=>\"entry\"" }, "geometry": { "type": "Point", "coordinates": [ 37.5767988, 55.762602 ] } },
{ "type": "Feature", "properties": { "osm_id": "-42682", "other_tags": "\"purpose\"=>\"entry\"" }, "geometry": { "type": "Point", "coordinates": [ 37.576134, 55.7628384 ] } },
{ "type": "Feature", "properties": { "osm_id": "-42683", "other_tags": "\"purpose\"=>\"entry\"" }, "geometry": { "type": "Point", "coordinates": [ 37.5761303, 55.7626831 ] } },
{ "type": "Feature", "properties": { "osm_id": "-42684", "other_tags": "\"purpose\"=>\"entry\"" }, "geometry": { "type": "Point", "coordinates": [ 37.5801647, 55.7626356 ] } },
{ "type": "Feature", "properties": { "osm_id": "-42685", "other_tags": "\"purpose\"=>\"entry\"" }, "geometry": { "type": "Point", "coordinates": [ 37.5801735, 55.7626823 ] } },
{ "type": "Feature", "properties": { "osm_id": "-42686", "other_tags": "\"purpose\"=>\"entry\"" }, "geometry": { "type": "Point", "coordinates": [ 37.5803626, 55.7626907 ] } },
{ "type": "Feature", "properties": { "osm_id": "-42687", "other_tags": "\"purpose\"=>\"entry\"" }, "geometry": { "type": "Point", "coordinates": [ 37.5803439, 55.7627298 ] } },
{ "type": "Feature", "properties": { "osm_id": "-42688", "other_tags": "\"purpose\"=>\"entry\"" }, "geometry": { "type": "Point", "coordinates": [ 37.5806313, 55.7627656 ] } },
{ "type": "Feature", "properties": { "osm_id": "-42689", "other_tags": "\"purpose\"=>\"entry\"" }, "geometry": { "type": "Point", "coordinates": [ 37.5806111, 55.762815 ] } },
{ "type": "Feature", "properties": { "osm_id": "-42690", "other_tags": "\"purpose\"=>\"entry\"" }, "geometry": { "type": "Point", "coordinates": [ 37.5813449, 55.76297 ] } },
{ "type": "Feature", "properties": { "osm_id": "-42691", "other_tags": "\"purpose\"=>\"entry\"" }, "geometry": { "type": "Point", "coordinates": [ 37.5814919, 55.763015 ] } },
{ "type": "Feature", "properties": { "osm_id": "-42692", "other_tags": "\"purpose\"=>\"entry\"" }, "geometry": { "type": "Point", "coordinates": [ 37.5816167, 55.7630533 ] } },
{ "type": "Feature", "properties": { "osm_id": "-42693", "other_tags": "\"purpose\"=>\"entry\"" }, "geometry": { "type": "Point", "coordinates": [ 37.5821439, 55.7626603 ] } },
{ "type": "Feature", "properties": { "osm_id": "-42694", "other_tags": "\"purpose\"=>\"entry\"" }, "geometry": { "type": "Point", "coordinates": [ 37.5823352, 55.7627878 ] } },
{ "type": "Feature", "properties": { "osm_id": "-42695", "other_tags": "\"purpose\"=>\"entry\"" }, "geometry": { "type": "Point", "coordinates": [ 37.5822663, 55.7627 ] } },
{ "type": "Feature", "properties": { "osm_id": "-42696", "other_tags": "\"purpose\"=>\"entry\"" }, "geometry": { "type": "Point", "coordinates": [ 37.582419, 55.7626871 ] } },
{ "type": "Feature", "properties": { "osm_id": "-42697", "other_tags": "\"purpose\"=>\"entry\"" }, "geometry": { "type": "Point", "coordinates": [ 37.5826212, 55.7626252 ] } },
{ "type": "Feature", "properties": { "osm_id": "-42698", "other_tags": "\"purpose\"=>\"entry\"" }, "geometry": { "type": "Point", "coordinates": [ 37.5827977, 55.7626933 ] } },
{ "type": "Feature", "properties": { "osm_id": "-42699", "other_tags": "\"purpose\"=>\"entry\"" }, "geometry": { "type": "Point", "coordinates": [ 37.5837127, 55.7630925 ] } },
{ "type": "Feature", "properties": { "osm_id": "-42700", "other_tags": "\"purpose\"=>\"entry\"" }, "geometry": { "type": "Point", "coordinates": [ 37.5840353, 55.7630197 ] } },
{ "type": "Feature", "properties": { "osm_id": "-42701", "other_tags": "\"purpose\"=>\"entry\"" }, "geometry": { "type": "Point", "coordinates": [ 37.584414, 55.7628881 ] } },
{ "type": "Feature", "properties": { "osm_id": "-42702", "other_tags": "\"purpose\"=>\"entry\"" }, "geometry": { "type": "Point", "coordinates": [ 37.5849427, 55.7633895 ] } },
{ "type": "Feature", "properties": { "osm_id": "-42703", "other_tags": "\"purpose\"=>\"entry\"" }, "geometry": { "type": "Point", "coordinates": [ 37.5830501, 55.763749 ] } },
{ "type": "Feature", "properties": { "osm_id": "-42704", "other_tags": "\"purpose\"=>\"entry\"" }, "geometry": { "type": "Point", "coordinates": [ 37.583382, 55.7639082 ] } },
{ "type": "Feature", "properties": { "osm_id": "-42705", "other_tags": "\"purpose\"=>\"entry\"" }, "geometry": { "type": "Point", "coordinates": [ 37.5845836, 55.763949 ] } },
{ "type": "Feature", "properties": { "osm_id": "-42706", "other_tags": "\"purpose\"=>\"entry\"" }, "geometry": { "type": "Point", "coordinates": [ 37.5842342, 55.7644328 ] } },
{ "type": "Feature", "properties": { "osm_id": "-42707", "other_tags": "\"purpose\"=>\"entry\"" }, "geometry": { "type": "Point", "coordinates": [ 37.5824646, 55.7637744 ] } },
{ "type": "Feature", "properties": { "osm_id": "-42708", "other_tags": "\"purpose\"=>\"entry\"" }, "geometry": { "type": "Point", "coordinates": [ 37.581882, 55.763438 ] } },
{ "type": "Feature", "properties": { "osm_id": "-42709", "other_tags": "\"purpose\"=>\"entry\"" }, "geometry": { "type": "Point", "coordinates": [ 37.5812006, 55.7634373 ] } },
{ "type": "Feature", "properties": { "osm_id": "-42710", "other_tags": "\"purpose\"=>\"entry\"" }, "geometry": { "type": "Point", "coordinates": [ 37.5819722, 55.7634941 ] } },
{ "type": "Feature", "properties": { "osm_id": "-42711", "other_tags": "\"purpose\"=>\"entry\"" }, "geometry": { "type": "Point", "coordinates": [ 37.5812619, 55.7629445 ] } },
{ "type": "Feature", "properties": { "osm_id": "-42712", "other_tags": "\"purpose\"=>\"entry\"" }, "geometry": { "type": "Point", "coordinates": [ 37.5809331, 55.7628496 ] } },
{ "type": "Feature", "properties": { "osm_id": "-42713", "other_tags": "\"purpose\"=>\"entry\"" }, "geometry": { "type": "Point", "coordinates": [ 37.5808441, 55.7628706 ] } },
{ "type": "Feature", "properties": { "osm_id": "-42714", "other_tags": "\"purpose\"=>\"entry\"" }, "geometry": { "type": "Point", "coordinates": [ 37.5806085, 55.7634136 ] } },
{ "type": "Feature", "properties": { "osm_id": "-42715", "other_tags": "\"purpose\"=>\"entry\"" }, "geometry": { "type": "Point", "coordinates": [ 37.5823807, 55.7613375 ] } },
{ "type": "Feature", "properties": { "osm_id": "-42716", "other_tags": "\"purpose\"=>\"entry\"" }, "geometry": { "type": "Point", "coordinates": [ 37.5831632, 55.761591 ] } },
{ "type": "Feature", "properties": { "osm_id": "-42717", "other_tags": "\"purpose\"=>\"entry\"" }, "geometry": { "type": "Point", "coordinates": [ 37.5836, 55.762046 ] } },
{ "type": "Feature", "properties": { "osm_id": "-42718", "other_tags": "\"purpose\"=>\"entry\"" }, "geometry": { "type": "Point", "coordinates": [ 37.5767248, 55.7648416 ] } },
{ "type": "Feature", "properties": { "osm_id": "-42719", "other_tags": "\"purpose\"=>\"entry\"" }, "geometry": { "type": "Point", "coordinates": [ 37.5757259, 55.7650304 ] } },
{ "type": "Feature", "properties": { "osm_id": "-42720", "other_tags": "\"purpose\"=>\"entry\"" }, "geometry": { "type": "Point", "coordinates": [ 37.5749923, 55.764876 ] } },
{ "type": "Feature", "properties": { "osm_id": "-42721", "other_tags": "\"purpose\"=>\"entry\"" }, "geometry": { "type": "Point", "coordinates": [ 37.5746035, 55.7647339 ] } },
{ "type": "Feature", "properties": { "osm_id": "-42722", "other_tags": "\"purpose\"=>\"entry\"" }, "geometry": { "type": "Point", "coordinates": [ 37.5746122, 55.7646695 ] } },
{ "type": "Feature", "properties": { "osm_id": "-42723", "other_tags": "\"purpose\"=>\"entry\"" }, "geometry": { "type": "Point", "coordinates": [ 37.5746186, 55.7646221 ] } },
{ "type": "Feature", "properties": { "osm_id": "-42724", "other_tags": "\"purpose\"=>\"entry\"" }, "geometry": { "type": "Point", "coordinates": [ 37.57493, 55.7625342 ] } },
{ "type": "Feature", "properties": { "osm_id": "-42725", "other_tags": "\"purpose\"=>\"entry\"" }, "geometry": { "type": "Point", "coordinates": [ 37.5749068, 55.7625076 ] } },
{ "type": "Feature", "properties": { "osm_id": "-42726", "other_tags": "\"purpose\"=>\"entry\"" }, "geometry": { "type": "Point", "coordinates": [ 37.5749894, 55.7624436 ] } },
{ "type": "Feature", "properties": { "osm_id": "-42727", "other_tags": "\"purpose\"=>\"entry\"" }, "geometry": { "type": "Point", "coordinates": [ 37.578535, 55.7630053 ] } },
{ "type": "Feature", "properties": { "osm_id": "641583382", "other_tags": "\"purpose\"=>\"entry\"" }, "geometry": { "type": "Point", "coordinates": [ 37.5758643, 55.7619928 ] } },
{ "type": "Feature", "properties": { "osm_id": "641583408", "other_tags": "\"purpose\"=>\"entry\"" }, "geometry": { "type": "Point", "coordinates": [ 37.5744212, 55.7640065 ] } },
{ "type": "Feature", "properties": { "osm_id": "641583445", "other_tags": "\"purpose\"=>\"entry\"" }, "geometry": { "type": "Point", "coordinates": [ 37.5756675, 55.7620813 ] } },
{ "type": "Feature", "properties": { "osm_id": "641583451", "other_tags": "\"purpose\"=>\"entry\"" }, "geometry": { "type": "Point", "coordinates": [ 37.5753351, 55.7620304 ] } },
{ "type": "Feature", "properties": { "osm_id": "641583548", "other_tags": "\"purpose\"=>\"entry\"" }, "geometry": { "type": "Point", "coordinates": [ 37.5762666, 55.7625096 ] } },
{ "type": "Feature", "properties": { "osm_id": "641583560", "other_tags": "\"purpose\"=>\"entry\"" }, "geometry": { "type": "Point", "coordinates": [ 37.5761807, 55.7628838 ] } },
{ "type": "Feature", "properties": { "osm_id": "641583620", "other_tags": "\"purpose\"=>\"entry\"" }, "geometry": { "type": "Point", "coordinates": [ 37.5755263, 55.7648999 ] } },
{ "type": "Feature", "properties": { "osm_id": "641583693", "other_tags": "\"purpose\"=>\"entry\"" }, "geometry": { "type": "Point", "coordinates": [ 37.5775101, 55.7634259 ] } },
{ "type": "Feature", "properties": { "osm_id": "1253152092", "other_tags": "\"purpose\"=>\"entry\"" }, "geometry": { "type": "Point", "coordinates": [ 37.5847906, 55.7631962 ] } },
{ "type": "Feature", "properties": { "osm_id": "1253152099", "other_tags": "\"purpose\"=>\"entry\"" }, "geometry": { "type": "Point", "coordinates": [ 37.5816842, 55.7633149 ] } },
{ "type": "Feature", "properties": { "osm_id": "1253152111", "other_tags": "\"purpose\"=>\"entry\"" }, "geometry": { "type": "Point", "coordinates": [ 37.5827063, 55.7635785 ] } },
{ "type": "Feature", "properties": { "osm_id": "1253152175", "other_tags": "\"purpose\"=>\"entry\"" }, "geometry": { "type": "Point", "coordinates": [ 37.5845276, 55.7630603 ] } },
{ "type": "Feature", "properties": { "osm_id": "1253152210", "other_tags": "\"purpose\"=>\"entry\"" }, "geometry": { "type": "Point", "coordinates": [ 37.5845654, 55.76386 ] } },
{ "type": "Feature", "properties": { "osm_id": "1253152275", "other_tags": "\"purpose\"=>\"entry\"" }, "geometry": { "type": "Point", "coordinates": [ 37.584816, 55.7633453 ] } },
{ "type": "Feature", "properties": { "osm_id": "1253152283", "other_tags": "\"purpose\"=>\"entry\"" }, "geometry": { "type": "Point", "coordinates": [ 37.5821833, 55.7636255 ] } },
{ "type": "Feature", "properties": { "osm_id": "1400281023", "other_tags": "\"purpose\"=>\"entry\"" }, "geometry": { "type": "Point", "coordinates": [ 37.5836983, 55.7638607 ] } },
{ "type": "Feature", "properties": { "osm_id": "1400281024", "other_tags": "\"purpose\"=>\"entry\"" }, "geometry": { "type": "Point", "coordinates": [ 37.5835738, 55.7638974 ] } },
{ "type": "Feature", "properties": { "osm_id": "1400281040", "other_tags": "\"purpose\"=>\"entry\"" }, "geometry": { "type": "Point", "coordinates": [ 37.5844106, 55.764329 ] } },
{ "type": "Feature", "properties": { "osm_id": "1400281044", "other_tags": "\"purpose\"=>\"entry\"" }, "geometry": { "type": "Point", "coordinates": [ 37.5839359, 55.7644723 ] } },
{ "type": "Feature", "properties": { "osm_id": "1838704625", "name": "Белые медведи", "other_tags": "\"attraction\"=>\"animal\",\"is_in:zoo\"=>\"Московский зоопарк\"" }, "geometry": { "type": "Point", "coordinates": [ 37.581466, 55.7629086 ] } },
{ "type": "Feature", "properties": { "osm_id": "1838704634", "name": "Гигантская выдра", "other_tags": "\"attraction\"=>\"animal\",\"is_in:zoo\"=>\"Московский зоопарк\"" }, "geometry": { "type": "Point", "coordinates": [ 37.5797218, 55.7625539 ] } },
{ "type": "Feature", "properties": { "osm_id": "1839631442", "name": "Белая сова", "other_tags": "\"attraction\"=>\"animal\",\"is_in:zoo\"=>\"Московский зоопарк\"" }, "geometry": { "type": "Point", "coordinates": [ 37.5810745, 55.7628498 ] } },
{ "type": "Feature", "properties": { "osm_id": "1839631444", "name": "Дом приматов", "other_tags": "\"attraction\"=>\"animal\",\"is_in:zoo\"=>\"Московский зоопарк\"" }, "geometry": { "type": "Point", "coordinates": [ 37.5833966, 55.7622604 ] } },
{ "type": "Feature", "properties": { "osm_id": "1839631447", "name": "Горный козел", "other_tags": "\"attraction\"=>\"animal\",\"is_in:zoo\"=>\"Московский зоопарк\"" }, "geometry": { "type": "Point", "coordinates": [ 37.5820688, 55.7633461 ] } },
{ "type": "Feature", "properties": { "osm_id": "1839631468", "name": "Двупалый ленивцы", "other_tags": "\"attraction\"=>\"animal\",\"is_in:zoo\"=>\"Московский зоопарк\"" }, "geometry": { "type": "Point", "coordinates": [ 37.5796207, 55.7624509 ] } },
{ "type": "Feature", "properties": { "osm_id": "1839631470", "name": "Экзотариум", "other_tags": "\"attraction\"=>\"animal\",\"is_in:zoo\"=>\"Московский зоопарк\"" }, "geometry": { "type": "Point", "coordinates": [ 37.5838609, 55.7641863 ] } },
{ "type": "Feature", "properties": { "osm_id": "1845119770", "name": "Капибары", "other_tags": "\"attraction\"=>\"animal\",\"is_in:zoo\"=>\"Московский зоопарк\"" }, "geometry": { "type": "Point", "coordinates": [ 37.5789344, 55.7619505 ] } },
{ "type": "Feature", "properties": { "osm_id": "1845119771", "name": "Обыкновенный павлин", "other_tags": "\"attraction\"=>\"animal\",\"is_in:zoo\"=>\"Московский зоопарк\"" }, "geometry": { "type": "Point", "coordinates": [ 37.5786609, 55.7627484 ] } },
{ "type": "Feature", "properties": { "osm_id": "1845119772", "name": "Японские макаки", "other_tags": "\"attraction\"=>\"animal\",\"is_in:zoo\"=>\"Московский зоопарк\"" }, "geometry": { "type": "Point", "coordinates": [ 37.5790074, 55.7624191 ] } },
{ "type": "Feature", "properties": { "osm_id": "1845119773", "name": "Фауна Китая", "other_tags": "\"attraction\"=>\"animal\",\"is_in:zoo\"=>\"Московский зоопарк\"" }, "geometry": { "type": "Point", "coordinates": [ 37.5748676, 55.7621541 ] } },
{ "type": "Feature", "properties": { "osm_id": "1845119778", "name": "Хищные птицы", "other_tags": "\"attraction\"=>\"animal\",\"is_in:zoo\"=>\"Московский зоопарк\"" }, "geometry": { "type": "Point", "coordinates": [ 37.5769467, 55.7640476 ] } },
{ "type": "Feature", "properties": { "osm_id": "1845119782", "name": "Домашний як", "other_tags": "\"attraction\"=>\"animal\",\"is_in:zoo\"=>\"Московский зоопарк\"" }, "geometry": { "type": "Point", "coordinates": [ 37.5744594, 55.7635945 ] } },
{ "type": "Feature", "properties": { "osm_id": "1845119797", "name": "Енотовидная собака", "other_tags": "\"attraction\"=>\"animal\",\"is_in:zoo\"=>\"Московский зоопарк\"" }, "geometry": { "type": "Point", "coordinates": [ 37.5756404, 55.7623513 ] } },
{ "type": "Feature", "properties": { "osm_id": "1845119798", "name": "Орлан-белохвост", "other_tags": "\"attraction\"=>\"animal\",\"is_in:zoo\"=>\"Московский зоопарк\"" }, "geometry": { "type": "Point", "coordinates": [ 37.5765176, 55.7628566 ] } },
{ "type": "Feature", "properties": { "osm_id": "1845119799", "name": "Сумеречный мир", "other_tags": "\"attraction\"=>\"animal\",\"is_in:zoo\"=>\"Московский зоопарк\"" }, "geometry": { "type": "Point", "coordinates": [ 37.5778753, 55.7631831 ] } },
{ "type": "Feature", "properties": { "osm_id": "1845119810", "name": "Ирбис", "other_tags": "\"attraction\"=>\"animal\",\"is_in:zoo\"=>\"Московский зоопарк\"" }, "geometry": { "type": "Point", "coordinates": [ 37.5762349, 55.7635003 ] } },
{ "type": "Feature", "properties": { "osm_id": "1845119825", "name": "Кошачий ряд", "other_tags": "\"attraction\"=>\"animal\",\"is_in:zoo\"=>\"Московский зоопарк\"" }, "geometry": { "type": "Point", "coordinates": [ 37.5751857, 55.7632322 ] } },
{ "type": "Feature", "properties": { "osm_id": "1845119826", "name": "Альпака", "other_tags": "\"attraction\"=>\"animal\",\"is_in:zoo\"=>\"Московский зоопарк\"" }, "geometry": { "type": "Point", "coordinates": [ 37.5762466, 55.7631924 ] } },
{ "type": "Feature", "properties": { "osm_id": "1845119831", "name": "Гимолайский медведь", "other_tags": "\"attraction\"=>\"animal\",\"is_in:zoo\"=>\"Московский зоопарк\"" }, "geometry": { "type": "Point", "coordinates": [ 37.5748993, 55.762708 ] } },
{ "type": "Feature", "properties": { "osm_id": "1845119835", "name": "Волки", "other_tags": "\"attraction\"=>\"animal\",\"is_in:zoo\"=>\"Московский зоопарк\"" }, "geometry": { "type": "Point", "coordinates": [ 37.5778343, 55.7634284 ] } },
{ "type": "Feature", "properties": { "osm_id": "2572589132", "other_tags": "\"purpose\"=>\"entry\"" }, "geometry": { "type": "Point", "coordinates": [ 37.5800157, 55.7625984 ] } },
{ "type": "Feature", "properties": { "osm_id": "2572815472", "other_tags": "\"purpose\"=>\"entry\"" }, "geometry": { "type": "Point", "coordinates": [ 37.5747284, 55.7644621 ] } },
{ "type": "Feature", "properties": { "osm_id": "3865068510", "name": "Пингвины", "other_tags": "\"attraction\"=>\"animal\",\"is_in:zoo\"=>\"Московский зоопарк\"" }, "geometry": { "type": "Point", "coordinates": [ 37.5744912, 55.7648837 ] } },
{ "type": "Feature", "properties": { "osm_id": "3865151367", "name": "Песец", "other_tags": "\"attraction\"=>\"animal\",\"is_in:zoo\"=>\"Московский зоопарк\"" }, "geometry": { "type": "Point", "coordinates": [ 37.5785138, 55.7630086 ] } },
{ "type": "Feature", "properties": { "osm_id": "3865151368", "name": "Бобр", "other_tags": "\"attraction\"=>\"animal\",\"is_in:zoo\"=>\"Московский зоопарк\"" }, "geometry": { "type": "Point", "coordinates": [ 37.5783522, 55.7632594 ] } },
{ "type": "Feature", "properties": { "osm_id": "3865151369", "name": "Обыкновенная лисица", "other_tags": "\"attraction\"=>\"animal\",\"is_in:zoo\"=>\"Московский зоопарк\"" }, "geometry": { "type": "Point", "coordinates": [ 37.5784543, 55.7631702 ] } },
{ "type": "Feature", "properties": { "osm_id": "3865151370", "name": "Врановые птицы", "other_tags": "\"attraction\"=>\"animal\",\"is_in:zoo\"=>\"Московский зоопарк\"" }, "geometry": { "type": "Point", "coordinates": [ 37.5784989, 55.7631109 ] } },
{ "type": "Feature", "properties": { "osm_id": "3865151372", "name": "Лесная куница", "other_tags": "\"attraction\"=>\"animal\",\"is_in:zoo\"=>\"Московский зоопарк\"" }, "geometry": { "type": "Point", "coordinates": [ 37.5784099, 55.7631946 ] } },
{ "type": "Feature", "properties": { "osm_id": "3865151373", "name": "Дальневосточный лесной кот", "other_tags": "\"attraction\"=>\"animal\",\"is_in:zoo\"=>\"Московский зоопарк\"" }, "geometry": { "type": "Point", "coordinates": [ 37.5784825, 55.7631446 ] } },
{ "type": "Feature", "properties": { "osm_id": "3865151374", "name": "Фламинго", "other_tags": "\"attraction\"=>\"animal\",\"is_in:zoo\"=>\"Московский зоопарк\"" }, "geometry": { "type": "Point", "coordinates": [ 37.5764145, 55.762179 ] } },
{ "type": "Feature", "properties": { "osm_id": "3865153057", "name": "Дагестанский тур", "other_tags": "\"attraction\"=>\"animal\",\"is_in:zoo\"=>\"Московский зоопарк\"" }, "geometry": { "type": "Point", "coordinates": [ 37.5823885, 55.7635295 ] } },
{ "type": "Feature", "properties": { "osm_id": "3865153058", "name": "Обыкновенная выдра", "other_tags": "\"attraction\"=>\"animal\",\"is_in:zoo\"=>\"Московский зоопарк\"" }, "geometry": { "type": "Point", "coordinates": [ 37.5802017, 55.7626201 ] } },
{ "type": "Feature", "properties": { "osm_id": "3865153063", "name": "Лебедь", "other_tags": "\"attraction\"=>\"animal\",\"is_in:zoo\"=>\"Московский зоопарк\"" }, "geometry": { "type": "Point", "coordinates": [ 37.5807672, 55.7630523 ] } },
{ "type": "Feature", "properties": { "osm_id": "3865153064", "name": "Птицы и бабочки тропиков", "other_tags": "\"attraction\"=>\"animal\",\"is_in:zoo\"=>\"Московский зоопарк\"" }, "geometry": { "type": "Point", "coordinates": [ 37.5821113, 55.7639041 ] } },
{ "type": "Feature", "properties": { "osm_id": "3865153065", "name": "Земляная утка", "other_tags": "\"attraction\"=>\"animal\",\"is_in:zoo\"=>\"Московский зоопарк\"" }, "geometry": { "type": "Point", "coordinates": [ 37.5809894, 55.7631112 ] } },
{ "type": "Feature", "properties": { "osm_id": "3865153066", "name": "Чирки Евразии", "other_tags": "\"attraction\"=>\"animal\",\"is_in:zoo\"=>\"Московский зоопарк\"" }, "geometry": { "type": "Point", "coordinates": [ 37.5822422, 55.7637157 ] } },
{ "type": "Feature", "properties": { "osm_id": "3865153067", "name": "Гуси", "other_tags": "\"attraction\"=>\"animal\",\"is_in:zoo\"=>\"Московский зоопарк\"" }, "geometry": { "type": "Point", "coordinates": [ 37.5806402, 55.763224 ] } },
{ "type": "Feature", "properties": { "osm_id": "3865153068", "name": "Синантропные птицы", "other_tags": "\"attraction\"=>\"animal\",\"is_in:zoo\"=>\"Московский зоопарк\"" }, "geometry": { "type": "Point", "coordinates": [ 37.5804011, 55.7626787 ] } },
{ "type": "Feature", "properties": { "osm_id": "3865153069", "name": "Цапля", "other_tags": "\"attraction\"=>\"animal\",\"is_in:zoo\"=>\"Московский зоопарк\"" }, "geometry": { "type": "Point", "coordinates": [ 37.5825091, 55.7639041 ] } },
{ "type": "Feature", "properties": { "osm_id": "3865153121", "other_tags": "\"purpose\"=>\"entry\"" }, "geometry": { "type": "Point", "coordinates": [ 37.5813418, 55.763404 ] } },
{ "type": "Feature", "properties": { "osm_id": "3865175067", "name": "Конюшни", "other_tags": "\"attraction\"=>\"animal\",\"is_in:zoo\"=>\"Московский зоопарк\"" }, "geometry": { "type": "Point", "coordinates": [ 37.5850649, 55.7633686 ] } },
{ "type": "Feature", "properties": { "osm_id": "3865175068", "name": "Домашняя лошадь", "other_tags": "\"attraction\"=>\"animal\",\"is_in:zoo\"=>\"Московский зоопарк\"" }, "geometry": { "type": "Point", "coordinates": [ 37.5846735, 55.762928 ] } },
{ "type": "Feature", "properties": { "osm_id": "3865175069", "name": "Животные Африки", "other_tags": "\"attraction\"=>\"animal\",\"is_in:zoo\"=>\"Московский зоопарк\"" }, "geometry": { "type": "Point", "coordinates": [ 37.5839878, 55.763411 ] } },
{ "type": "Feature", "properties": { "osm_id": "3865175071", "other_tags": "\"purpose\"=>\"entry\"" }, "geometry": { "type": "Point", "coordinates": [ 37.5830684, 55.761472 ] } },
{ "type": "Feature", "properties": { "osm_id": "3865175094", "other_tags": "\"purpose\"=>\"entry\"" }, "geometry": { "type": "Point", "coordinates": [ 37.5823252, 55.7636436 ] } },
{ "type": "Feature", "properties": { "osm_id": "3865175097", "other_tags": "\"purpose\"=>\"entry\"" }, "geometry": { "type": "Point", "coordinates": [ 37.5823882, 55.7637256 ] } },
{ "type": "Feature", "properties": { "osm_id": "3865175108", "other_tags": "\"purpose\"=>\"entry\"" }, "geometry": { "type": "Point", "coordinates": [ 37.5826576, 55.7638976 ] } },
{ "type": "Feature", "properties": { "osm_id": "3869479002", "other_tags": "\"purpose\"=>\"entry\"" }, "geometry": { "type": "Point", "coordinates": [ 37.5750305, 55.7647633 ] } },
{ "type": "Feature", "properties": { "osm_id": "3871104698", "other_tags": "\"entrance\"=>\"main\"" }, "geometry": { "type": "Point", "coordinates": [ 37.5788331, 55.7610204 ] } },
{ "type": "Feature", "properties": { "osm_id": "3876290269", "other_tags": "\"purpose\"=>\"entry\"" }, "geometry": { "type": "Point", "coordinates": [ 37.5770605, 55.761177 ] } },
{ "type": "Feature", "properties": { "osm_id": "3876290306", "other_tags": "\"purpose\"=>\"entry\"" }, "geometry": { "type": "Point", "coordinates": [ 37.5763565, 55.7617956 ] } },
{ "type": "Feature", "properties": { "osm_id": "4100014722", "other_tags": "\"purpose\"=>\"entry\"" }, "geometry": { "type": "Point", "coordinates": [ 37.582682, 55.7639962 ] } },
{ "type": "Feature", "properties": { "osm_id": "4123982119", "other_tags": "\"purpose\"=>\"entry\"" }, "geometry": { "type": "Point", "coordinates": [ 37.578575, 55.7621316 ] } },
{ "type": "Feature", "properties": { "osm_id": "4123982157", "other_tags": "\"purpose\"=>\"entry\"" }, "geometry": { "type": "Point", "coordinates": [ 37.57911, 55.7622917 ] } },
{ "type": "Feature", "properties": { "osm_id": "4123982165", "other_tags": "\"purpose\"=>\"entry\"" }, "geometry": { "type": "Point", "coordinates": [ 37.5831473, 55.7623246 ] } },
{ "type": "Feature", "properties": { "osm_id": "4123982223", "other_tags": "\"purpose\"=>\"entry\"" }, "geometry": { "type": "Point", "coordinates": [ 37.5791262, 55.7624514 ] } },
{ "type": "Feature", "properties": { "osm_id": "4123982235", "other_tags": "\"purpose\"=>\"entry\"" }, "geometry": { "type": "Point", "coordinates": [ 37.5797134, 55.76248 ] } },
{ "type": "Feature", "properties": { "osm_id": "4123982256", "other_tags": "\"purpose\"=>\"entry\"" }, "geometry": { "type": "Point", "coordinates": [ 37.5796297, 55.7625123 ] } },
{ "type": "Feature", "properties": { "osm_id": "4123982294", "other_tags": "\"purpose\"=>\"entry\"" }, "geometry": { "type": "Point", "coordinates": [ 37.5833418, 55.7625785 ] } },
{ "type": "Feature", "properties": { "osm_id": "4123982299", "other_tags": "\"purpose\"=>\"entry\"" }, "geometry": { "type": "Point", "coordinates": [ 37.5799091, 55.7625811 ] } },
{ "type": "Feature", "properties": { "osm_id": "4123982326", "other_tags": "\"purpose\"=>\"entry\"" }, "geometry": { "type": "Point", "coordinates": [ 37.5797638, 55.7626105 ] } },
{ "type": "Feature", "properties": { "osm_id": "4123982344", "other_tags": "\"purpose\"=>\"entry\"" }, "geometry": { "type": "Point", "coordinates": [ 37.582171, 55.7626939 ] } },
{ "type": "Feature", "properties": { "osm_id": "4123982745", "other_tags": "\"purpose\"=>\"entry\"" }, "geometry": { "type": "Point", "coordinates": [ 37.5833471, 55.7630063 ] } },
{ "type": "Feature", "properties": { "osm_id": "4123982756", "other_tags": "\"purpose\"=>\"entry\"" }, "geometry": { "type": "Point", "coordinates": [ 37.5842383, 55.7630233 ] } },
{ "type": "Feature", "properties": { "osm_id": "4123982769", "other_tags": "\"purpose\"=>\"entry\"" }, "geometry": { "type": "Point", "coordinates": [ 37.5838201, 55.763177 ] } },
{ "type": "Feature", "properties": { "osm_id": "4123982914", "other_tags": "\"purpose\"=>\"entry\"" }, "geometry": { "type": "Point", "coordinates": [ 37.5818984, 55.7631489 ] } },
{ "type": "Feature", "properties": { "osm_id": "4123982956", "other_tags": "\"purpose\"=>\"entry\"" }, "geometry": { "type": "Point", "coordinates": [ 37.5827242, 55.763316 ] } },
{ "type": "Feature", "properties": { "osm_id": "4123983422", "other_tags": "\"purpose\"=>\"entry\"" }, "geometry": { "type": "Point", "coordinates": [ 37.5842279, 55.763828 ] } },
{ "type": "Feature", "properties": { "osm_id": "4123983424", "other_tags": "\"purpose\"=>\"entry\"" }, "geometry": { "type": "Point", "coordinates": [ 37.5838323, 55.7638461 ] } },
{ "type": "Feature", "properties": { "osm_id": "4123983449", "other_tags": "\"purpose\"=>\"entry\"" }, "geometry": { "type": "Point", "coordinates": [ 37.5831363, 55.76412 ] } },
{ "type": "Feature", "properties": { "osm_id": "4123983450", "other_tags": "\"purpose\"=>\"entry\"" }, "geometry": { "type": "Point", "coordinates": [ 37.5846007, 55.7641275 ] } },
{ "type": "Feature", "properties": { "osm_id": "4123983452", "other_tags": "\"purpose\"=>\"entry\"" }, "geometry": { "type": "Point", "coordinates": [ 37.5831336, 55.7641781 ] } },
{ "type": "Feature", "properties": { "osm_id": "4123983459", "other_tags": "\"purpose\"=>\"entry\"" }, "geometry": { "type": "Point", "coordinates": [ 37.583264, 55.7643056 ] } },
{ "type": "Feature", "properties": { "osm_id": "4123983480", "other_tags": "\"purpose\"=>\"entry\"" }, "geometry": { "type": "Point", "coordinates": [ 37.5833803, 55.7643425 ] } },
{ "type": "Feature", "properties": { "osm_id": "4123983709", "other_tags": "\"purpose\"=>\"entry\"" }, "geometry": { "type": "Point", "coordinates": [ 37.5834518, 55.7643923 ] } },
{ "type": "Feature", "properties": { "osm_id": "4123983727", "other_tags": "\"purpose\"=>\"entry\"" }, "geometry": { "type": "Point", "coordinates": [ 37.5840687, 55.7644218 ] } },
{ "type": "Feature", "properties": { "osm_id": "4285644707", "name": "Росомахи", "other_tags": "\"attraction\"=>\"animal\",\"is_in:zoo\"=>\"Московский зоопарк\"" }, "geometry": { "type": "Point", "coordinates": [ 37.5823348, 55.7626342 ] } },
{ "type": "Feature", "properties": { "osm_id": "4285650404", "name": "Сычуаньский такин", "other_tags": "\"attraction\"=>\"animal\",\"is_in:zoo\"=>\"Московский зоопарк\"" }, "geometry": { "type": "Point", "coordinates": [ 37.5842394, 55.7644952 ] } },
{ "type": "Feature", "properties": { "osm_id": "4285653619", "name": "Орел", "other_tags": "\"attraction\"=>\"animal\",\"is_in:zoo\"=>\"Московский зоопарк\"" }, "geometry": { "type": "Point", "coordinates": [ 37.5821129, 55.7627501 ] } },
{ "type": "Feature", "properties": { "osm_id": "4285662589", "name": "Сурикаты", "other_tags": "\"attraction\"=>\"animal\",\"is_in:zoo\"=>\"Московский зоопарк\"" }, "geometry": { "type": "Point", "coordinates": [ 37.5834525, 55.7631373 ] } },
{ "type": "Feature", "properties": { "osm_id": "4285731291", "name": "Бурый медведь", "other_tags": "\"attraction\"=>\"animal\",\"is_in:zoo\"=>\"Московский зоопарк\"" }, "geometry": { "type": "Point", "coordinates": [ 37.5834404, 55.7641396 ] } },
{ "type": "Feature", "properties": { "osm_id": "4285731292", "name": "Львы", "other_tags": "\"attraction\"=>\"animal\",\"is_in:zoo\"=>\"Московский зоопарк\"" }, "geometry": { "type": "Point", "coordinates": [ 37.583891, 55.7639258 ] } },
{ "type": "Feature", "properties": { "osm_id": "4285752290", "name": "Тигры", "other_tags": "\"attraction\"=>\"animal\",\"is_in:zoo\"=>\"Московский зоопарк\"" }, "geometry": { "type": "Point", "coordinates": [ 37.5842219, 55.764296 ] } },
{ "type": "Feature", "properties": { "osm_id": "4286072392", "name": "Уссурийский медведь", "other_tags": "\"attraction\"=>\"animal\",\"is_in:zoo\"=>\"Московский зоопарк\"" }, "geometry": { "type": "Point", "coordinates": [ 37.5839111, 55.7643775 ] } },
{ "type": "Feature", "properties": { "osm_id": "4286089691", "name": "Пеликаны", "other_tags": "\"attraction\"=>\"animal\",\"is_in:zoo\"=>\"Московский зоопарк\"" }, "geometry": { "type": "Point", "coordinates": [ 37.5815967, 55.7635042 ] } },
{ "type": "Feature", "properties": { "osm_id": "4286097196", "name": "Жирафы", "other_tags": "\"attraction\"=>\"animal\",\"is_in:zoo\"=>\"Московский зоопарк\"" }, "geometry": { "type": "Point", "coordinates": [ 37.5832442, 55.7637092 ] } },
{ "type": "Feature", "properties": { "osm_id": "4286097197", "name": "Лемур", "other_tags": "\"attraction\"=>\"animal\",\"is_in:zoo\"=>\"Московский зоопарк\"" }, "geometry": { "type": "Point", "coordinates": [ 37.5830897, 55.7627656 ] } },
{ "type": "Feature", "properties": { "osm_id": "4286108490", "name": "Шакалы", "other_tags": "\"attraction\"=>\"animal\",\"is_in:zoo\"=>\"Московский зоопарк\"" }, "geometry": { "type": "Point", "coordinates": [ 37.5833813, 55.7642547 ] } },
{ "type": "Feature", "properties": { "osm_id": "4286109689", "name": "Гуанако", "other_tags": "\"attraction\"=>\"animal\",\"is_in:zoo\"=>\"Московский зоопарк\"" }, "geometry": { "type": "Point", "coordinates": [ 37.5787989, 55.7616388 ] } },
{ "type": "Feature", "properties": { "osm_id": "4286109789", "name": "Винторогий козёл", "other_tags": "\"attraction\"=>\"animal\",\"is_in:zoo\"=>\"Московский зоопарк\"" }, "geometry": { "type": "Point", "coordinates": [ 37.5825122, 55.7634062 ] } },
{ "type": "Feature", "properties": { "osm_id": "4287130590", "name": "Зебры", "other_tags": "\"attraction\"=>\"animal\",\"is_in:zoo\"=>\"Московский зоопарк\"" }, "geometry": { "type": "Point", "coordinates": [ 37.5837837, 55.7636878 ] } },
{ "type": "Feature", "properties": { "osm_id": "4287131089", "name": "Чёрные антилопы", "other_tags": "\"attraction\"=>\"animal\",\"is_in:zoo\"=>\"Московский зоопарк\"" }, "geometry": { "type": "Point", "coordinates": [ 37.584168, 55.763681 ] } },
{ "type": "Feature", "properties": { "osm_id": "4287294148", "name": "Гривистый волк", "other_tags": "\"attraction\"=>\"animal\",\"is_in:zoo\"=>\"Московский зоопарк\"" }, "geometry": { "type": "Point", "coordinates": [ 37.5750876, 55.7636941 ] } },
{ "type": "Feature", "properties": { "osm_id": "4287413393", "name": "Дальневосточная нерпа", "other_tags": "\"attraction\"=>\"animal\",\"is_in:zoo\"=>\"Московский зоопарк\"" }, "geometry": { "type": "Point", "coordinates": [ 37.575127, 55.7640551 ] } },
{ "type": "Feature", "properties": { "osm_id": "4287413493", "name": "Бурая гиена", "other_tags": "\"attraction\"=>\"animal\",\"is_in:zoo\"=>\"Московский зоопарк\"" }, "geometry": { "type": "Point", "coordinates": [ 37.5752283, 55.7634687 ] } },
{ "type": "Feature", "properties": { "osm_id": "4287508477", "name": "Пятнистая гиена", "other_tags": "\"attraction\"=>\"animal\",\"is_in:zoo\"=>\"Московский зоопарк\"" }, "geometry": { "type": "Point", "coordinates": [ 37.5842526, 55.7639425 ] } },
{ "type": "Feature", "properties": { "osm_id": "4310443571", "other_tags": "\"purpose\"=>\"entry\"" }, "geometry": { "type": "Point", "coordinates": [ 37.5761257, 55.7642528 ] } },
{ "type": "Feature", "properties": { "osm_id": "4418685089", "name": "Верблюд", "other_tags": "\"attraction\"=>\"animal\",\"is_in:zoo\"=>\"Московский зоопарк\"" }, "geometry": { "type": "Point", "coordinates": [ 37.5834573, 55.7645088 ] } },
{ "type": "Feature", "properties": { "osm_id": "4528639036", "other_tags": "\"purpose\"=>\"entry\"" }, "geometry": { "type": "Point", "coordinates": [ 37.5810271, 55.7628758 ] } },
{ "type": "Feature", "properties": { "osm_id": "4528639041", "other_tags": "\"purpose\"=>\"entry\"" }, "geometry": { "type": "Point", "coordinates": [ 37.5810567, 55.762884 ] } },
{ "type": "Feature", "properties": { "osm_id": "4877791221", "name": "Бакланы", "other_tags": "\"attraction\"=>\"animal\",\"is_in:zoo\"=>\"Московский зоопарк\"" }, "geometry": { "type": "Point", "coordinates": [ 37.5814994, 55.7635684 ] } },
{ "type": "Feature", "properties": { "osm_id": "5856085385", "name": "Большая панда", "other_tags": "\"attraction\"=>\"animal\",\"is_in:zoo\"=>\"Московский зоопарк\"" }, "geometry": { "type": "Point", "coordinates": [ 37.5750438, 55.762282 ] } },
{ "type": "Feature", "properties": { "osm_id": "5856366138", "other_tags": "\"purpose\"=>\"entry\"" }, "geometry": { "type": "Point", "coordinates": [ 37.5785524, 55.7630025 ] } },
{ "type": "Feature", "properties": { "osm_id": "5856366141", "other_tags": "\"purpose\"=>\"entry\"" }, "geometry": { "type": "Point", "coordinates": [ 37.5785072, 55.7631473 ] } },
{ "type": "Feature", "properties": { "osm_id": "5856366143", "other_tags": "\"purpose\"=>\"entry\"" }, "geometry": { "type": "Point", "coordinates": [ 37.5782078, 55.7632679 ] } },
{ "type": "Feature", "properties": { "osm_id": "5857231358", "other_tags": "\"purpose\"=>\"entry\"" }, "geometry": { "type": "Point", "coordinates": [ 37.5838718, 55.7645029 ] } },
{ "type": "Feature", "properties": { "osm_id": "5857231365", "other_tags": "\"purpose\"=>\"entry\"" }, "geometry": { "type": "Point", "coordinates": [ 37.5835888, 55.7644622 ] } },
{ "type": "Feature", "properties": { "osm_id": "5857231367", "other_tags": "\"purpose\"=>\"entry\"" }, "geometry": { "type": "Point", "coordinates": [ 37.58379, 55.7644181 ] } },
{ "type": "Feature", "properties": { "osm_id": "5861643072", "other_tags": "\"purpose\"=>\"entry\"" }, "geometry": { "type": "Point", "coordinates": [ 37.5784789, 55.7630112 ] } },
{ "type": "Feature", "properties": { "osm_id": "5861643076", "other_tags": "\"purpose\"=>\"entry\"" }, "geometry": { "type": "Point", "coordinates": [ 37.5784695, 55.763098 ] } },
{ "type": "Feature", "properties": { "osm_id": "5861643078", "other_tags": "\"purpose\"=>\"entry\"" }, "geometry": { "type": "Point", "coordinates": [ 37.5784447, 55.7631336 ] } },
{ "type": "Feature", "properties": { "osm_id": "5861643079", "other_tags": "\"purpose\"=>\"entry\"" }, "geometry": { "type": "Point", "coordinates": [ 37.5784162, 55.7631529 ] } },
{ "type": "Feature", "properties": { "osm_id": "5861643081", "other_tags": "\"purpose\"=>\"entry\"" }, "geometry": { "type": "Point", "coordinates": [ 37.5783712, 55.763181 ] } },
{ "type": "Feature", "properties": { "osm_id": "5861645892", "other_tags": "\"purpose\"=>\"entry\"" }, "geometry": { "type": "Point", "coordinates": [ 37.5779682, 55.7632036 ] } },
{ "type": "Feature", "properties": { "osm_id": "9841073958", "other_tags": "\"entrance\"=>\"side\"" }, "geometry": { "type": "Point", "coordinates": [ 37.582215, 55.761048 ] } },
{ "type": "Feature", "properties": { "osm_id": "9921877329", "other_tags": "\"purpose\"=>\"entry\"" }, "geometry": { "type": "Point", "coordinates": [ 37.5767554, 55.7625002 ] } },
{ "type": "Feature", "properties": { "osm_id": "9921877331", "other_tags": "\"purpose\"=>\"entry\"" }, "geometry": { "type": "Point", "coordinates": [ 37.5768371, 55.7627039 ] } },
{ "type": "Feature", "properties": { "osm_id": "11064467063", "other_tags": "\"purpose\"=>\"entry\"" }, "geometry": { "type": "Point", "coordinates": [ 37.5751943, 55.7624777 ] } },
{ "type": "Feature", "properties": { "osm_id": "13843634728", "other_tags": "\"purpose\"=>\"entry\"" }, "geometry": { "type": "Point", "coordinates": [ 37.5787018, 55.7626868 ] } },
{ "type": "Feature", "properties": { "osm_id": "13843634729", "other_tags": "\"purpose\"=>\"entry\"" }, "geometry": { "type": "Point", "coordinates": [ 37.5787206, 55.7626936 ] } }
]
}
